id,url,title,datetime,description,address,website,Source,source_name,image_url,source_id,starts_at,ends_at,venue_name,published_at,updated_at,group,banner,public_url,participants,waitlisted,ticket_limit,lat,long,URL,venue
1,https://www.tokyo-solamachi.jp/event/2551/,東京スカイツリータウン®  13周年感謝祭,期間：2025年5月9日 ～ 2025年6月1日,"5月22日に東京スカイツリータウンは13周年を迎えます。
13周年を記念して、限定メニューや商品などをご用意！
その他にも、様々なフェアやイベントを開催します。

①13周年記念メニュー
▷今だけのおいしさをお見逃しなく！
②13周年記念商品＆フェア
▷この期間だけのスペシャルアイテムも！
③ハッピーバッグ＆スクラッチ（5/16（金）スタート）
▷お得なセットに“ハズレなし”のスクラッチ付！
④13周年大感謝抽選会（5/16（金）スタート）
▷合計4,400名様以上に豪華景品が当たる！
⑤13周年記念ピンバッジプレゼント（5/22（木）スタート）
▷開業記念日の5月22日より、1,000円以上（税込）お買い上げでプレゼント！

詳しくは、下記関連サイトをご覧ください。",東京スカイツリータウン各所,東京スカイツリータウン®  13周年感謝祭の特設サイトはこちらから,TOKYO　東京ソラマチ,TOKYO　東京ソラマチ,,,,,,,,,,,,,,,,,
2,https://www.tokyo-solamachi.jp/event/2557/,ハッピーバッグ＆スクラッチ,期間：2025年5月16日 ～ 2025年6月1日,"13周年を記念して、人気商品をお得に詰め合わせた「ハッピーバッグ」を各店舗で販売！
感謝を込めて、もれなくハズレなしのスクラッチカード付きです。
数量限定なのでお見逃しなく！

スクラッチカード
A賞　東京ソラマチお買物券5,000円分・・・30名様
B賞　東京ソラマチお買物券1,000円分・・・500名様
C賞　東京ソラマチお買物券500円分・・・1,000名様
ハッピー賞　東京ソラマチお買物券100円分

※お釣りは出ません
※A賞とB賞は額面以上のお会計の際にご利用可能です
※C賞とハッピー賞はお買物券100円は1,000円（税込）ごとに1枚ご利用可能です

詳しくは、下記関連サイトをご覧ください。",東京スカイツリータウン各所,ハッピーバッグの参加店舗一覧はこちらからチェック！,TOKYO　東京ソラマチ,TOKYO　東京ソラマチ,,,,,,,,,,,,,,,,,
3,https://www.tokyo-solamachi.jp/event/2555/,13周年大感謝抽選会,期間：2025年5月16日 ～ 2025年5月22日,"5/16（金）～5/22（木）の7日間、13周年の感謝を込めて、豪華景品が合計4,400名様以上に当たる「13周年大感謝抽選会」を開催します。
特賞は日光金谷ホテルまたは中禅寺金谷ホテルのペア宿泊券です！

期間中、東京ソラマチのお買い上げレシート合計5,000円（税込・合算可）ごとに1回抽選が可能です。
さらに、東武カード・TOBU POINTアプリ・東京ソラマチ公式LINEアカウントのご提示で、それぞれ1回ずつ追加でチャレンジできます！

※台湾祭をはじめ、一部店舗・施設のレシートでは抽選会に参加することができません。詳細は下記関連サイトをご確認ください。
※景品交換は22日（木）の21:00までとなります。21:00を過ぎますと当選無効となります。
※抽選券が1日の上限枚数に達した場合、その日の抽選券のお渡しは終了とさせていただきます。
※抽選会回数上限は、20回までとなります（税込10万円分）。
※1:00～5:00はシステムメンテナンスのため、抽選にご参加いただけません。",東京スカイツリータウン各所,"豪華景品の内容はこちら（※4等の景品表記の一部に誤りがあったため、正しい表記に修正しております）
抽選会 対象外店舗・施設一覧",TOKYO　東京ソラマチ,TOKYO　東京ソラマチ,,,,,,,,,,,,,,,,,
4,https://www.tokyo-solamachi.jp/event/2556/,TOBU POINTポイントアップ！ソラマチスペシャルサンクス,期間：2025年5月16日 ～ 2025年5月25日,"2025年5月16日(金)～25日(日)の期間、「東京ソラマチ スペシャルサンクス」を開催！

東武カードのご提示で10％、TOBU POINTアプリご提示で5%にポイントアップします！
東武カードのお支払いでさらに1％ポイントアップ！
クレジット利用はもちろん、PASMOや現金でのお支払いでもポイントがたまります。
併せて、東武線乗車運賃の50％が貯まるトブポマイルキャンペーンも同時開催！詳細は関連サイトをご覧ください。

東武カードをお持ちでない方も、TOBUPOINTアプリは下記関連サイトからダウンロードいただけます。
登録無料で、登録後すぐにご利用いただけます。
ぜひこの機会に、アプリをダウンロードしてお買い物やお食事をお楽しみください。

• ポイントアップ時に付与するポイントは、『（ご利用金額×通常ポイント率）＋（ご利用金額×ポイントアップ率）』で計算されます。
• 提示ポイントと決済ポイントは、『（ご利用金額×提示ポイント率）＋（ご利用金額×決済ポイント率）』で計算されます。
• お買い物でたまるポイントの加算は翌日以降となります。
• お買物でつかうポイントの減算はリアルタイムで行います。
• アプリ登録済PASMO支払いで付与される0.5%は後日の付与になります。
※詳細は東武マーケティング株式会社(TEL:03-5396-6561)へお問い合わせください。",東京ソラマチ館内,"東武カードについての詳細はコチラ！
トブポマイルキャンペーンについての詳細はコチラ！
TOBUPOINTのご案内はこちら！",TOKYO　東京ソラマチ,TOKYO　東京ソラマチ,,,,,,,,,,,,,,,,,
5,https://www.tokyo-solamachi.jp/event/2553/,13周年 記念ピンバッジプレゼント,期間：2025年5月22日 ～ 2025年6月1日,"5月22日の開業記念日より、対象店舗にて1レシート1,000円（税込）以上お買い上げいただいた方に、先着で13周年記念ピンバッジを１つプレゼントいたします。

※数に限りがございます。無くなり次第終了とさせていただきます。
※台湾祭をはじめ、一部対象外の店舗がございます。詳細は関連サイトをご確認ください。
※対象店舗では店頭POP（画像2枚目）を掲出しております。",東京スカイツリータウン各所,対象外店舗はこちらからご確認ください。,TOKYO　東京ソラマチ,TOKYO　東京ソラマチ,,,,,,,,,,,,,,,,,
6,https://www.tokyo-solamachi.jp/event/2524/,台湾祭in東京スカイツリータウン®2025,期間：2025年4月5日 ～ 2025年6月1日,"「台湾祭」台湾グルメ＆ドリンクが東京スカイツリータウン®に集結、会場は台湾夜市風のネオンライトアップ！

「台湾祭」は、【365日の台湾夜市を日本で。】をテーマに台湾各地の夜市グルメなどを通じて台湾と日本の交流の懸け橋となることを目指しているイベントで、東京スカイツリータウンでは今年で3度目の開催となります。
今回はおなじみの絶品台湾グルメに加え、台湾新北市にある「楽華夜市」とのコラボメニューや、台湾産のレモンを使った「台湾生レモンサワー」が登場するなど、新しいコンテンツ盛りだくさんでお届け致します。
昼と夜で表情を変える台湾夜市風のネオンで彩られた会場も必見です。
毎年ご好評を頂いております台湾物販コーナーや台湾式マッサージ、占いブースもさらに充実。

台湾の魅力がたっぷり詰まった春のソラマチに是非お越しください。

※GW期間（4月26日～5月7日）の決済方法は「現金のみ」となります。
※ＧＷ期間（5月3日～６日）は営業時間は10：00～21：30となります。","4F スカイアリーナ
フロアガイド","台湾祭in東京スカイツリータウン®2025公式サイト
台湾祭in東京スカイツリータウン®2025公式インスタグラム
台湾祭in東京スカイツリータウン®2025公式X",TOKYO　東京ソラマチ,TOKYO　東京ソラマチ,,,,,,,,,,,,,,,,,
7,https://www.tokyo-solamachi.jp/event/2562/,キモい展2025,期間：2025年5月24日 ～ 2025年7月6日,"色や形、見た目はキモチ悪いけれど、「キモい」には理由(ワケ)がある生き物を世界中から集めて展示します。

今年は、毎週月・水・金曜日の15:00～15:30日時限定でキモアニ（キモチ悪いアニマルの略）とのふれあいコーナーも開催！
帰ってきた究極のキモい体験!?
ぜひじっくり観察して、ふれあってみてください。
※心臓の悪い方、アレルギーのお持ちの方はご遠慮ください。
※通常入場料が必要となります。
※スタッフの指示を必ずお守りください。

【動物取扱に関する表示】
氏名又は名称：株式会社セッティングプロモーション　代表取締役　土田謙一/事業所の名称：キモい展2025/事業所の所在地：東京都墨田区押上一丁目1番2号　東京ソラマチ5階スぺ―ス634/種別及び登録番号：展示　25東京都展第008637号/登録年月日：令和7年5月24日/有効期限の末日：令和12年5月23日/動物取扱責任者：今井　茂","5F スペース634
フロアガイド",,TOKYO　東京ソラマチ,TOKYO　東京ソラマチ,,,,,,,,,,,,,,,,,
8,https://www.tokyo-solamachi.jp/event/2543/,リコリス・リコイル × すみだスタンプラリー,期間：2025年4月25日 ～ 2025年6月1日,"人気アニメ「リコリス・リコイル」の作品の聖地を巡るデジタルスタンプラリーを、地元墨田区内を舞台に開催！
各スポットを回って、オリジナルフォトフレームを手に入れよう。

東京スカイツリータウン®では２か所のスタンプを設置します。
①東京スカイツリータウン®
②東京ミズマチ®
上記を含む、区内全10か所のスタンプスポットのうち６か所を達成するとオリジナル壁紙をプレゼントします！

期間中、WISE OWL HOSTELS RIVER TOKYOでは「リコリス・リコイル」をイメージした、ここでしか食べられないオリジナルコラボメニューを展開するほか、コネクトすみだ「まち処」では期間限定コラボオリジナルグッズも販売予定です。
皆様のご参加をお待ちしております。


【スタンプラリースポット】
1.東京スカイツリータウン
2.東京ミズマチ（コネクトすみだ［まち処］、WISE OWL HOSTELS RIVER TOKYO）
3.大黒湯
4.黄金湯
5.「リコリス・リコイル」マンホール（錦糸公園付近）
6.錦糸町マルイ
7.水上バス（東京水辺ライン両国発着場）
8.かめぱんcafe
9.さがみ庵
10.FUGA COFFEE",東京スカイツリータウン内（東京ソラマチ・東京ミズマチ各所）、墨田区内各所,"イベント公式サイト
墨田区観光協会公式サイト
コラボカフェサイト
スタンプラリーアプリ「furari」ダウンロードはこちら",TOKYO　東京ソラマチ,TOKYO　東京ソラマチ,,,,,,,,,,,,,,,,,
9,https://www.tokyo-solamachi.jp/event/2558/,キーコーヒー株式会社主催「KEY DOORS＋ブランド無料コーヒー試飲会＆抽選会」,期間：2025年5月24日 ～ 2025年5月24日,"5月24日は東京スカイツリータウン® 1F ソラマチひろばで無料でコーヒーをプレゼント！

この度キーコーヒー株式会社様主催で「KEY DOORS＋ブランドの無料コーヒー試飲会＆抽選会」をソラマチ広場にて開催いたします。
コーヒーを試飲していただいたお客様には豪華賞品の当たる巨大ガラポン抽選会にご参加いただけます。
どなたでも無料でご参加いただける１日限りのイベントとなっております。
気持ちの良い初夏の季節に、芳醇で深みのある、まろやかなコク、スッキリとした口当りが特徴のコーヒーで素敵なひと時をお届け致します。

この機会にぜひ東京スカイツリータウン® 1F ソラマチひろばまでお越しくださいませ。","1F ソラマチひろば
フロアガイド",,TOKYO　東京ソラマチ,TOKYO　東京ソラマチ,,,,,,,,,,,,,,,,,
10,https://www.tokyo-solamachi.jp/event/2560/,ソラマチ大道芸 特別公演 THE サーカス,期間：2025年5月31日 ～ 2025年6月1日,"東京スカイツリータウン 開業13周年記念をお祝いして、THEサーカスと題した ソラマチ大道芸の特別公演を開催いたします。
メインゲストに魔法使いアキットを迎え、サーカスの雰囲気をテーマにした華やかな演技と13周年開業オリジナルストーリーによるパフォーマンスをお楽しみいただけます。
一般のお客様からファンの皆様まで、みんなで一緒に13周年をお祝いするイベントです。

※天候により中止となる場合がございます。","1F ソラマチひろば
フロアガイド","ソラマチ大道芸HP
スケジュールはこちら",TOKYO　東京ソラマチ,TOKYO　東京ソラマチ,,,,,,,,,,,,,,,,,
11,https://www.tokyo-solamachi.jp/event/2561/,ソラマチ大道芸フェスティバル2025,期間：2025年6月7日 ～ 2025年6月8日,"毎年開催の「ソラマチ大道芸フェスティバル」
今年もおなじみの人気パフォーマーに加え、多彩なジャンルの出演者が続々登場！
大道芸ファンはもちろん、初めて訪れる方にも楽しんでいただける内容です。

また、今年は東京ミズマチにもパフォーマンススポットを拡大！
東京スカイツリーに隣接する「ソラマチ」と水辺の街「ミズマチ」。
それぞれの個性あふれる空間を行き来しながら、街と芸の魅力をたっぷりご堪能ください。",4F スカイアリーナ／1F ソラマチひろば／東京ミズマチ,"ソラマチ大道芸フェスティバル2025公式サイト
スケジュールはこちら",TOKYO　東京ソラマチ,TOKYO　東京ソラマチ,,,,,,,,,,,,,,,,,
12,https://www.tokyo-solamachi.jp/event/2549/,5月のスイーツイベント(5/1~5/31) ※一部5/16から,期間：2025年5月1日 ～ 2025年5月31日,"毎月、新しい味をお届けするスイーツイベント。

【2階6番地】
■イタリアン・トマト
※5/1(木) ～ 5/31(土)
スプーンですくって楽しむ新感覚ケーキ「スプーンdeスイーツ」や、パティシエが丁寧に仕上げたケーキをご用意。
季節のケーキをお楽しみください。

■五建外良屋
※5/1(木) ～ 5/31(土)
安政二年(1855年)創業の京都老舗和菓子店より、この時期限定の京生菓子をお届けします。
---------

【2階5番地】
◆フラワーピクニックカフェ
※5/1(木) ～ 5/31(土)
ギフトにおすすめ！北海道函館の食べられるお花のスイーツ。
見て・味わって満たされるお花のスイーツをご賞味ください。

◆御福餅本家
※5/16(金) ～ 5/31(土)
二見浦に打ち寄せる波を手作業で表現した定番のお福餅は、確かな技と誇りを込めて職人が丁寧に手作業で詰めた伝統の味です。
素材を吟味し、変わらないおいしさを紡ぐために日々研鑽を重ねております。",2階5番地、2階6番地,"「イタリアン・トマト」詳細はこちら
「五建外良屋」詳細はこちら
「フラワーピクニックカフェ」詳細はこちら
「御福餅本家」詳細はこちら",TOKYO　東京ソラマチ,TOKYO　東京ソラマチ,,,,,,,,,,,,,,,,,
13,https://www.tokyo-solamachi.jp/event/2550/,フードマルシェ お買い得カレンダー,期間：2025年5月1日 ～ 2025年5月31日,"フードマルシェでは、毎日お得がいっぱい！
1ヶ月のお得情報をまとめてチェックできるカレンダーをご用意しました。

詳細は関連リンクをご覧ください。","2F フードマルシェ
フロアガイド",5月のお買い得カレンダー,TOKYO　東京ソラマチ,TOKYO　東京ソラマチ,,,,,,,,,,,,,,,,,
14,https://www.tokyo-solamachi.jp/event/2536/,最大500席！東京ソラマチ® 屋外休憩スペースMAP,期間：2025年4月7日 ～,"東京ソラマチには最大500席もの屋外休憩スペースがあることをご存じですか？
特に北十間川沿いにある2Fの南面テラスには、約300席もの休憩スペースが！

ショッピング途中の小休憩はもちろん、テイクアウトグルメを楽しむのもおすすめです。
館内を散策した後は、お気に入りの休憩スペースを探してみて！

各場所の詳細は、下記関連サイトからご確認ください。",東京スカイツリータウン各所,屋外休憩スペースの詳細はこちらからチェック！,TOKYO　東京ソラマチ,TOKYO　東京ソラマチ,,,,,,,,,,,,,,,,,
15,https://www.tokyo-solamachi.jp/event/2544/,階段グラフィカルライティングのコンテンツ追加,期間：2025年4月16日 ～,"2024年度にデビューした「ソラミ坂」「ハナミ坂」の階段をLEDグラフィカル照明でライトアップする「階段グラフィカルライティング」に新コンテンツを追加しました。

日本屈指の観光地である東京スカイツリータウンから、全国並びに世界に向けて COOL TOKYO をテーマにした、大正着物の柄や金魚、歌舞伎の隈取など、日本を感じられる様々な音と映像を、最新の映像技法でお楽しみいただけます。

※東京スカイツリー®の３種の通常ライティング「粋」「雅」「幟」に連動したデザインに本コンテンツを追加したものです。
※この事業は、東京都・（公財）東京観光財団の「建造物等のライトアップモデル事業費助成金」を活用して実施しています。",ソラミ坂、ハナミ坂,,TOKYO　東京ソラマチ,TOKYO　東京ソラマチ,,,,,,,,,,,,,,,,,
16,https://www.tokyo-solamachi.jp/event/2461/,初登場！階段グラフィカルライティング,期間：2024年11月7日 ～,"「ソラミ坂」「ハナミ坂」の階段をLEDグラフィカル照明でライトアップする「階段グラフィカルライティング」が初登場！
東京スカイツリー®の３種の通常ライティング「粋」「雅」「幟」に連動したデザインの他、クリスマス等のシーズンごとの特別ライトアップもお楽しみいただけます。

※この事業は、東京都・（公財）東京観光財団の「建造物等のライトアップモデル事業費助成金」を活用して実施しています。",ソラミ坂、ハナミ坂,,TOKYO　東京ソラマチ,TOKYO　東京ソラマチ,,,,,,,,,,,,,,,,,
17,https://www.tokyo-solamachi.jp/event/1551/,毎月5のつく日はTOBU POINT ポイントアップ！,期間：2020年11月5日 ～,"毎月5のつく日は、東武カードご利用でポイントが5％、TOBU POINTアプリご提示で2.5%にアップ！

東武カードのお支払いでさらに1％ポイントアップ！
クレジット利用はもちろん、PASMOや現金でのお支払いでもポイントがたまります。
さらに、5のつく日に東武線に乗ってソラマチでお買い物をすると、東武線乗車運賃の50％分のトブポマイルがたまるキャンペーンも実施中！
詳細は関連サイトをご覧ください。

東武カードをお持ちでない方も、TOBUPOINTアプリは下記関連サイトからダウンロードいただけます。
登録無料で、登録後すぐにご利用いただけます。
ぜひこの機会に、アプリをダウンロードしてお買い物やお食事をお楽しみください。

■開催日：
毎月5日、15日、25日
※一部除外日がございます。
※一部対象外店舗、対象外商品がございます。
※ポイントアップ時に付与するポイントは、『（ご利用金額×通常ポイント率）＋（ご利用金額×ポイントアップ率）』で計算されます。
※提示ポイントと決済ポイントは、『（ご利用金額×提示ポイント率）＋（ご利用金額×決済ポイント率）』で計算されます。
※お買い物でたまるポイントの加算は翌日以降となります。
※お買物でつかうポイントの減算はリアルタイムで行います。
※アプリ登録済PASMO支払いで付与される0.5%は後日の付与になります。
※詳細は東武マーケティング株式会社(TEL:03-5396-6561)へお問い合わせください。",東京ソラマチ館内,"TOBUPOINTのご案内はこちら！
トブポマイルキャンペーンについての詳細はコチラ！",TOKYO　東京ソラマチ,TOKYO　東京ソラマチ,,,,,,,,,,,,,,,,,
18,https://www.tokyo-solamachi.jp/event/899/,東京スカイツリータウン(R)チケ得サービス,期間：2018年1月1日 ～,"東京スカイツリー(R)、すみだ水族館、コニカミノルタプラネタリウム天空in東京スカイツリータウン(R)の対象のチケットを
東京ソラマチのお店で購入時またはご注文時にご提示いただくと、おトクなサービスが受けられます！

【対象チケット】
・東京スカイツリー(R)　当日入場券
・すみだ水族館　年間パスポート、当日入場券、WEBチケット画面
・コニカミノルタプラネタリウム天空in東京スカイツリータウン(R)　当日入場券またはWEB予約画面

サービス対象店舗・サービス内容は下記関連サイトからご覧いただけます。",東京ソラマチ館内,サービス対象店舗・サービス内容はこちら,TOKYO　東京ソラマチ,TOKYO　東京ソラマチ,,,,,,,,,,,,,,,,,
19,https://www.tokyo-solamachi.jp/event/415/,お得がいっぱい！2F フードマルシェ「火曜市」,期間：2024年1月1日 ～,"お得がいっぱい！2F フードマルシェ「火曜市」【毎週火曜日夕方5時～7時】
毎回ご好評いただいている2F フードマルシェ デリカゾーンの「火曜市」。
毎週火曜の夕方5時～7時までの2時間限定開催です！

割引率がアップしたお得な商品や火曜市でしか買えない限定商品、出来立て商品など、フードマルシェの各店でご用意いたします♪
どうぞお買い逃しなく!!","2F フードマルシェ
フロアガイド",,TOKYO　東京ソラマチ,TOKYO　東京ソラマチ,,,,,,,,,,,,,,,,,
20,https://www.tokyo-solamachi.jp/event/1639/,東京ソラマチ公式インスタグラムのご案内,期間：2021年6月4日 ～,"東京ソラマチの公式インスタグラムでは、商品情報やイベント情報をはじめ、東京ソラマチのトリビアまで、皆さまに東京ソラマチの魅力をシェアしていきます！
ぜひフォローよろしくお願いいたします！",東京ソラマチ館内,東京ソラマチ 公式Instagramはこちら！,TOKYO　東京ソラマチ,TOKYO　東京ソラマチ,,,,,,,,,,,,,,,,,
21,https://www.tokyo-solamachi.jp/event/1175/,東京ソラマチ LINE公式アカウントのご案内,期間：2018年11月8日 ～,"東京ソラマチのLINE公式アカウントが登場！
最新イベント情報やお得なクーポン、ショップ情報をお届けします！
ぜひ、東京ソラマチを友だち追加お願いいたします♪

●友だち追加の方法
①関連リンクから
ページ下部の関連リンクの「東京ソラマチLINE公式アカウント友だち追加はこちら！」から、友だち追加ください。
②ID検索から
LINEの「友だち追加」画面から、「@solamachi」で検索してください。

旬なイベントやお得なキャンペーン情報が満載の東京ソラマチLINE公式アカウントを今すぐチェック！",東京ソラマチ館内,東京ソラマチLINE公式アカウント友だち追加はこちら！,TOKYO　東京ソラマチ,TOKYO　東京ソラマチ,,,,,,,,,,,,,,,,,
22,https://www.tokyo-solamachi.jp/event/2545/,ソラマチひろば噴水スケジュール,期間：2024年5月7日 ～,"【5/14　スケジュール更新しました】

ソラマチひろばの噴水スケジュールです。
涼しげな噴水をおたのしみください。

直近の噴水のスケジュールは下記をご確認ください。
※予告なく変更する場合がございます。ご了承ください。

【噴水スケジュール】
5/7（水）～　10：00～19：00

■噴水停止日（予定） 
〈5月〉
・5/24（土）
・5/25（日）
・5/28（水）
・5/31（土）

〈6月〉
・6/1（日）
・6/7（土）
・6/8（日）
・6/14（土）
・6/15（日）
・6/20（金）
・6/21（土）
・6/22（日）
・6/28（土）
・6/29（日）

【注意事項】
・マナーを守っておたのしみください。
・裸にはならないでください。
・濡れた体のまま館内に入らないでください。
・大きな声を出さないでください。
・ペットの連れ込みはご遠慮ください。
・洗剤、石鹸、シャボン玉等、水質に影響を与えるものは持ち込まないでください。
・事故等の責任は負いかねますので、あらかじめご了承ください。
・施設の都合および天候により、予告なく噴水の放出時間や実施の有無を変更する場合がございます。あらかじめご了承ください。
・自転車で来場される方は、館内の自転車駐車場をご利用ください。","1F ソラマチひろば
フロアガイド",,TOKYO　東京ソラマチ,TOKYO　東京ソラマチ,,,,,,,,,,,,,,,,,
23,https://www.my.metro.tokyo.lg.jp/w/019-20250519-107700407,【イベント】プラスチック標本づくり@なぎさの森,,,東京都南部地区海上公園ガイド,,My Tokyo,My Tokyo,https://seaside-park.jp/wp-content/uploads/20250607プラスチック標本ポスター-pdf-768x1110.jpg,,,,,,,,,,,,,,,,
24,https://www.my.metro.tokyo.lg.jp/w/019-20250517-107603283,『HOMECOMING PARK 城南島海浜公園』開催のお知らせ,,,東京都南部地区海上公園ガイド,,My Tokyo,My Tokyo,,,,,,,,,,,,,,,,,
25,https://www.my.metro.tokyo.lg.jp/w/080-20250516-107553247,令和7年度 足立の花火開催に伴う臨時列車の運転について,,,交通局,,My Tokyo,My Tokyo,,,,,,,,,,,,,,,,,
26,https://www.my.metro.tokyo.lg.jp/w/000-20250516-107543160,令和7年度 水道ふれあい月間行事のお知らせ,,,都庁総合,,My Tokyo,My Tokyo,,,,,,,,,,,,,,,,,
27,https://www.my.metro.tokyo.lg.jp/w/000-20250515-107434042,結婚支援マッチング事業「交流イベント」の参加者を募集します！,,,都庁総合,,My Tokyo,My Tokyo,,,,,,,,,,,,,,,,,
28,https://www.my.metro.tokyo.lg.jp/w/000-20250514-107351001,【知事の部屋】表敬訪問（東京愛らんどフェア「島じまん2025」キャラバン隊）,,,都庁総合,,My Tokyo,My Tokyo,,,,,,,,,,,,,,,,,
29,https://www.my.metro.tokyo.lg.jp/w/000-20250514-107351110,東京水辺ライン6月のイベントクルーズ情報2）,,,都庁総合,,My Tokyo,My Tokyo,,,,,,,,,,,,,,,,,
30,https://www.my.metro.tokyo.lg.jp/w/000-20250514-107350375,河川愛護月間関連行事のお知らせ 東京の川を考えるシンポジウム2025参加者募集！,,,都庁総合,,My Tokyo,My Tokyo,,,,,,,,,,,,,,,,,
31,https://www.my.metro.tokyo.lg.jp/w/000-20250514-107351162,河川愛護月間関連行事のお知らせ「施設見学」の参加者を募集します！,,,都庁総合,,My Tokyo,My Tokyo,,,,,,,,,,,,,,,,,
32,https://www.my.metro.tokyo.lg.jp/w/021-20250509-107051004,野鳥ってどんな生きもの？　～夏鳥を知ろう編,,,里山へGO!,,My Tokyo,My Tokyo,,,,,,,,,,,,,,,,,
33,https://www.my.metro.tokyo.lg.jp/w/000-20250421-105796260,5月の注目イベント🍔どっちに行く？迷ったら両方行っちゃう🤩【My TOKYO ★ おすすめ】,,,MyTOKYO,,My Tokyo,My Tokyo,,,,,,,,,,,,,,,,,
34,https://www.my.metro.tokyo.lg.jp/w/000-20250508-106965386,令和7年度「TOKYOデジタルキャリアフェア」を開催します！,,,都庁総合,,My Tokyo,My Tokyo,,,,,,,,,,,,,,,,,
35,https://www.my.metro.tokyo.lg.jp/w/021-20250508-106973622,【保全地域サポーター対象】樹木の様態判別講習会のご案内,,,里山へGO!,,My Tokyo,My Tokyo,,,,,,,,,,,,,,,,,
36,https://www.my.metro.tokyo.lg.jp/w/000-20250508-106965541,東京de収穫体験フェスティバルを開催します！,,,都庁総合,,My Tokyo,My Tokyo,,,,,,,,,,,,,,,,,
37,https://www.my.metro.tokyo.lg.jp/w/000-20250509-107022924,令和7年度「都立高校EXPO」を開催します,,,都庁総合,,My Tokyo,My Tokyo,,,,,,,,,,,,,,,,,
38,https://www.my.metro.tokyo.lg.jp/w/019-20250507-106880638,SEA-FRONT MUSEUM 2025 開催のお知らせ,,,海上公園なび,,My Tokyo,My Tokyo,,,,,,,,,,,,,,,,,
39,https://www.my.metro.tokyo.lg.jp/w/021-20250507-106880551,みんなで里山の風景をとりもどそう！,,,里山へGO!,,My Tokyo,My Tokyo,,,,,,,,,,,,,,,,,
40,https://www.my.metro.tokyo.lg.jp/w/021-20250507-106880537,小学生集まれ♪東京の里山で米作り体験！ ～田植えをしてみよう（小学校高学年（４～６年）親子限定）～,,,里山へGO!,,My Tokyo,My Tokyo,,,,,,,,,,,,,,,,,
41,https://www.my.metro.tokyo.lg.jp/w/000-20250502-106742814,【大島小松川公園】「スポーツフェス2025年」開催のお知らせ,,,東京都東部7公園,,My Tokyo,My Tokyo,https://tokyo-eastpark.com/wp-content/uploads/xo_event/aaf605c1d051128f59a6d1e39bea8ba0-768x1086.jpg,,,,,,,,,,,,,,,,
42,https://www.my.metro.tokyo.lg.jp/w/000-20250503-106766506,ナイトクルーズ「２大タワー周遊便」のご案内（5月・6月）,,,水上バスで行こう！,,My Tokyo,My Tokyo,,,,,,,,,,,,,,,,,
43,https://www.my.metro.tokyo.lg.jp/w/000-20250430-106495050,清澄庭園　花菖蒲と遊ぶ,,,都庁総合,,My Tokyo,My Tokyo,,,,,,,,,,,,,,,,,
44,https://www.my.metro.tokyo.lg.jp/w/000-20250430-106516403,森林浴登山　馬頭刈山「渓谷から登る富士見のみち」,,,とうきょうの恵みTOKYO GROWN,,My Tokyo,My Tokyo,,,,,,,,,,,,,,,,,
45,https://www.my.metro.tokyo.lg.jp/w/000-20250430-106494480,小石川後楽園　花菖蒲（はなしょうぶ）を楽しむ　初夏の大名庭園を彩る優雅な紫,,,都庁総合,,My Tokyo,My Tokyo,,,,,,,,,,,,,,,,,
46,https://www.my.metro.tokyo.lg.jp/w/021-20250430-106516431,宇津木の森で自然体験！～森の手入れをしてみよう～,,,里山へGO!,,My Tokyo,My Tokyo,,,,,,,,,,,,,,,,,
47,https://www.my.metro.tokyo.lg.jp/w/000-20250429-106398517,【猿江恩賜公園】5/31わんちゃんとの暮らし方教室「災害に備えていまできること」を開催します！,,,東京都東部7公園,,My Tokyo,My Tokyo,https://tokyo-eastpark.com/wp-content/uploads/xo_event/5c4424055a63093d0fa912a53faff3db-pdf.jpg,,,,,,,,,,,,,,,,
48,https://www.my.metro.tokyo.lg.jp/w/000-20250424-106132209,【4月・5月】日比谷公園イベント情報,,,公園へ行こう！日比谷公園,,My Tokyo,My Tokyo,,,,,,,,,,,,,,,,,
49,https://www.my.metro.tokyo.lg.jp/w/021-20250423-106016697,小学生集まれ♪東京の里山で米作り体験！ ～田植えをしてみよう（小学校低学年（1～3年）親子限定）～,,,里山へGO!,,My Tokyo,My Tokyo,,,,,,,,,,,,,,,,,
50,https://www.my.metro.tokyo.lg.jp/w/021-20250423-106016683,第1回保全地域サポータープログラム（連光寺・若葉台里山保全地域）,,,里山へGO!,,My Tokyo,My Tokyo,,,,,,,,,,,,,,,,,
51,https://www.my.metro.tokyo.lg.jp/w/000-20250421-105844140,「ノルディックウォーキング〜扇橋閘門往復コース〜 (猿江恩賜公園)」開催のお知らせ,,,東京都東部7公園,,My Tokyo,My Tokyo,https://tokyo-eastpark.com/wp-content/uploads/d1859dc28c392ade1b86b7ee492f54bf-768x1087.png,,,,,,,,,,,,,,,,
52,https://www.my.metro.tokyo.lg.jp/w/000-20250418-105734768,1年間で約52万人が観覧した「TOKYO Night & Light」 大人気コンテンツ「ガンダムシリーズ」のプロジェクションマッピングを公開,,,都庁総合,,My Tokyo,My Tokyo,,,,,,,,,,,,,,,,,
53,https://www.my.metro.tokyo.lg.jp/w/000-20250418-105735025,「アニメ東京ステーション」の企画展示『機動戦士Gundam GQuuuuuuX -Beginning-』特別企画展を開催！,,,都庁総合,,My Tokyo,My Tokyo,,,,,,,,,,,,,,,,,
54,https://www.my.metro.tokyo.lg.jp/w/021-20250417-105434615,【保全地域サポーター対象】野外での基本的な応急救命講習のご案内,,,里山へGO!,,My Tokyo,My Tokyo,,,,,,,,,,,,,,,,,
55,https://www.my.metro.tokyo.lg.jp/w/000-20250416-105216542,東京水辺ライン 6月のイベントクルーズ情報,,,都庁総合,,My Tokyo,My Tokyo,,,,,,,,,,,,,,,,,
56,https://www.my.metro.tokyo.lg.jp/w/000-20250416-105224974,2025/6/1　歴史クルーズ・山谷堀から吉原まで・桜鍋の昼食,,,水上バスで行こう！,,My Tokyo,My Tokyo,,,,,,,,,,,,,,,,,
57,https://www.my.metro.tokyo.lg.jp/w/000-20250410-104853477,Park×Art 日比谷から始まる新しい公園のかたち「Hibiya Art Park2025　-訪れるたび、アートと出会う1ヶ月-」,,,都庁総合,,My Tokyo,My Tokyo,,,,,,,,,,,,,,,,,
58,https://www.my.metro.tokyo.lg.jp/w/000-20250401-103557846,ナイトクルーズ「２大タワー周遊便」のご案内（4月・5月）,,,水上バスで行こう！,,My Tokyo,My Tokyo,,,,,,,,,,,,,,,,,
59,https://www.my.metro.tokyo.lg.jp/w/112-20250326-102719739,深川の水と清澄庭園の関係を学ぶ,,,東京都江戸東京博物館,,My Tokyo,My Tokyo,,,,,,,,,,,,,,,,,
60,https://www.my.metro.tokyo.lg.jp/w/000-20250319-102082953,神代植物公園 春のバラフェスタ,,,都庁総合,,My Tokyo,My Tokyo,,,,,,,,,,,,,,,,,
61,https://www.my.metro.tokyo.lg.jp/w/017-20250328-103108129,【小金井公園】今年も開催！家族で楽しむ土遊び「はらっぱワンデイトリップ」,,,東京都公園協会　公園へ行こう！,,My Tokyo,My Tokyo,,,,,,,,,,,,,,,,,
62,https://www.my.metro.tokyo.lg.jp/w/000-20250314-101686461,東京愛らんどフェア「島じまん2025」を開催,,,都庁総合ホームぺージ,,My Tokyo,My Tokyo,,,,,,,,,,,,,,,,,
63,https://m-g-n.doorkeeper.jp/events/184689,これが知りたかった、制作会社向け「アクセシビリティ」 をクライアントに提案・導入するための方法,2025-06-25T12:00:00.000Z,"<p><strong>「アクセシビリティ」 をクライアントに提案・導入するための方法 について理解が深まるイベントです</strong></p>

<h1>イベント概要</h1>

<p>Webサイトは現代社会における主要な情報源の一つです。利用者が何らかの理由でウェブ経由の情報取得やサービス利用が困難になると、大きな不利益を被るおそれがあります。そのため、ウェブアクセシビリティの向上はあらゆるサイトに求められる課題であり、継続的に取り組むべきテーマと言えます。</p>

<p>とはいえ、実務では「対応範囲の広さ」や「技術的な難易度」に圧倒され、着手を諦めたり、クライアントの要望とアクセシビリティ要件が噛み合わず断念したりした経験をお持ちの方も多いでしょう。あるいは、必要性を感じつつも積極的な改善に踏み切れていない方も少なくないはずです。</p>

<p>実際、私自身もアクセシビリティ対応に本格的に取り組んできた機会は多くありません。たとえば、画像に適切なalt属性を付与するだけでも、何をどう記述すべきか悩むことがあります。しかし、着手のきっかけや具体的な取り組み方を知ることができれば、これまでより適切かつ効率的にアクセシビリティを向上させられるのではないかと考えています。</p>

<p>そこで今回、ウェブアクセシビリティの専門家であり、markuplint 開発者としても知られる株式会社ディーゼロ執行役員の平尾優典（ゆうてん）氏をゲストにお招きし、お話を伺う機会を設けました。平尾氏はアクセシビリティカンファレンス福岡の主催や、多数の関連イベントへの登壇など、普及啓発に豊富な実績を持つ方です。</p>

<p>本イベントでは、まず「なぜアクセシビリティに取り組むべきなのか」という基本的な問いを改めて確認し、続いて制作会社がクライアントへその必要性を適切に伝え、納得してもらうための具体的な方法を共有します。</p>

<h1>ウェビナー内容</h1>

<ul>
<li>アクセシビリティに取り組む理由の再確認</li>
<li>アクセシビリティ「わからなかったこと」の質問回答</li>
<li>アクセシビリティをクライアントに提案・導入するための実践論</li>
<li>制作会社がアクセシビリティ推進をリードするために</li>
<li>アクセシビリティーとAI、今後の展望</li>
</ul>

<p>などのトピックスを取り上げる予定です。参加申込時の事前アンケートにて、皆様からの質問を受け付けています。<br>
当日は、その内容も加味して進行するため、一部内容が変更になる可能性があります</p>

<h1>イベントの対象者</h1>

<ul>
<li>制作会社でWebサイト制作をお仕事にされている方</li>
<li>社内でWebサイト運用を担当する方</li>
<li>Webサイト制作を検討されている、経営陣の方</li>
<li>外部のベンダー（Web制作会社）との窓口担当をされている方</li>
</ul>

<h1>スピーカー</h1>

<h3>大串 肇 おおぐし はじめ</h3>

<p><img src=""https://www.m-g-n.me/wp-content/uploads/2023/07/megane-300x300.jpg"" alt=""332182728_566324245447115_6216790384629585903_n-1.jpg""></p>

<p>株式会社mgn</p>

<p>2005年頃よりWeb制作業に従事。Web制作会社にてデザイナー兼ディレクターとして勤務後、2012年よりフリーランスmgnとして独立し、2015年より株式会社mgn代表取締役。WordPressを利用したWebサイト制作を通して、企業がビジネスを成功させるためのお手伝いをしています。</p>

<ul>
<li><a href=""https://www.m-g-n.me/"" rel=""nofollow"">株式会社mgn</a> 代表取締役</li>
<li>𝕏（Twitter）： <a href=""https://x.com/megane9988"" rel=""nofollow"">@megane9988</a></li>
</ul>

<h3>ゲスト</h3>

<h3>平尾 優典 ひらお ゆうすけ</h3>

<p><img src=""http://www.m-g-n.me/wp-content/uploads/2025/05/avatar_400x400.jpg"" alt=""平尾 優典""></p>

<p>株式会社ディーゼロ</p>

<p>企業のウェブアクセシビリティに関するコンサルティングや評価を行うかたわら、制作会社のアクセシビリティの推進・啓発活動も行い仲間を増やす活動をしている。<a href=""https://fukuoka.a11yconf.net/"" rel=""nofollow"">アクセシビリティカンファレンス福岡</a>の初代実行委員長であり、現在は他の地域でのアクセシビリティカンファレンスを支援・応援している。HTMLリンター「<a href=""https://markuplint.dev/"" rel=""nofollow"">Markuplint</a>」の開発者。HTMLのプロ。</p>

<p>プロフィール</p>

<ul>
<li><a href=""https://www.d-zero.co.jp/"" rel=""nofollow"">株式会社ディーゼロ</a> 執行役員</li>
<li>フロントエンドテックリード/ウェブアクセシビリティスペシャリスト</li>
<li>ウェブサイト: <a href=""https://u10.jp"" rel=""nofollow"">https://u10.jp</a></li>
<li>𝕏: <a href=""https://twitter.com/cloud10designs"" rel=""nofollow"">@cloud10designs</a></li>
</ul>

<h2>メディアスポンサー</h2>

<p><a href=""https://rs.sakura.ad.jp/"" rel=""nofollow""><img src=""https://www.m-g-n.me/wp-content/uploads/2025/02/350sakura.png"" alt=""さくらインターネットロゴ""></a></p>

<h2>個人情報保護方針</h2>

<p>本セミナーにお申し込みされた方の個人情報については<br>
各社の個人情報保護方針に基づいて適切に管理いたします。</p>

<p><a href=""https://www.m-g-n.me/privacy-policy/"" rel=""nofollow"">株式会社mgn</a></p>

<h2>主催</h2>

<p><a href=""https://www.m-g-n.me"" rel=""nofollow""><img src=""http://www.m-g-n.me/wp-content/uploads/2020/06/logo.svg"" alt=""株式会社mgn""></a></p>",,,Doorkeeper Events API,Doorkeeper Events API,,184689.0,2025-06-25T12:00:00.000Z,2025-06-25T13:30:00.000Z,,2025-05-21T06:42:28.289Z,2025-05-21T06:42:28.294Z,9138.0,https://doorkeeper.jp/rails/active_storage/representations/proxy/eyJfcmFpbHMiOnsibWVzc2FnZSI6IkJBaHBBMjBDQnc9PSIsImV4cCI6bnVsbCwicHVyIjoiYmxvYl9pZCJ9fQ==--3e3beb5b81091b61c5c18a3ff21ef7a7705bd7cd/eyJfcmFpbHMiOnsibWVzc2FnZSI6IkJBaDdCem9MWm05eWJXRjBTU0lJY0c1bkJqb0dSVlE2RkhKbGMybDZaVjkwYjE5c2FXMXBkRnNIYVFMb0F6QT0iLCJleHAiOm51bGwsInB1ciI6InZhcmlhdGlvbiJ9fQ==--91839951a073aea8822f6907dc8d81559a890706/image%20(1).png,https://m-g-n.doorkeeper.jp/events/184689,0.0,0.0,300.0,,,https://api.doorkeeper.jp/events,
64,https://enterprise-wordpress.doorkeeper.jp/events/184796,【WordPress ビジネスユーザーの祭 】KUSANAGIサミット 2025 WordPress編  ,2025-06-21T04:00:00.000Z,"<p><strong>一緒に「WordPress」の今と未来について学びませんか？</strong></p>

<p>WordPressを利用したWebサイトを運用している企業は日々増えている状況です。&nbsp;<br>
その中で、Webサイト担当者やIT担当者が直面する課題として、「セキュリティ」「管理工数の増加」「WordPressの使い方」「プラグイン」「サイト遅延」などが存在しています。</p>

<p>しかし、それらの情報共有をする場、最適な解決策を見つけられる場が少ないという状況です。</p>

<p>そこで、主に企業でWordPressサイトを利用されている皆様の情報共有の場を作ることで、企業におけるWordPressの利用促進と担当者や企業のWordPressに関する課題解消を目指すイベントを開催することとなりました。</p>

<h3>開催概要</h3>

<ul>
<li>開催日：2025年6月21日（土）13時～16時15分</li>
<li>開催形式：Zoomウェビナー（オンライン）</li>
<li>参加料金：無料</li>
<li>定員：500名</li>
<li>主な対象者：</li>
</ul>

<p>　　　○WordPressを企業で利用している担当者/IT管理者等<br>
　　　○企業に対してWordPressの支援をしている企業<br>
　　　○WordPressの企業利用に興味がある方</p>

<ul>
<li> 主催：プライム・ストラテジー株式会社&nbsp;</li>
<li> 協力（※順不同）：さくらインターネット株式会社、エックスサーバー株式会社、Hostinger、PHP技術者認定機構</li>
<li> メディア協賛（※順不同）：株式会社インプレス（Web担当者Forum）、株式会社マイナビ（マイナビニュース）、株式会社翔泳社（CodeZine）</li>
</ul>

<p>満席になりましても、参加人数を拡張いたしますので以下からフォローをお願いいたします。<br>
<a href=""https://enterprise-wordpress.doorkeeper.jp/"">https://enterprise-wordpress.doorkeeper.jp/</a></p>

<h3>セッション概要</h3>

<p>&nbsp;<strong>～なぜ今WordPressなのか？～ 所有する自由、進化させる力：WordPressで実現する持続的な企業Web戦略</strong></p>

<p>株式会社mgn 代表取締役CEO 大串肇　様<br>
WordPressは世界中のWebサイトの40％以上、日本国内のCMS導入サイトの80％以上で利用されています。オープンソースならではの高い拡張性を備え、特筆すべきは「サイトに蓄積されるすべてのデータをオーナー自身で自在に管理できる点」です。さらに、WordPressのコミュニティーは多くの開発者が関わっており、多様な新機能が提供されるエコシステムがあります。<br>
本講演では、圧倒的なシェアを誇るWordPressがもつ真価を再確認するとともに、持続可能な企業Web戦略を展開するための具体的な活用方法をご紹介いたします。</p>

<p>【プロフィール】<br>
株式会社mgn 代表取締役　大串肇　様<br>
2005年頃よりWeb制作業に従事。Web制作会社にてデザイナー兼ディレクターとして勤務後、2012年よりフリーランスmgnとして独立し、2015年より株式会社mgn代表取締役。WordPressを利用したWebサイト制作を通して、企業がビジネスを成功させるためのお手伝いをしている。</p>

<p><strong>そろそろ乗り換えどき？ WordPress のブロックエディター＆ブロックテーマ入門</strong>&nbsp;</p>

<p>　株式会社モンキーレンチ　キタジマタカシ　様</p>

<p>「クラシックエディターが慣れていて安心」でも、ブロックエディター・ブロックテーマを避け続けるのはもったいないかもしれません。 本セミナーでは、WordPressの「新しい編集体験」であるブロックエディターとブロックテーマの基礎から、ブロックエディターやブロックテーマを導入することで実際にどのようなことができるようになるのか、また、弊社で開発している WordPress テーマでブロックエディター・ブロックテーマの機能をどのように活用しているかをご紹介したいと思います。</p>

<p>【プロフィール】</p>

<p>株式会社モンキーレンチ キタジマタカシ&nbsp;<br>
長崎在住、フリーランスのWordPress テーマ / プラグインデベロッパー。 多数のプロダクトをオープンソースで開発・公開しています。現在は主に WordPress の有料テーマ Snow Monkey と unitone を開発・販売しています。&nbsp;</p>

<h3>イベントスケジュール</h3>

<p><strong>１．～なぜ今WordPressなのか？～ 所有する自由、進化させる力：WordPressで実現する持続的な企業Web戦略</strong><br>
株式会社mgn 代表取締役CEO 大串肇　様</p>

<p><strong>２．プライム・ストラテジーの戦略と市場動向, 試験：プライム・ストラテジー</strong><br>
プライム・ストラテジー株式会社　代表取締役 吉政忠志</p>

<p><strong>３．KUSANAGI StackとSecurity Edition</strong><br>
プライム・ストラテジー株式会社　企画開発担当 執行役員　相原知栄子<br>
プライム・ストラテジー株式会社　企画開発部 部長（開発リーダー）石川英典</p>

<p><strong>４．そろそろ乗り換えどき？ WordPress のブロックエディター＆ブロックテーマ入門</strong><br>
株式会社モンキーレンチ　キタジマタカシ　様</p>

<p><strong>５．企業WordPressサイトで発生する「表示速度」の問題を根本解決する方法</strong><br>
プライム・ストラテジー株式会社　執行役員（技術担当）　大曲仁</p>

<p><strong>６．Webガバナンスガイドライン</strong><br>
プライム・ストラテジー株式会社　マーケティング部 ビジネス推進室室長　穂苅智哉<br>
ゼノクリース合同会社　齋藤智樹　様</p>

<p><strong>７．～パネルディスカッション～ 　企業で利用されているWordPressのセキュリティ対応を考える</strong>&nbsp;<br>
EGセキュアソリューションズ株式会社　取締役CTO　徳丸浩　様<br>
プライム・ストラテジー株式会社　企画開発担当 執行役員　相原知栄子<br>
プライム・ストラテジー株式会社　執行役員（技術担当）　大曲仁<br>
（モデレーター）プライム・ストラテジー株式会社　代表取締役　吉政忠志</p>

<h3>個人情報保護方針</h3>

<p>本セミナーにお申し込みされた方の個人情報については<br>
各社の個人情報保護方針に基づいて適切に管理いたします。<br>
<a href=""https://www.prime-strategy.co.jp/privacy/"" rel=""nofollow"">プライム・ストラテジー株式会社</a><br>
<a href=""https://www.m-g-n.me/privacy-policy/"" rel=""nofollow"">株式会社mgn</a></p>

<p>イベント概要<br>
<a href=""https://www.youtube.com/watch?v=nhQPdm9FP10"" rel=""nofollow""><br>
<img src=""https://enterprise-wordpress.doorkeeper.jp/files/bdbd76c171d9ec30318c89bacabecda41006c3ac/KUSANAGI%E3%82%B5%E3%83%9F%E3%83%83%E3%83%88%E3%82%A4%E3%83%99%E3%83%B3%E3%83%88%E6%A6%82%E8%A6%81%E7%B4%B9%E4%BB%8B.png"" alt=""KUSANAGIサミットイベント概要紹介.png""><br>
</a></p>

<p>登壇者インタビュー第一弾！ プライム・ストラテジー株式会社 穂苅智哉<br>
<a href=""https://www.youtube.com/watch?v=YsY-ZZcUqtM"" rel=""nofollow""><br>
<img src=""https://enterprise-wordpress.doorkeeper.jp/files/0c75084d19d2946a1b1bcae6111411c456f1d9eb/hokari.png"" alt=""hokari.png""><br>
</a></p>

<p>第二弾！株式会社モンキーレンチ　キタジマタカシ様<br>
<a href=""https://youtu.be/XGLLPA3b9FE"" rel=""nofollow""><br>
<img src=""https://enterprise-wordpress.doorkeeper.jp/files/a7d767a9aba5294f8f010f3238667a634b7d1078/kitajimatakashi.png"" alt=""kitajimatakashi.png""><br>
</a></p>

<p>第三弾！株式会社mgn 大串肇様<br>
<a href=""https://youtu.be/2vjGowH78bI"" rel=""nofollow""><br>
<img src=""https://enterprise-wordpress.doorkeeper.jp/files/f6a162dc06e24d1a20d0828970055ae09a349523/oogushisama.png"" alt=""oogushisama.png""><br>
</a></p>

<p>■KUSANAGI最新版のご紹介</p>

<p><a href=""https://calendly.com/chieko-i4s/new-meeting?month=2025-05"" rel=""nofollow""><br>
<img src=""https://enterprise-wordpress.doorkeeper.jp/files/f933a7c73990eccade4898edc2db6641bb8ae2c7/KUSANAGI%20SE%20small.png"" alt=""KUSANAGI SE small.png""><br>
</a></p>

<p>セキュリティ運用を自動化して工数を削減するKUSANAGIの新製品「KUSANAGI Security Edition」については個別にご相談承ります。<br>
以下URLからお申込みください。<br>
(<a href=""https://calendly.com/chieko-i4s/new-meeting?month=2025-05"" rel=""nofollow"">https://calendly.com/chieko-i4s/new-meeting?month=2025-05</a>)</p>

<p>KUSANAGI Security Editionについては以下をご覧ください。<br>
(<a href=""https://kusanagi.tokyo/edition_and_upgrade/kusanagi-security-edition/"" rel=""nofollow"">https://kusanagi.tokyo/edition_and_upgrade/kusanagi-security-edition/</a>)</p>",,,Doorkeeper Events API,Doorkeeper Events API,,184796.0,2025-06-21T04:00:00.000Z,2025-06-21T07:15:00.000Z,,2025-05-21T06:02:59.204Z,2025-05-21T06:02:59.209Z,4756.0,https://doorkeeper.jp/rails/active_storage/representations/proxy/eyJfcmFpbHMiOnsibWVzc2FnZSI6IkJBaHBBMThDQnc9PSIsImV4cCI6bnVsbCwicHVyIjoiYmxvYl9pZCJ9fQ==--2890231a69a4ee1c4d7778d7c901093b8b450b5b/eyJfcmFpbHMiOnsibWVzc2FnZSI6IkJBaDdCem9MWm05eWJXRjBTU0lJY0c1bkJqb0dSVlE2RkhKbGMybDZaVjkwYjE5c2FXMXBkRnNIYVFMb0F6QT0iLCJleHAiOm51bGwsInB1ciI6InZhcmlhdGlvbiJ9fQ==--91839951a073aea8822f6907dc8d81559a890706/KUSANAGI%E3%82%B5%E3%83%9F%E3%83%83%E3%83%88%20DoorKeeper%E7%94%A8.png,https://enterprise-wordpress.doorkeeper.jp/events/184796,0.0,0.0,100.0,,,https://api.doorkeeper.jp/events,
65,https://majisemi-security.doorkeeper.jp/events/184785, 設定不備が引き起こすセキュリティインシデント、M365サービス毎に見直しリスクを回避する 〜Entra ID、Exchange Online、Copilot等の設定を網羅的に再確認〜,2025-06-12T05:00:00.000Z,"<h1>本セミナーはWebセミナーです</h1>

<p>ツールはZoomを使います。URLは直前にメールにてご連絡いたします。</p>

<p>なお、「osslabo.com」「majisemi.com」からのメールが迷惑メールとならないよう、メールの設定をご確認ください。</p>

<h1>M365の設定ミスや漏れが原因でのセキュリティインシデント</h1>

<p>Microsoft 365（M365）は今や企業のITインフラにとって不可欠な存在となっております。Entra IDによるID管理、Exchange Onlineのメール運用、さらにはCopilotによる業務効率化など、利便性と生産性を飛躍的に高める一方で、その裏には“設定不備”という見過ごされがちな落とし穴が存在します。</p>

<p>実際、サイバー攻撃の多くは技術的な脆弱性ではなく、「設定ミス」や「ポリシーの未適用」など、人為的な要因から発生しており、重大な情報漏洩や業務停止を招くケースも報告されています。こうしたインシデントは、導入済みの環境にも常に潜在している可能性があるため、早急な見直しと対策が求められています。</p>

<h1>M365の設定不備を見つけるためのスキル、リソースの不足</h1>

<p>M365の各サービスは日々進化し、設定項目や管理の難易度も年々複雑化しています。セキュリティを強化するための新機能が追加されても、それに伴う設定変更が追いついていなければ意味がありません。しかし実際には、現場の多くで「どこにリスクが潜んでいるのか分からない」「設定のどこから手をつければよいか判断できない」といった声が上がっており、限られた人員と時間の中で正しい設定を維持することは困難となっています。</p>

<p>また、IT部門やセキュリティチームのスキルのばらつきや、情報の属人化も障壁となり、必要な見直し作業が後回しにされてしまう状況も見受けられます。こうした中で設定不備を放置してしまえば、セキュリティインシデントの発生リスクは確実に高まり、場合によっては企業の信頼を大きく損なう結果にもつながりかねません。</p>

<h1>Entra ID、Exchange Online、Copilotなど、サービス別に設定を見直しリスク防ぐには</h1>

<p>本セミナーでは、M365の主要サービスであるEntra ID、Exchange Online、そしてCopilotを対象に、それぞれのサービスにおける設定項目を包括的に再確認する方法をご紹介します。インシデントにつながりやすい典型的な設定ミスを具体的に示しながら、それをどのように見つけ、どのように対処すればよいのかについて具体的なアセスメントの活用含めて解説します。</p>

<p>特に、各サービスごとに異なるリスク構造と運用上の注意点に焦点を当て、設定の見直しが後手に回っている現場でも実践できる現実的なアプローチを提示します。また、Microsoftの推奨設定やベストプラクティスと、自社環境とのギャップをどのように把握すべきかについても言及し、役立つ情報を提供します。</p>

<p>また、参加特典として、「Entra ID条件付きアクセスパラメータシート」を作成し、さらに作成したパラメータシートをもとにした簡易アセスメントを無償でご提供します。</p>

<h1>プログラム</h1>

<h2>13:45～14:00　受付</h2>

<h2>14:00～14:05　オープニング（マジセミ）</h2>

<h2>14:05～14:45   設定不備が引き起こすセキュリティインシデント、M365サービス毎に見直しリスクを回避する 〜Entra ID、Exchange Online、Copilot等の設定を網羅的に再確認〜</h2>

<h2>14:45～15:00　質疑応答</h2>

<h1>主催</h1>

<p>NSW株式会社（<a href=""https://www.nsw.co.jp/corporate/csr/privacy/index.html"" rel=""nofollow"">プライバシーポリシー</a>）</p>

<h1>協力</h1>

<p>株式会社オープンソース活用研究所（<a href=""https://osslabo.com/privacy"" rel=""nofollow"">プライバシーポリシー</a>）</p>

<p>マジセミ株式会社（<a href=""https://majisemi.com/service/privacy/"" rel=""nofollow"">プライバシーポリシー</a>）</p>

<p>※共催、協賛、協力、講演企業は将来的に追加、削除される可能性があります。</p>

<h1>当日会場アクセスに関するお問合せ</h1>

<p><a href=""mailto:zoom@osslabo.com"" rel=""nofollow"">zoom@osslabo.com</a></p>

<h1>セミナー事務局</h1>

<p>マジセミ株式会社（<a href=""https://majisemi.com/service/privacy"" rel=""nofollow"">プライバシーポリシー</a>）<br>
<img src=""https://majisemi.com/e/checker.gif"" width=""1px""></p>

<p>※以下の方について、当社判断によりご参加をご遠慮いただく場合がございます。予めご了承ください。</p>

<p>・講演企業の競合となる商品・サービスを提供している企業、同業の企業、及びそのグループ企業・関連企業の方<br>
・個人や個人事業主の方<br>
・海外から参加される方<br>
・日本に活動拠点が無い企業の方<br>
・その他、弊社及び講演企業が不適切と判断した企業・個人の方</p>

<p>※申込が多数の場合、弊社抽選にてご参加をご遠慮いただく場合がございますので、予めご了承ください。</p>

<p>当社では、本フォームから取得する個人情報を下記の通り取扱います。<br>
下記をご一読いただき、ご同意の上で送信してください。</p>

<h3>１．個人情報の利用目的</h3>

<p>本フォームからのお申込みにあたりご提供頂く個人情報は、以下の目的で利用いたします。<br>
・主催、共催、協賛、協力するセミナーや展示会、イベントにおける参加者管理業務のため<br>
・当社が主催、共催、協賛、協力する資料閲覧サービスや動画視聴サービスにおける資料閲覧・動画視聴サービスのご提供、並びに申込者管理のため<br>
・メルマガ配信のため</p>

<h3>２．個人情報保護管理者の氏名又は職名、所属及び連絡先</h3>

<p>管理部 個人情報保護管理担当者<br>
TEL: 03-6721-8548　e-mail: <a href=""mailto:info@osslabo.com"" rel=""nofollow"">info@osslabo.com</a></p>

<h3>３．個人情報の第三者提供について</h3>

<p>当社は、本フォームから取得する個人情報をオープンソース活用研究所、及び、本セミナーの主催・共催・協賛・協力・講演の各企業へ提供します。<br>
(1)第三者に提供する目的：各社のサービス、製品、セミナー、イベントなどのご案内のため、各社のメルマガ登録のため<br>
(2)提供する個人情報の項目：氏名、所属会社名、メールアドレス、電話番号、部署・役職、年代、アンケートへの回答内容<br>
(3)提供の手段又は方法：暗号化したWebを経由して送信<br>
(4)当該情報の提供を受ける者又は提供を受ける者の事業者の種類、及び属性：主催・共催・協賛・協力・講演企業<br>
(5)個人情報の取扱いに関する契約がある場合はその旨：当社サービス利用約款による</p>

<h3>４．個人情報の委託について</h3>

<p>ご提供頂く個人情報は、利用目的の範囲内でその取扱いの一部又は全部を外部事業者に委託する場合がございます。その場合は、委託した個人情報の安全管理が図られるように、委託をする各社が定めた基準を満たす委託先を選定し、委託先に対して必要かつ適切な監督を行います。</p>

<h3>５．開示等のご請求に関しまして</h3>

<p>当社は、本お申込みフォームから取得する個人情報に関し、保有個人データ又は第三者提供記録に関するご本人又はその代理人からの利用目的の通知、開示、内容の訂正、追加又は削除、利用の停止、消去及び第三者への提供の停止等、並びに第三者提供記録の開示のご請求(以下、「開示等のご請求」といいます)に応じます。<br>
開示等のご請求に関しましては、下記「個人情報の取扱いに関するお問合せ先 」までお申し出ください。<br>
なお、提供先である株式会社オープンソース活用研究所及び主催・共催・協賛・協力・講演企業のご請求窓口等は、各社のプライバシーポリシーを御覧ください。</p>

<h3>６．個人情報のご提供の任意性について</h3>

<p>当社に個人情報をご提供頂くことは、ご本人様の任意です。ただし、必須項目に設定する情報をご提供頂けない場合、及びご入力頂いた内容が正確でない場合には、本セミナーにお申込みができない場合がございますのでご了承ください。</p>

<h3>７．本人が容易に知覚できない方法による個人情報の取得について</h3>

<p>当社が運営するウェブサイトでは、ユーザビリティ確保のためにCookie情報を取得しておりますが、当該情報を特定の個人を識別して利用することはございません。</p>

<h3>８．個人情報の取扱いに関するお問合せ先</h3>

<p>当社の個人情報の取扱いに関するお問合せ、苦情及び相談につきましては、以下にお申し出ください。<br>
管理部 個人情報保護管理担当者<br>
TEL: 03-6721-8548　e-mail: <a href=""mailto:info@osslabo.com"" rel=""nofollow"">info@osslabo.com</a></p>",,,Doorkeeper Events API,Doorkeeper Events API,,184785.0,2025-06-12T05:00:00.000Z,2025-06-12T06:00:00.000Z,,2025-05-21T05:39:53.499Z,2025-05-21T05:39:53.503Z,10965.0,https://doorkeeper.jp/rails/active_storage/representations/proxy/eyJfcmFpbHMiOnsibWVzc2FnZSI6IkJBaHBBMVlDQnc9PSIsImV4cCI6bnVsbCwicHVyIjoiYmxvYl9pZCJ9fQ==--270b0b1c506cd5392b216de31af2f01e9f697882/eyJfcmFpbHMiOnsibWVzc2FnZSI6IkJBaDdCem9MWm05eWJXRjBTU0lJYW5CbkJqb0dSVlE2RkhKbGMybDZaVjkwYjE5c2FXMXBkRnNIYVFMb0F6QT0iLCJleHAiOm51bGwsInB1ciI6InZhcmlhdGlvbiJ9fQ==--8ce6569ce3b1f779d3cfcdbb6038d926ad4475c7/20250612_nsw_bannerD.jpg,https://majisemi-security.doorkeeper.jp/events/184785,0.0,0.0,0.0,,,https://api.doorkeeper.jp/events,
66,https://majisemi-sales.doorkeeper.jp/events/184787, 【大企業の管理職向け】現場の社員に不足する課題解決力と業務遂行スキルはどうすれば身に着けられるのか ～能動的かつ自律性の高い社員を生む行動変容プログラム～,2025-06-12T04:00:00.000Z,"<h1>本セミナーはWebセミナーです</h1>

<p>ツールはZoomを使います。URLは直前にメールにてご連絡いたします。</p>

<p>なお、「osslabo.com」「majisemi.com」からのメールが迷惑メールとならないよう、メールの設定をご確認ください。</p>

<h1>指示待ち社員の増加</h1>

<p>「自分で考えず、上司の指示を待つだけの社員が増えている」そのような悩みを抱えている方も多いのではないでしょうか？</p>

<p>しかもその傾向は、若手に限らず中堅層にも広がっています。変化が激しい時代において、従来通りの業務の進め方では対応しきれず、組織全体のスピードが落ちていると考えられます。</p>

<p>本セミナーでは、なぜ指示待ちの状態に陥るのか、そしてその状況をどう打破すべきかを解説いたします。</p>

<h1>自ら判断・行動する力の不足</h1>

<p>指示待ち社員の傾向として、自ら判断・行動する力の不足が挙げられます。</p>

<p>環境変化が激しい今、上からの指示を待って動いてしまうと、すべての対応が後手に回るといった懸念が出てきます。</p>

<p>それでも現場では、「状況を見て判断する」「問題を特定して解決策を実行する」といった力が、世代を問わず多くの社員に不足しています。</p>

<p>これは個人の資質ではなく、組織の育成手法や経験機会の不足が原因です。</p>

<p>こうしたスキルは学生の間に身に着けることは難しく、企業においても能動的に学んだり、教育を受けることがないとなかなか身につかないスキルであると言えます。</p>

<h1>能動的かつ自律性の高い社員を生む行動変容プログラム</h1>

<p>本セミナーでは、大企業での実践を通じて構築された行動変容プログラムをもとに、自律性を引き出す育成の仕組みを解説いたします。</p>

<p>単なる知識習得ではなく、行動を変えることに焦点を当て、現場で自律的に動ける社員を育てる仕組みを解説いたします。</p>

<p>業務をこなすだけの「従属的な社員」ではなく、自ら課題を見つけ、主体的に動ける「自律型人材」をどう育成していくか、</p>

<p>受け身から脱却し、組織の成果に貢献し付加価値を生み出せる人材を育てる方法を具体的にご紹介いたします。</p>

<p>能動的かつ自律性の高い社員の育成やより高い成果を上げる組織を作り上げたいという方に特におすすめの内容です。</p>

<h1>プログラム</h1>

<h2>12:45～13:00　受付</h2>

<h2>13:00～13:05　オープニング（マジセミ）</h2>

<h2>13:05～13:45　【大企業の管理職向け】現場の社員に不足する課題解決力と業務遂行スキルはどうすれば身に着けられるのか　～能動的かつ自律性の高い社員を生む行動変容プログラム～</h2>

<h2>13:45～14:00　質疑応答</h2>

<h1>主催</h1>

<p>AKKODiSコンサルティング株式会社（<a href=""https://www.akkodis.co.jp/terms/policy"" rel=""nofollow"">プライバシーポリシー</a>）</p>

<h1>協力</h1>

<p>株式会社オープンソース活用研究所（<a href=""https://osslabo.com/privacy"" rel=""nofollow"">プライバシーポリシー</a>）</p>

<p>マジセミ株式会社（<a href=""https://majisemi.com/service/privacy/"" rel=""nofollow"">プライバシーポリシー</a>）</p>

<p>※共催、協賛、協力、講演企業は将来的に追加、削除される可能性があります。</p>

<h1>当日会場アクセスに関するお問合せ</h1>

<p><a href=""mailto:zoom@osslabo.com"" rel=""nofollow"">zoom@osslabo.com</a></p>

<h1>セミナー事務局</h1>

<p>マジセミ株式会社（<a href=""https://majisemi.com/service/privacy"" rel=""nofollow"">プライバシーポリシー</a>）<br>
<img src=""https://majisemi.com/e/checker.gif"" width=""1px""></p>

<p>※以下の方について、当社判断によりご参加をご遠慮いただく場合がございます。予めご了承ください。</p>

<p>・講演企業の競合となる商品・サービスを提供している企業、同業の企業、及びそのグループ企業・関連企業の方<br>
・個人や個人事業主の方<br>
・海外から参加される方<br>
・日本に活動拠点が無い企業の方<br>
・その他、弊社及び講演企業が不適切と判断した企業・個人の方</p>

<p>※申込が多数の場合、弊社抽選にてご参加をご遠慮いただく場合がございますので、予めご了承ください。</p>

<p>当社では、本フォームから取得する個人情報を下記の通り取扱います。<br>
下記をご一読いただき、ご同意の上で送信してください。</p>

<h3>１．個人情報の利用目的</h3>

<p>本フォームからのお申込みにあたりご提供頂く個人情報は、以下の目的で利用いたします。<br>
・主催、共催、協賛、協力するセミナーや展示会、イベントにおける参加者管理業務のため<br>
・当社が主催、共催、協賛、協力する資料閲覧サービスや動画視聴サービスにおける資料閲覧・動画視聴サービスのご提供、並びに申込者管理のため<br>
・メルマガ配信のため</p>

<h3>２．個人情報保護管理者の氏名又は職名、所属及び連絡先</h3>

<p>管理部 個人情報保護管理担当者<br>
TEL: 03-6721-8548　e-mail: <a href=""mailto:info@osslabo.com"" rel=""nofollow"">info@osslabo.com</a></p>

<h3>３．個人情報の第三者提供について</h3>

<p>当社は、本フォームから取得する個人情報をオープンソース活用研究所、及び、本セミナーの主催・共催・協賛・協力・講演の各企業へ提供します。<br>
(1)第三者に提供する目的：各社のサービス、製品、セミナー、イベントなどのご案内のため、各社のメルマガ登録のため<br>
(2)提供する個人情報の項目：氏名、所属会社名、メールアドレス、電話番号、部署・役職、年代、アンケートへの回答内容<br>
(3)提供の手段又は方法：暗号化したWebを経由して送信<br>
(4)当該情報の提供を受ける者又は提供を受ける者の事業者の種類、及び属性：主催・共催・協賛・協力・講演企業<br>
(5)個人情報の取扱いに関する契約がある場合はその旨：当社サービス利用約款による</p>

<h3>４．個人情報の委託について</h3>

<p>ご提供頂く個人情報は、利用目的の範囲内でその取扱いの一部又は全部を外部事業者に委託する場合がございます。その場合は、委託した個人情報の安全管理が図られるように、委託をする各社が定めた基準を満たす委託先を選定し、委託先に対して必要かつ適切な監督を行います。</p>

<h3>５．開示等のご請求に関しまして</h3>

<p>当社は、本お申込みフォームから取得する個人情報に関し、保有個人データ又は第三者提供記録に関するご本人又はその代理人からの利用目的の通知、開示、内容の訂正、追加又は削除、利用の停止、消去及び第三者への提供の停止等、並びに第三者提供記録の開示のご請求(以下、「開示等のご請求」といいます)に応じます。<br>
開示等のご請求に関しましては、下記「個人情報の取扱いに関するお問合せ先 」までお申し出ください。<br>
なお、提供先である株式会社オープンソース活用研究所及び主催・共催・協賛・協力・講演企業のご請求窓口等は、各社のプライバシーポリシーを御覧ください。</p>

<h3>６．個人情報のご提供の任意性について</h3>

<p>当社に個人情報をご提供頂くことは、ご本人様の任意です。ただし、必須項目に設定する情報をご提供頂けない場合、及びご入力頂いた内容が正確でない場合には、本セミナーにお申込みができない場合がございますのでご了承ください。</p>

<h3>７．本人が容易に知覚できない方法による個人情報の取得について</h3>

<p>当社が運営するウェブサイトでは、ユーザビリティ確保のためにCookie情報を取得しておりますが、当該情報を特定の個人を識別して利用することはございません。</p>

<h3>８．個人情報の取扱いに関するお問合せ先</h3>

<p>当社の個人情報の取扱いに関するお問合せ、苦情及び相談につきましては、以下にお申し出ください。<br>
管理部 個人情報保護管理担当者<br>
TEL: 03-6721-8548　e-mail: <a href=""mailto:info@osslabo.com"" rel=""nofollow"">info@osslabo.com</a></p>",,,Doorkeeper Events API,Doorkeeper Events API,,184787.0,2025-06-12T04:00:00.000Z,2025-06-12T05:00:00.000Z,,2025-05-21T05:37:52.402Z,2025-05-21T05:37:52.407Z,11927.0,https://doorkeeper.jp/rails/active_storage/representations/proxy/eyJfcmFpbHMiOnsibWVzc2FnZSI6IkJBaHBBMVVDQnc9PSIsImV4cCI6bnVsbCwicHVyIjoiYmxvYl9pZCJ9fQ==--b2f3cc5c7be6fda444867ff35a9d7dabf288b251/eyJfcmFpbHMiOnsibWVzc2FnZSI6IkJBaDdCem9MWm05eWJXRjBTU0lJYW5CbkJqb0dSVlE2RkhKbGMybDZaVjkwYjE5c2FXMXBkRnNIYVFMb0F6QT0iLCJleHAiOm51bGwsInB1ciI6InZhcmlhdGlvbiJ9fQ==--8ce6569ce3b1f779d3cfcdbb6038d926ad4475c7/20250612_akkodis_bannerD.jpg,https://majisemi-sales.doorkeeper.jp/events/184787,0.0,0.0,0.0,,,https://api.doorkeeper.jp/events,
67,https://majisemi-business.doorkeeper.jp/events/184786, 請求・督促・契約更新などの重要連絡が届かないという問題 ～電子メールの限界と、SMSを活用した成功事例を解説～,2025-06-11T05:00:00.000Z,"<h1>本セミナーはWebセミナーです</h1>

<p>ツールはZoomを使います。URLは直前にメールにてご連絡いたします。</p>

<p>なお、「osslabo.com」「majisemi.com」からのメールが迷惑メールとならないよう、メールの設定をご確認ください。</p>

<h1>企業間連絡の信頼性が問われる時代、メール依存の限界が浮上</h1>

<p>企業における顧客通知業務は、請求・督促・契約更新など、重要な情報を確実に届けることが前提です。しかし、近年は電子メールの開封率低下や迷惑メール化が進行し、連絡手段としての信頼性に陰りが見え始めています。特に、業務量の増加とリモートワークの普及により、担当者がメールを見逃すケースが増加し、通知の確実性が企業運営における新たな課題となっています。</p>

<h1>請求・督促・契約更新などの重要連絡が伝わらず、業務と信頼に支障</h1>

<p>「送ったはず」の通知が顧客に届いておらず、督促や再連絡が日常化している——そんな現場の声が増えています。請求業務では未入金対応に追われ、契約更新漏れによるトラブルが発生するなど、業務の非効率化だけでなく、顧客との信頼関係にも悪影響を及ぼしかねません。メールでは通知を「送る」ことはできても、「届いたか」「見てもらえたか」を把握する手段が限られているのが根本的な問題です。</p>

<h1>SMS送信サービス「メディアSMS」で、見落とされない重要連絡・業務連絡体制へ</h1>

<p>本セミナーでは、開封率90%以上を実現するSMSを活用し、重要通知の到達率と反応率を飛躍的に高める方法をご紹介します。特に、「メディアSMS」は大手金融機関や官公庁をはじめとする約6,500社への導入実績を有し、国内法人向けSMS市場で4年連続配信数シェアNo.1という高い信頼性を誇ります。URL付き通知やクリック数の可視化、業務に応じたテンプレート機能など、通知精度と効率を両立する機能も充実。実際の導入企業の成功事例を交えながら、すぐに現場で活かせる通知業務改革のステップを解説します。</p>

<h1>プログラム</h1>

<h2>13:45～14:00　受付</h2>

<h2>14:00～14:05　オープニング（マジセミ）</h2>

<h2>14:05～14:45　請求・督促・契約更新などの重要連絡が届かないという問題　～電子メールの限界と、SMSを活用した成功事例を解説～</h2>

<h2>14:45～15:00　質疑応答</h2>

<h1>主催</h1>

<p>株式会社メディア4u（<a href=""https://www.media4u.co.jp/personal"" rel=""nofollow"">プライバシーポリシー</a>）</p>

<h1>協力</h1>

<p>株式会社オープンソース活用研究所（<a href=""https://osslabo.com/privacy"" rel=""nofollow"">プライバシーポリシー</a>）</p>

<p>マジセミ株式会社（<a href=""https://majisemi.com/service/privacy/"" rel=""nofollow"">プライバシーポリシー</a>）</p>

<p>※共催、協賛、協力、講演企業は将来的に追加、削除される可能性があります。</p>

<h1>当日会場アクセスに関するお問合せ</h1>

<p><a href=""mailto:zoom@osslabo.com"" rel=""nofollow"">zoom@osslabo.com</a></p>

<h1>セミナー事務局</h1>

<p>マジセミ株式会社（<a href=""https://majisemi.com/service/privacy"" rel=""nofollow"">プライバシーポリシー</a>）<br>
<img src=""https://majisemi.com/e/checker.gif"" width=""1px""></p>

<p>※以下の方について、当社判断によりご参加をご遠慮いただく場合がございます。予めご了承ください。</p>

<p>・講演企業の競合となる商品・サービスを提供している企業、同業の企業、及びそのグループ企業・関連企業の方<br>
・個人や個人事業主の方<br>
・海外から参加される方<br>
・日本に活動拠点が無い企業の方<br>
・その他、弊社及び講演企業が不適切と判断した企業・個人の方</p>

<p>※申込が多数の場合、弊社抽選にてご参加をご遠慮いただく場合がございますので、予めご了承ください。</p>

<p>※本コミュニティにてご提示いただいた情報、及び、申込時にご記載いただいた内容は、マジセミ株式会社にて収集し、マジセミ株式会社／オープンソース活用研究所、及び、主催・共催・協賛・協力・講演の各企業へ提供します。共催・協賛・協力・講演の各企業へは、主催企業を通して提供する場合があります。またプライバシーポリシーに定めがある場合は主催・共催・協賛・協力・講演の委託先にマジセミ株式会社から直接提供する場合があります。ご記入いただいた個人情報は、マジセミ株式会社／株式会社オープンソース活用研究所及び主催・共催・協賛・協力・講演企業の各プライバシーポリシーに従って厳重に管理し、各社のサービス、製品、セミナー、イベントなどのご案内に使用させていただき、また各社のメルマガに登録させていただきます。ご記入いただいた個人情報は、法で定める場合や各社のプライバシーポリシーに特別な記載がある場合を除きご本人の同意を得ることなく第三者へ提供いたしません。利用目的遂行のため個人情報の取扱いを外部に委託する場合は、委託した個人情報の安全管理が図られるように、委託をする各社が定めた基準を満たす委託先を選定し、委託先に対して必要かつ適切な監督を行います。 お客様の個人情報に関する開示等は、お申し出いただいた方がご本人（代理人）であることを確認した上で、各社において合理的な期間および範囲で対応いたします。開示等の手続き、個人情報の取扱いに関するお問い合わせは下記のお問い合わせ窓口へご連絡ください。</p>

<p>〔お問合せ先　及び　個人情報保護管理者〕　マジセミ株式会社 個人情報保護管理者　連絡先：03-6721-8548</p>",,,Doorkeeper Events API,Doorkeeper Events API,,184786.0,2025-06-11T05:00:00.000Z,2025-06-11T06:00:00.000Z,,2025-05-21T05:33:13.298Z,2025-05-21T05:33:13.302Z,10967.0,https://doorkeeper.jp/rails/active_storage/representations/proxy/eyJfcmFpbHMiOnsibWVzc2FnZSI6IkJBaHBBMVFDQnc9PSIsImV4cCI6bnVsbCwicHVyIjoiYmxvYl9pZCJ9fQ==--ff27224443fb8fd0da58facc6f567ed29567caab/eyJfcmFpbHMiOnsibWVzc2FnZSI6IkJBaDdCem9MWm05eWJXRjBTU0lJYW5CbkJqb0dSVlE2RkhKbGMybDZaVjkwYjE5c2FXMXBkRnNIYVFMb0F6QT0iLCJleHAiOm51bGwsInB1ciI6InZhcmlhdGlvbiJ9fQ==--8ce6569ce3b1f779d3cfcdbb6038d926ad4475c7/20250611_media4u_bannerD.jpg,https://majisemi-business.doorkeeper.jp/events/184786,0.0,0.0,0.0,,,https://api.doorkeeper.jp/events,
68,https://enterprise-wordpress.doorkeeper.jp/events/184795,企業のWebサイトが抱える「Web管理」の問題を解決する、Webガバナンス入門,2025-05-28T06:00:00.000Z,"<p><a href=""https://www.prime-strategy.co.jp/lp/seminar-20250528/"" rel=""nofollow""><img src=""https://enterprise-wordpress.doorkeeper.jp/files/3e44d908047f80219f955982e1b788c4443a2857/omousshikomi_small.png"" alt=""omousshikomi_small.png""><br>
</a></p>

<p>皆様、こんにちは。プライム・ストラテジー株式会社マーケティング部ビジネス推進室室長の穂苅智哉です。&nbsp;<br>
&nbsp;<br>
当社は、累計稼働台数90,000台（※１）を超えた Webサイトの高速かつセキュアな運用を実現する「KUSANAGI」を開発しています。KUSANAGIは、WordPressをはじめとするCMSのサーバー環境として利用できるシステムです。&nbsp;<br>
（※1） <a href=""https://kusanagi.tokyo/%C2%A0"" rel=""nofollow""> https://kusanagi.tokyo/&nbsp;</a><br>
&nbsp;<br>
昨今、多くの企業様にて、自社で管理するWebサイトやシステムの数が増えてきています。部署ごと、製品ごと、などでそれぞれ目的が異なるため、これ自体は良いことですが大きな課題も存在します。&nbsp;<br>
&nbsp;<br>
それは、ガバナンスです。&nbsp;<br>
複数サイトの管理がバラバラでガバナンスが効いていないとなると、適切に状況を把握できず無駄やロスが発生する可能性があります。<br>
更に、セキュリティに関する対応も都度バラバラに対応すると、セキュリティリスクを発生させる可能性も出てきます。&nbsp;<br>
&nbsp;<br>
そんな課題をお持ちの企業様に対して、Webガバナンスという観点の入門編となるセミナーを行います。&nbsp;<br>
&nbsp;<br>
企業のWebサイト担当者、IT担当者、システム管理者、責任者などWebサイトの運用をされている方、今回のテーマにご興味のある方はぜひご参加ください。&nbsp;</p>

<p>※本セミナーは満員になっても必ず定員を拡張しますので、満席の場合は以下のグループをフォローしてお待ちください。<br>
<a href=""https://enterprise-wordpress.doorkeeper.jp/"">https://enterprise-wordpress.doorkeeper.jp/</a></p>

<p><strong>＜今回のみどころ＞</strong>&nbsp;<br>
Webサイト（CMSを使ったWebサイト等）を運営している企業様にとって、重要な観点である「Webガバナンス」最初の一歩が学べる &nbsp;</p>

<p><strong>＜開催概要＞</strong></p>

<ul>
<li>開催日時：2025年5月28日（水）15時から15時45分 &nbsp;</li>
<li>開催形式：オンライン &nbsp;</li>
<li>対象：&nbsp;</li>
<li>Webサイト担当者様、システム管理者様、責任者様など自社の複数あるWebサイト管理やルールに課題や興味を持っている方&nbsp;</li>
<li>Webガバナンスの基礎を学びたい方&nbsp;</li>
<li>参加料金：無料 &nbsp;</li>
<li>主催：プライム・ストラテジー株式会社&nbsp;</li>
<li>協力：PHP技術者認定機構&nbsp;</li>
</ul>

<p>&nbsp;<strong>＜プログラム＞</strong>&nbsp;<br>
企業のWebサイトが抱える「Web管理」の問題を実現する、Webガバナンス入門 （40分）&nbsp;<br>
プライム・ストラテジー株式会社　マーケティング部　ビジネス推進室室長　穂苅智哉&nbsp;<br>
質疑応答・アンケート（5分）&nbsp;<br>
&nbsp;<br>
【登壇者プロフィール】&nbsp;<br>
穂苅智哉（Tomoya Hokari）&nbsp;<br>
プライム・ストラテジー株式会社　マーケティング部　ビジネス推進室室長&nbsp;<br>
大学卒業後、Web制作やサーバー保守運用サービスでの営業やマーケティング等を経験し、前職では外資系CRMベンダーにて、パートナー企業様と売上拡大のための施策立案や実行支援を行う。現在、プライム・ストラテジー株式会社マーケティング部ビジネス推進室にて、様々なマーケティング活動を実施中。また、複数のコラム連載も行っている。&nbsp;</p>

<p>■KUSANAGI最新版のご紹介<br>
<a href=""https://calendly.com/chieko-i4s/new-meeting?month=2025-05"" rel=""nofollow""><img src=""https://enterprise-wordpress.doorkeeper.jp/files/cbe90794c9f7902b40d384b5137aa0441fc1a85d/KUSANAGI%20SE%20small.png"" alt=""KUSANAGI SE small.png""><br>
</a><br>
セキュリティ運用を自動化して工数を削減するKUSANAGIの新製品「KUSANAGI Security Edition」については個別にご相談承ります。<br>
以下URLからお申込みください。<br>
(<a href=""https://calendly.com/chieko-i4s/new-meeting?month=2025-05"" rel=""nofollow"">https://calendly.com/chieko-i4s/new-meeting?month=2025-05</a>)</p>

<p>KUSANAGI Security Editionについては以下をご覧ください。<br>
(<a href=""https://kusanagi.tokyo/edition_and_upgrade/kusanagi-security-edition/"" rel=""nofollow"">https://kusanagi.tokyo/edition_and_upgrade/kusanagi-security-edition/</a>)</p>",,,Doorkeeper Events API,Doorkeeper Events API,,184795.0,2025-05-28T06:00:00.000Z,2025-05-28T06:45:00.000Z,,2025-05-21T05:11:37.543Z,2025-05-21T06:06:17.922Z,4756.0,https://doorkeeper.jp/rails/active_storage/representations/proxy/eyJfcmFpbHMiOnsibWVzc2FnZSI6IkJBaHBBMGNDQnc9PSIsImV4cCI6bnVsbCwicHVyIjoiYmxvYl9pZCJ9fQ==--5188adb24b780329d3084ec5df5c1bd7553bec49/eyJfcmFpbHMiOnsibWVzc2FnZSI6IkJBaDdCem9MWm05eWJXRjBTU0lJY0c1bkJqb0dSVlE2RkhKbGMybDZaVjkwYjE5c2FXMXBkRnNIYVFMb0F6QT0iLCJleHAiOm51bGwsInB1ciI6InZhcmlhdGlvbiJ9fQ==--91839951a073aea8822f6907dc8d81559a890706/DoorKeeper%20Web%E3%82%AC%E3%83%90%E3%83%8A%E3%83%B3%E3%82%B9.png,https://enterprise-wordpress.doorkeeper.jp/events/184795,0.0,0.0,50.0,,,https://api.doorkeeper.jp/events,
69,https://majisemi-security.doorkeeper.jp/events/184114, 委託先に渡した設計・技術情報、お客様から預かった重要情報も守れていますか？ 〜ランサムも内部不正も防ぐ。IRMで渡す責任と預かる信頼を支える、サプライチェーン全体の備え〜,2025-05-28T04:00:00.000Z,"<h1>本セミナーはWebセミナーです</h1>

<p>ツールはZoomを使います。URLは直前にメールにてご連絡いたします。</p>

<p>なお、「osslabo.com」「majisemi.com」からのメールが迷惑メールとならないよう、メールの設定をご確認ください。</p>

<h1>データを「渡す責任」と「預かる信頼」が、企業価値を左右する時代に</h1>

<p>機密情報の取り扱いが企業間の信頼を左右する現代、委託元は安心してデータを共有できる相手かどうかを厳しく見極めています。一方、委託先には「情報を預かる立場」として、確かなセキュリティ体制が求められています。こうした状況の中、2025年4月には経済産業省から『サプライチェーン強化に向けたセキュリティ対策評価制度構築に向けた中間取りまとめ』が公表されました。これは2026年度を目標に、企業のセキュリティ対策状況が可視化される仕組みを構築するものです。今後、取引先から求められるセキュリティ要件を満たさなければ、ビジネスチャンスを逃す可能性もあります。こうした背景の中で重要なのは、境界防御ではなく「データそのものを守る」という新たな視点です。渡す側も渡される側も、情報漏えいリスクに備えた確実な保護策が今まさに求められています。</p>

<p>参考：</p>

<p>【DataClasysコラム】経済産業省、サプライチェーン・セキュリティ対策評価（格付け）制度　中間取りまとめを公表　<a href=""https://www.dataclasys.com/column/supplychain-security-rating-scheme_20250417/"" rel=""nofollow"">https://www.dataclasys.com/column/supplychain-security-rating-scheme_20250417/</a></p>

<h1>委託先のセキュリティレベルが見えず、選定も運用も不安定に</h1>

<p>委託先に技術情報や個人情報を預ける際、そのセキュリティ対策がどの水準にあるのかを正確に把握できていない企業は少なくありません。委託元にとっては、選定基準の曖昧さが情報漏えいリスクを高め、委託先にとっても、自社の安全性を適切にアピールできないという課題があります。さらに、トラブル発生時には責任の所在が曖昧になりやすく、パートナーとしての継続的な信頼関係の構築にも支障をきたします。サプライチェーン全体の安全性を担保するには、セキュリティ対策の“見える化”が欠かせないのが実情です。</p>

<h1>IRMで「渡す責任」と「預かる信頼」を両立。安心できる情報連携へ</h1>

<p>本セミナーでは、ファイル単位で情報を保護するIRMソリューション「DataClasys（データクレシス）」を活用し、委託元・委託先の双方が安心して情報を共有できる仕組みをご紹介します。DataClasysは、ファイル自体を暗号化し利用権限を設定することで、外部に渡した後も閲覧・編集・印刷などの操作を厳密に制御可能です。3DCADや動画といった、他のIRM製品では対応が難しい機密性の高いデータ形式にも対応しており、境界防御やEDRではカバーしきれない“受け渡し後”のリスクにも備えることができます。委託元は「責任ある提供者」として情報漏えいリスクを最小限に抑えることができ、委託先は「信頼される受託者」として高いセキュリティ対応力を示すことが可能です。サプライチェーン全体で信頼を築くための具体策として、DataClasysの活用ポイントとその導入効果を詳しく解説します。</p>

<h1>プログラム</h1>

<h2>12:45～13:00　受付</h2>

<h2>13:00～13:05　オープニング（マジセミ）</h2>

<h2>13:05～13:45　委託先に渡した設計・技術情報、お客様から預かった重要情報も守れていますか？〜ランサムも内部不正も防ぐ。IRMで渡す責任と預かる信頼を支える、サプライチェーン全体の備え〜</h2>

<h2>13:45～14:00　質疑応答</h2>

<h1>主催</h1>

<p>株式会社データクレシス（<a href=""https://www.dataclasys.com/privacy/"" rel=""nofollow"">プライバシーポリシー</a>）</p>

<h1>協力</h1>

<p>株式会社オープンソース活用研究所（<a href=""https://osslabo.com/privacy"" rel=""nofollow"">プライバシーポリシー</a>）</p>

<p>マジセミ株式会社（<a href=""https://majisemi.com/service/privacy/"" rel=""nofollow"">プライバシーポリシー</a>）</p>

<p>※共催、協賛、協力、講演企業は将来的に追加、削除される可能性があります。</p>

<h1>当日会場アクセスに関するお問合せ</h1>

<p><a href=""mailto:zoom@osslabo.com"" rel=""nofollow"">zoom@osslabo.com</a></p>

<h1>セミナー事務局</h1>

<p>マジセミ株式会社（<a href=""https://majisemi.com/service/privacy"" rel=""nofollow"">プライバシーポリシー</a>）<br>
<img src=""https://majisemi.com/e/checker.gif"" width=""1px""></p>

<p>※以下の方について、当社判断によりご参加をご遠慮いただく場合がございます。予めご了承ください。</p>

<p>・講演企業の競合となる商品・サービスを提供している企業、同業の企業、及びそのグループ企業・関連企業の方<br>
・個人や個人事業主の方<br>
・海外から参加される方<br>
・日本に活動拠点が無い企業の方<br>
・その他、弊社及び講演企業が不適切と判断した企業・個人の方</p>

<p>※申込が多数の場合、弊社抽選にてご参加をご遠慮いただく場合がございますので、予めご了承ください。</p>

<p>当社では、本フォームから取得する個人情報を下記の通り取扱います。<br>
下記をご一読いただき、ご同意の上で送信してください。</p>

<h3>１．個人情報の利用目的</h3>

<p>本フォームからのお申込みにあたりご提供頂く個人情報は、以下の目的で利用いたします。<br>
・主催、共催、協賛、協力するセミナーや展示会、イベントにおける参加者管理業務のため<br>
・当社が主催、共催、協賛、協力する資料閲覧サービスや動画視聴サービスにおける資料閲覧・動画視聴サービスのご提供、並びに申込者管理のため<br>
・メルマガ配信のため</p>

<h3>２．個人情報保護管理者の氏名又は職名、所属及び連絡先</h3>

<p>管理部 個人情報保護管理担当者<br>
TEL: 03-6721-8548　e-mail: <a href=""mailto:info@osslabo.com"" rel=""nofollow"">info@osslabo.com</a></p>

<h3>３．個人情報の第三者提供について</h3>

<p>当社は、本フォームから取得する個人情報をオープンソース活用研究所、及び、本セミナーの主催・共催・協賛・協力・講演の各企業へ提供します。<br>
(1)第三者に提供する目的：各社のサービス、製品、セミナー、イベントなどのご案内のため、各社のメルマガ登録のため<br>
(2)提供する個人情報の項目：氏名、所属会社名、メールアドレス、電話番号、部署・役職、年代、アンケートへの回答内容<br>
(3)提供の手段又は方法：暗号化したWebを経由して送信<br>
(4)当該情報の提供を受ける者又は提供を受ける者の事業者の種類、及び属性：主催・共催・協賛・協力・講演企業<br>
(5)個人情報の取扱いに関する契約がある場合はその旨：当社サービス利用約款による</p>

<h3>４．個人情報の委託について</h3>

<p>ご提供頂く個人情報は、利用目的の範囲内でその取扱いの一部又は全部を外部事業者に委託する場合がございます。その場合は、委託した個人情報の安全管理が図られるように、委託をする各社が定めた基準を満たす委託先を選定し、委託先に対して必要かつ適切な監督を行います。</p>

<h3>５．開示等のご請求に関しまして</h3>

<p>当社は、本お申込みフォームから取得する個人情報に関し、保有個人データ又は第三者提供記録に関するご本人又はその代理人からの利用目的の通知、開示、内容の訂正、追加又は削除、利用の停止、消去及び第三者への提供の停止等、並びに第三者提供記録の開示のご請求(以下、「開示等のご請求」といいます)に応じます。<br>
開示等のご請求に関しましては、下記「個人情報の取扱いに関するお問合せ先 」までお申し出ください。<br>
なお、提供先である株式会社オープンソース活用研究所及び主催・共催・協賛・協力・講演企業のご請求窓口等は、各社のプライバシーポリシーを御覧ください。</p>

<h3>６．個人情報のご提供の任意性について</h3>

<p>当社に個人情報をご提供頂くことは、ご本人様の任意です。ただし、必須項目に設定する情報をご提供頂けない場合、及びご入力頂いた内容が正確でない場合には、本セミナーにお申込みができない場合がございますのでご了承ください。</p>

<h3>７．本人が容易に知覚できない方法による個人情報の取得について</h3>

<p>当社が運営するウェブサイトでは、ユーザビリティ確保のためにCookie情報を取得しておりますが、当該情報を特定の個人を識別して利用することはございません。</p>

<h3>８．個人情報の取扱いに関するお問合せ先</h3>

<p>当社の個人情報の取扱いに関するお問合せ、苦情及び相談につきましては、以下にお申し出ください。<br>
管理部 個人情報保護管理担当者<br>
TEL: 03-6721-8548　e-mail: <a href=""mailto:info@osslabo.com"" rel=""nofollow"">info@osslabo.com</a></p>",,,Doorkeeper Events API,Doorkeeper Events API,,184114.0,2025-05-28T04:00:00.000Z,2025-05-28T05:00:00.000Z,,2025-05-21T05:04:04.602Z,2025-05-21T05:05:49.037Z,10965.0,https://doorkeeper.jp/rails/active_storage/representations/proxy/eyJfcmFpbHMiOnsibWVzc2FnZSI6IkJBaHBBMHNDQnc9PSIsImV4cCI6bnVsbCwicHVyIjoiYmxvYl9pZCJ9fQ==--e976bb41be2ffe21b1cd57c2a2bc071fc145ab2d/eyJfcmFpbHMiOnsibWVzc2FnZSI6IkJBaDdCem9MWm05eWJXRjBTU0lJYW5CbkJqb0dSVlE2RkhKbGMybDZaVjkwYjE5c2FXMXBkRnNIYVFMb0F6QT0iLCJleHAiOm51bGwsInB1ciI6InZhcmlhdGlvbiJ9fQ==--8ce6569ce3b1f779d3cfcdbb6038d926ad4475c7/20250528_dataclasys_bannerD.jpg,https://majisemi-security.doorkeeper.jp/events/184114,0.0,0.0,0.0,,,https://api.doorkeeper.jp/events,
70,https://enterprise-wordpress.doorkeeper.jp/events/184792,プライム・ストラテジーAIエンジニア求人セミナー～Python／データ分析を学んで転職に活かす方法を考えるセミナー2025,2025-05-28T10:30:00.000Z,"<p>※本セミナーは満員になっても必ず定員を拡張しますので、満席の場合は以下のグループをフォローしてお待ちください。<br>
(<a href=""https://enterprise-wordpress.doorkeeper.jp/"">https://enterprise-wordpress.doorkeeper.jp/</a>)</p>

<p>皆様、こんにちは。<br>
プライム・ストラテジー（TYOP5250）　代表の吉政でございます。</p>

<p>このセミナーは当社のAIビジネスやAIエンジニア求人に興味がある方向けの内容と、Python、データ分析を学んで転職に生かすための方法に興味がある方向けの2部構成になっています。</p>

<p>1部、2部通してご参加いただけると最近のAIビジネスと求人内容から、転職をするためのノウハウまで学べますので、是非第一部、第二部ともにご参加いただけると幸いです。<br>
なお、第二部は登壇者である代表個人の見解を書いたものであり、前回、前々回と300名を超えるお申し込みをいただいた名物トークになります。興味がある方は、この機会に是非ご参加ください。</p>

<p>なお、このセミナーで解説されるキャリア論はあくまで登壇者の個人的な意見であり、当社としての意見ではありません。<br>
また、本セミナーで解説されるキャリア論を実践した結果についていかなる責任を負いません。予めご了承ください。</p>

<p>私がマイナビで連載しているキャリアコラムについて興味がある方は以下をご覧ください。</p>

<p>「100歳までの現役労働に挑む男の話」<br>
(<a href=""https://news.mynavi.jp/techplus/series/100yearslabpr/"" rel=""nofollow"">https://news.mynavi.jp/techplus/series/100yearslabpr/</a>)</p>

<p>「伝説的な給与を獲得後に没落、でも起業で復活した男の話」<br>
(<a href=""https://news.mynavi.jp/techplus/series/secretofsuccess/"" rel=""nofollow"">https://news.mynavi.jp/techplus/series/secretofsuccess/</a>)</p>

<p><strong>&lt;セミナー概要&gt;</strong><br>
<strong>開催日時：2025年5月28日（水曜日）19時30分から21時30分</strong></p>

<p>主催：プライム・ストラテジー株式会社<br>
対象：AIエンジニア、転職ノウハウに興味がある方<br>
開催形式：オンライン形式<br>
参加料金：無料<br>
得られるもの：</p>

<p>プライム・ストラテジーのAI戦略とソリューション、AIエンジニアの求人情報<br>
Pythonやデータ分析を活かした転職・キャリアアップのヒント</p>

<p><strong>＜プログラム概要＞</strong><br>
プライム・ストラテジー会社紹介、登壇者紹介<br>
プライム・ストラテジー新AIソリューションとAIエンジニア求人情報<br>
Pythonやデータ分析を活かした転職のノウハウ<br>
企業内でのキャリアップについて<br>
キャリアアップの奥義　企画に強くなるには<br>
QA</p>

<p>※プライム・ストラテジーのＡＩエンジニア求人情報は以下をご覧ください。<br>
(<a href=""https://recruit.prime-strategy.co.jp/profession/ai/"" rel=""nofollow"">https://recruit.prime-strategy.co.jp/profession/ai/</a>)</p>

<p><strong>＜登壇者紹介 ＞</strong><br>
吉政忠志<br>
マーケティングコンサルティング会社　吉政創成株式会社を創業し、14期連続増収増益を達成。その後、プライム・ストラテジー株式会社（TYO5250）の代表取締役に着任する。日本のIT業界の発展のためには教育が重要であると考え、LinuxやXML、PHP、Ruby on Rails、Python、IPv6の検定試験を立ち上げ、運営組織の代表を歴任する。年間登壇回数20回以上、月刊連載15本、顧問先企業10社。</p>

<p>Facebook　(<a href=""https://www.facebook.com/tadashi.yoshimasa"" rel=""nofollow"">https://www.facebook.com/tadashi.yoshimasa</a>)<br>
X（Twitter）　(<a href=""https://x.com/_yoshimasa"" rel=""nofollow"">https://x.com/_yoshimasa</a>)</p>

<p>押尾孝浩<br>
プライム・ストラテジー株式会社　マーケティング部　AIビジネス推進室　担当執行役員。IT系上場企業で長年CTOを務めた現役AIエンジニア。日本の数少ないソリューションアーキテクト。製品企画・開発はもちろん、事業運営、マーケティングにもたけている人材。</p>

<p><strong>注意事項</strong><br>
・本セミナーは録画され、後日公開されます。<br>
・本セミナーは個人的に使用する場合のみ、録画を許可します。録画した映像や音声を第三者に公開・提供することを禁止します。</p>

<p>■KUSANAGI最新版のご紹介<br>
<img src=""https://enterprise-wordpress.doorkeeper.jp/files/2a8abfc4f814da0ee51d64ebb00a4c6ddb0846c2/kusanagiSEmoushikomi.png"" alt=""kusanagiSEmoushikomi.png""></p>

<p>セキュリティ運用を自動化して工数を削減するKUSANAGIの新製品「KUSANAGI Security Edition」については個別にご相談承ります。<br>
以下URLからお申込みください。<br>
(<a href=""https://calendly.com/chieko-i4s/new-meeting?month=2025-05"" rel=""nofollow"">https://calendly.com/chieko-i4s/new-meeting?month=2025-05</a>)</p>

<p>KUSANAGI Security Editionについては以下をご覧ください。<br>
(<a href=""https://kusanagi.tokyo/edition_and_upgrade/kusanagi-security-edition/"" rel=""nofollow"">https://kusanagi.tokyo/edition_and_upgrade/kusanagi-security-edition/</a>)</p>",,,Doorkeeper Events API,Doorkeeper Events API,,184792.0,2025-05-28T10:30:00.000Z,2025-05-28T12:30:00.000Z,,2025-05-21T04:46:00.771Z,2025-05-21T04:52:44.511Z,4756.0,https://doorkeeper.jp/rails/active_storage/representations/proxy/eyJfcmFpbHMiOnsibWVzc2FnZSI6IkJBaHBBenNDQnc9PSIsImV4cCI6bnVsbCwicHVyIjoiYmxvYl9pZCJ9fQ==--25e0302db36ecbe5212fef358620cbc6334a78fb/eyJfcmFpbHMiOnsibWVzc2FnZSI6IkJBaDdCem9MWm05eWJXRjBTU0lJY0c1bkJqb0dSVlE2RkhKbGMybDZaVjkwYjE5c2FXMXBkRnNIYVFMb0F6QT0iLCJleHAiOm51bGwsInB1ciI6InZhcmlhdGlvbiJ9fQ==--91839951a073aea8822f6907dc8d81559a890706/Test.png,https://enterprise-wordpress.doorkeeper.jp/events/184792,0.0,0.0,30.0,,,https://api.doorkeeper.jp/events,
71,https://kandigi.doorkeeper.jp/events/184790,AI勉強会「スナックAI」,2025-06-24T09:00:00.000Z,"<p>スナックAI ― 生成AIでビジネスを“ちょい飲み”ブースト！</p>

<p>生成AIを使えば業務効率やアイデア創出のスピードは驚くほど加速します。<br>
それでも「みんなどう使ってるの？」「うちでどう使えばいいの？」「専門用語が難しくて…」と足踏みしている方は少なくありません。<br>
そこで誕生したのが、肩書も年齢も関係なく“スナック感覚”で集まれるゆるい勉強会 「スナックAI」です。</p>

<h3><strong>【スナックAIが選ばれる 3 つの理由 】</strong></h3>

<p><strong>1. ゆるく学べるのに実戦的</strong><br>
ドレスコードも議事録もありません。<br>
　気軽なトークの中で、実際に生成AIを導入している経営者・個人事業主が具体的な成功・失敗事例を披露します。<br>
　机上の空論ではない“生きたノウハウ”をご自身のビジネスにそのまま持ち帰れます。</p>

<p><strong>2. 質問し放題・売り込みゼロ</strong><br>
「社内の抵抗をどう乗り越えた？」「費用対効果は？」など、気になることは何でもぶつけてください。<br>
　モデレーターがファシリテートしながら、その場でリアルな答えを共有します。<br>
　プレゼンもセールスピッチもないので、安心して疑問を解消できます。</p>

<p><strong>3. お酒片手にインスピレーション</strong><br>
アルコールOK、会場でもビールやハイボールを少量ですがご用意しています（早い者勝ちです）。<br>
　持ち込みも可。ほろ酔いの解放感が、アイデアの化学反応をさらに加速。<br>
　もちろんソフトドリンク派の方も大歓迎です。<br>
　飲み物はご自身でご準備してください。</p>

<p><strong>【こんな方におすすめです 】</strong><br>
・ 生成AIを導入したいが、具体的な第一歩が分からない経営者・個人事業主<br>
・ 他社の事例を聞き、自社の活用イメージを膨らませたい方<br>
・ リラックスしながら専門家や同じ立場の仲間と交流したい方</p>

<p>日時：2025年6月24日（火）18:00–20:00<br>
場所：コワーキングスペースROUGHLABOTECH扇町（最寄り駅：堺筋線扇町、JR環状線天満駅）<br>
住所：大阪市北区末広町3-21 扇町センタービル707<br>
参加費：無料（会場でのアルコール・ソフトドリンクはキャッシュオン形式）</p>",大阪市北区末広町3-21-707,,Doorkeeper Events API,Doorkeeper Events API,,184790.0,2025-06-24T09:00:00.000Z,2025-06-24T11:00:00.000Z,コワーキングスペースROUGHLABO TECH扇町,2025-05-21T04:03:33.821Z,2025-05-21T04:03:33.826Z,1885.0,https://doorkeeper.jp/rails/active_storage/representations/proxy/eyJfcmFpbHMiOnsibWVzc2FnZSI6IkJBaHBBelB1Qmc9PSIsImV4cCI6bnVsbCwicHVyIjoiYmxvYl9pZCJ9fQ==--17c6de6d744940c4fe5f179aa56346aa0b86fa8e/eyJfcmFpbHMiOnsibWVzc2FnZSI6IkJBaDdCem9MWm05eWJXRjBTU0lJY0c1bkJqb0dSVlE2RkhKbGMybDZaVjkwYjE5c2FXMXBkRnNIYVFMb0F6QT0iLCJleHAiOm51bGwsInB1ciI6InZhcmlhdGlvbiJ9fQ==--91839951a073aea8822f6907dc8d81559a890706/Blue%20Modern%20AI%20Technology%20Presentation%20(1).png,https://kandigi.doorkeeper.jp/events/184790,0.0,0.0,10.0,34.7013615,135.5101691,https://api.doorkeeper.jp/events,コワーキングスペースROUGHLABO TECH扇町
72,https://majisemi-sales.doorkeeper.jp/events/184789, 政府が中小企業の落札を応援！？中小企業こそ公共入札に参入すべき５つの理由 ,2025-06-16T02:00:00.000Z,"<h1>本セミナーはWebセミナーです</h1>

<p>ツールはOn24を使います。URLメールにてご連絡いたします。<br>
なお、「uluru.jp」「osslabo.com」「majisemi.com」からのメールが迷惑メールとならないよう、メールの設定をご確認下さい。</p>

<p>　</p>

<h1>セミナー内容</h1>

<p>感染症拡大、物価の高騰など経営にダイレクトに響く社会問題が絶えない中、<br>
「どう売上を構築していくか」、「新しい営業先を増やさなければいけない」ということは<br>
中小企業にとって早急な課題となっているのではないでしょうか。</p>

<p>この課題解決におすすめの一手が『公共入札への参入』です。<br>
公共入札は、国の方針で中小企業の受注を後押ししてくれていたり、<br>
景気に左右されない安定的な市場であったりと、中小企業にとってとても可能性のある市場となっています。</p>

<p>本セミナーでは、中小企業こそ公共入札に参入すべき理由や、<br>
実際に公共入札に参加する際のポイントを細かく解説しています。</p>

<p>安定した経営・売上構築のために何かをしたいけどどんなことをしたら良いか迷われている方、<br>
公共入札に少しでもご興味のある方、<br>
公共入札に参入したいけどわからないことがわからないと、お思いのご担当者の皆様、ぜひこの機会にご視聴ください。</p>

<p>　</p>

<h1>講演内容</h1>

<h2>第１部『中小企業こそ公共入札に参入すべき５つの理由』</h2>

<p>なぜ、中小企業に公共入札がおすすめなのか？5つの理由を解説します。  </p>

<h2>第２部『入札業務の注意点と効率化のポイント』</h2>

<p>実際に公共入札に参入した場合の注意点やポイントを解説します。  </p>

<h2>第３部『NJSSを活用した入札業務の効率化』</h2>

<p>全国の入札案件情報を一括で検索できる「入札情報速報サービスNJSS」を活用した情報収集方法を、デモを交えてご紹介します。  </p>

<p><strong>本セミナーは質疑応答を受け付けておりません。予めご了承下さい。</strong></p>

<p>　</p>

<h1>主催</h1>

<p>株式会社うるる（<a href=""https://www.uluru.biz/policy"" rel=""nofollow"">プライバシーポリシー</a>）</p>

<h1>協力</h1>

<p>株式会社オープンソース活用研究所（<a href=""https://osslabo.com/privacy"" rel=""nofollow"">プライバシーポリシー</a>）</p>

<p>マジセミ株式会社（<a href=""https://majisemi.com/service/privacy/"" rel=""nofollow"">プライバシーポリシー</a>）</p>

<p>※共催、協賛、協力、講演企業は将来的に追加、削除される可能性があります。</p>

<p>　</p>

<h1>当日会場アクセスに関するお問合せ</h1>

<p><a href=""mailto:njss_mk@uluru.jp"" rel=""nofollow"">njss_mk@uluru.jp</a></p>

<p>　</p>

<h1>セミナー事務局</h1>

<p>マジセミ株式会社（<a href=""https://majisemi.com/service/privacy"" rel=""nofollow"">プライバシーポリシー</a>）<br>
<img src=""https://majisemi.com/e/checker.gif"" width=""1px""></p>

<p>※以下の方について、当社判断によりご参加をご遠慮いただく場合がございます。予めご了承ください。</p>

<p>・講演企業の競合となる商品・サービスを提供している企業、同業の企業、及びそのグループ企業・関連企業の方<br>
・個人や個人事業主の方<br>
・海外から参加される方<br>
・日本に活動拠点が無い企業の方<br>
・その他、弊社及び講演企業が不適切と判断した企業・個人の方</p>

<p>※申込が多数の場合、弊社抽選にてご参加をご遠慮いただく場合がございますので、予めご了承ください。</p>

<p>当社では、本フォームから取得する個人情報を下記の通り取扱います。<br>
下記をご一読いただき、ご同意の上で送信してください。</p>

<h3>１．個人情報の利用目的</h3>

<p>本フォームからのお申込みにあたりご提供頂く個人情報は、以下の目的で利用いたします。<br>
・主催、共催、協賛、協力するセミナーや展示会、イベントにおける参加者管理業務のため<br>
・当社が主催、共催、協賛、協力する資料閲覧サービスや動画視聴サービスにおける資料閲覧・動画視聴サービスのご提供、並びに申込者管理のため<br>
・メルマガ配信のため</p>

<h3>２．個人情報保護管理者の氏名又は職名、所属及び連絡先</h3>

<p>管理部 個人情報保護管理担当者<br>
TEL: 03-6721-8548　e-mail: <a href=""mailto:info@osslabo.com"" rel=""nofollow"">info@osslabo.com</a></p>

<h3>３．個人情報の第三者提供について</h3>

<p>当社は、本フォームから取得する個人情報をオープンソース活用研究所、及び、本セミナーの主催・共催・協賛・協力・講演の各企業へ提供します。<br>
(1)第三者に提供する目的：各社のサービス、製品、セミナー、イベントなどのご案内のため、各社のメルマガ登録のため<br>
(2)提供する個人情報の項目：氏名、所属会社名、メールアドレス、電話番号、部署・役職、年代、アンケートへの回答内容<br>
(3)提供の手段又は方法：暗号化したWebを経由して送信<br>
(4)当該情報の提供を受ける者又は提供を受ける者の事業者の種類、及び属性：主催・共催・協賛・協力・講演企業<br>
(5)個人情報の取扱いに関する契約がある場合はその旨：当社サービス利用約款による</p>

<h3>４．個人情報の委託について</h3>

<p>ご提供頂く個人情報は、利用目的の範囲内でその取扱いの一部又は全部を外部事業者に委託する場合がございます。その場合は、委託した個人情報の安全管理が図られるように、委託をする各社が定めた基準を満たす委託先を選定し、委託先に対して必要かつ適切な監督を行います。</p>

<h3>５．開示等のご請求に関しまして</h3>

<p>当社は、本お申込みフォームから取得する個人情報に関し、保有個人データ又は第三者提供記録に関するご本人又はその代理人からの利用目的の通知、開示、内容の訂正、追加又は削除、利用の停止、消去及び第三者への提供の停止等、並びに第三者提供記録の開示のご請求(以下、「開示等のご請求」といいます)に応じます。<br>
開示等のご請求に関しましては、下記「個人情報の取扱いに関するお問合せ先 」までお申し出ください。<br>
なお、提供先である株式会社オープンソース活用研究所及び主催・共催・協賛・協力・講演企業のご請求窓口等は、各社のプライバシーポリシーを御覧ください。</p>

<h3>６．個人情報のご提供の任意性について</h3>

<p>当社に個人情報をご提供頂くことは、ご本人様の任意です。ただし、必須項目に設定する情報をご提供頂けない場合、及びご入力頂いた内容が正確でない場合には、本セミナーにお申込みができない場合がございますのでご了承ください。</p>

<h3>７．本人が容易に知覚できない方法による個人情報の取得について</h3>

<p>当社が運営するウェブサイトでは、ユーザビリティ確保のためにCookie情報を取得しておりますが、当該情報を特定の個人を識別して利用することはございません。</p>

<h3>８．個人情報の取扱いに関するお問合せ先</h3>

<p>当社の個人情報の取扱いに関するお問合せ、苦情及び相談につきましては、以下にお申し出ください。<br>
管理部 個人情報保護管理担当者<br>
TEL: 03-6721-8548　e-mail: <a href=""mailto:info@osslabo.com"" rel=""nofollow"">info@osslabo.com</a></p>",,,Doorkeeper Events API,Doorkeeper Events API,,184789.0,2025-06-16T02:00:00.000Z,2025-06-16T02:45:00.000Z,,2025-05-21T03:51:13.133Z,2025-05-21T03:51:13.139Z,11927.0,https://doorkeeper.jp/rails/active_storage/representations/proxy/eyJfcmFpbHMiOnsibWVzc2FnZSI6IkJBaHBBeUVDQnc9PSIsImV4cCI6bnVsbCwicHVyIjoiYmxvYl9pZCJ9fQ==--f7a1d49b190790ebf865ac3887c094ab657d244f/eyJfcmFpbHMiOnsibWVzc2FnZSI6IkJBaDdCem9MWm05eWJXRjBTU0lJYW5CbkJqb0dSVlE2RkhKbGMybDZaVjkwYjE5c2FXMXBkRnNIYVFMb0F6QT0iLCJleHAiOm51bGwsInB1ciI6InZhcmlhdGlvbiJ9fQ==--8ce6569ce3b1f779d3cfcdbb6038d926ad4475c7/20250616_uluru_bannerD.jpg,https://majisemi-sales.doorkeeper.jp/events/184789,0.0,0.0,0.0,,,https://api.doorkeeper.jp/events,
73,https://majisemi-sales.doorkeeper.jp/events/184788, BtoBリード獲得比較サミット2025 〜 11つの施策を一挙比較 〜 【申込者全員にアーカイブ動画をプレゼント】,2025-06-24T01:00:00.000Z,"<h1>セミナー概要</h1>

<p>BtoB企業にとって、リード獲得は事業成長の要です。しかし、「どの施策が自社に最適なのか？」と悩んでいる方も多いのではないでしょうか？</p>

<p>・広告、SEO、ウェビナー… どの施策が一番成果につながるのか知りたい</p>

<p>・リードの質を高めるための最新トレンドを把握したい</p>

<p>・他社の成功事例をもとに、自社の戦略を見直したい</p>

<p>そんな課題をお持ちの皆様に向けて、「BtoBリード獲得比較サミット2025」を開催！</p>

<p>本サミットでは、11つのリード獲得施策を徹底比較し、それぞれのメリット・デメリットを解説します。さらに、実際に成果を上げている企業のリアルな事例もご紹介。</p>

<p>BtoBマーケティング・営業担当者の皆様、ぜひご参加ください！</p>

<h3>募集対象</h3>

<p>・獲得したリードが商談に繋がらない</p>

<p>・商談転換率を改善したいが具体的な方法が分からない</p>

<p>・自社に合ったアプローチ手法を模索している</p>

<h3>定員</h3>

<p>1000名</p>

<h3>開催場所・方法</h3>

<p>Zoom</p>

<p>※URLは直前にメールにてご連絡いたします。</p>

<p>※「osslabo.com」「majisemi.com」からのメールが迷惑メールとならないよう、メールの設定をご確認ください。</p>

<h3>申込者特典</h3>

<p>申込者全員にアーカイブ動画をプレゼント</p>

<h1>プログラム</h1>

<h3>10:00-10:10　|　オープニング</h3>

<h3>10:10-10:25　|　BtoB企業のリード獲得手法を選ぶポイント</h3>

<p>マジセミ株式会社</p>

<p>寺田 雄一</p>

<p>BtoBマーケティングでは、多くの企業がリード獲得に力を入れています。しかし、広告やウェビナー、ホワイトペーパーなどの施策を活用し、一定のリードは獲得できているにもかかわらず、その後のフォローで停滞し、最終的に商談につながらないという課題が浮き彫りになっています。</p>

<p>リードの質に問題があるのか、マーケティングと営業の間に認識のズレがあるのか、それともフォローアップの仕組みに課題があるのか。このギャップが生まれる原因は一つではなく、複数の要因が絡み合っています。</p>

<p>本セッションでは、BtoBマーケティングにおける商談化の難しさについて、具体的なケースを交えながら整理し、どこに本質的な課題があるのかを考えます。</p>

<h3>10:25-10:50　|　「そのデジマ施策、本当に必要ですか？」営業成果につなげるマーケの基本</h3>

<p>株式会社アジタス　</p>

<p>山下 航希</p>

<p>デジタルマーケティングには様々な施策やツールの選択肢がありますが、事業や商品によってやるべき施策の組み合わせは異なります。</p>

<p>「ウェビナー、MAツール、コンテンツマーケティング...手探りで始めてみたけど、結局営業成果に繋がらなかった。」</p>

<p>こんな状況にならないために、御社にあったリード獲得計画を考え直すところから始めませんか？</p>

<p>当セミナーでは、御社の事業や商品の特徴に合わせたマーケティング目標や施策の考え方について解説します。ツールや施策の成果を最大化するためにも、視聴いただけますと幸いです。</p>

<h3>10:50-11:15　|　BtoBマーケに4年で10億円投下して、どの手法・どのやり方が良かったのかぶっちゃけ開示会！代表平野が直接登壇</h3>

<p>株式会社オンリーストーリー</p>

<p>平野 哲也</p>

<p>・リスティング</p>

<p>・手書き手紙</p>

<p>・テレアポ</p>

<p>・顧問</p>

<p>・タクシー広告</p>

<p>・SNS広告</p>

<p>など各種施策や会社に4年間で10億円投資した経験を元に、どの施策がぶっちゃけ良かったか代表自ら実体験をもとにお話しします！</p>

<h3>11:15-11:20　|　休憩：5分</h3>

<h3>11:20-11:45　|　施策の成果の有無は”Webサイト”次第で変わる！〜Webサイトで今すぐ見直すべきPoint集〜</h3>

<p>株式会社ベーシック</p>

<p>菊池 貴行</p>

<p>BtoBマーケティングでリード獲得のために多彩な集客施策を展開しても、最終的に見込み顧客がコンバージョンに至るかどうかは、Webサイトがどのように設計・運用されているかに大きく左右されます。</p>

<p>優れた施策を打ち出していても、LPやWebサイトに“バケツの穴”が多いと、せっかく集めた見込み顧客を逃してしまう可能性が高いのです。</p>

<p>本講演では、施策とWebサイトの連携を高めたい方に2,000社以上のBtoB企業を支援してきたferretが、マーケティング施策の効果を最大化するために必要なWebサイト運用の見直しポイントを解説します。</p>

<h3>11:45-12:10　|　Webサイト訪問だけで終わらせない！デモ掲載によるリード獲得率UPの最新手法</h3>

<p>PLAINER株式会社</p>

<p>阿久津 卓哉</p>

<p>Webサイトへの流入はあるものの、なかなかリード獲得に結びつかない──。そんな課題を抱えるBtoB企業がいま注目しているのが「デモコンテンツ」の活用です。</p>

<p>資料請求や問い合わせの前に、製品の価値や使いやすさを体感できるデモを設置することで、訪問者の興味を高め、次のアクションへと自然に導くことが可能になります。</p>

<p>本セッションでは、なぜ今デモがリード獲得率向上に効果的なのか、成功事例を交えながらわかりやすく解説します。Webサイトからのリード獲得を本気で強化したい方、必見です！</p>

<h3>12:10-12:35　|　サイト訪問を“商談”に変える！ BtoB企業のためのWeb接客実践編</h3>

<p>株式会社immedio</p>

<p>浜田 英揮</p>

<p>「ウェブサイトには一定の訪問がある。でも、問い合わせや商談にはつながらない」そんな悩みを抱えていませんか？</p>

<p>BtoBマーケティングでは、サイトへの集客はできていても、その後のリード獲得や商談化に苦戦する企業が多く見受けられます。</p>

<p>本セミナーでは、BtoB Web接客ツール「immedio」を活用し、ウェブ訪問者を“見込み顧客”へ変えていく具体的なアプローチをご紹介します。</p>

<p>・訪問者の離脱を防ぎ、リード、商談獲得へと繋げるWeb接客手法とは？</p>

<p>・営業がほしい“ターゲットリード”をどのように創出するのか？</p>

<p>・実際に成果につながった企業の運用事例とは？</p>

<p>など、実践に役立つノウハウや成功パターンを中心にお届けします。</p>

<h3>12:35-12:40　|　休憩：5分</h3>

<h3>12:40-13:05　|　【商談獲得にお困りの企業様向け】商談が獲れるウェビナー企画の作り方！</h3>

<p>マジセミ株式会社</p>

<p>寺田 雄一</p>

<p>BtoBマーケティング施策で昨今、良く耳にする「ウェビナー」。</p>

<p>施策の用途は幅広く、リード獲得やリードナーチャリングとして活用されることも多くなっています。</p>

<p>一方で施策結果として、商談が他の施策よりも獲得効率が悪く、施策が停止するという問題に直面する企業も存在しています。</p>

<p>そこで、本セミナーでは「商談を効率よく獲れるセミナー企画」はどのようにして作成するのか、ウェビナー支援会社のマジセミが徹底解説させていただきます。</p>

<h3>13:05-13:30　|　コストを抑えて効果最大化！アーカイブメディア活用による賢いリード獲得術</h3>

<p>株式会社AdAI</p>

<p>江藤 久昌</p>

<p>「ウェビナーのネタが尽きた…」「もっとCPAを抑えたい…」「もっと効率的にリードを獲得したい…」 こんなお悩みはございませんか？</p>

<p>答えは、貴社内に眠る「ウェビナーアーカイブ動画」の活用にあるかもしれません。</p>

<p>本ウェビナーでは、過去のウェビナー動画を最大限に活かし、コストを抑えながらリード獲得効果を最大化する「賢い」方法を具体的にご紹介。</p>

<p>明日から試せる実践的なテクニックで、貴社のリード獲得を新たなステージへと導きます。</p>

<h3>13:30-13:55　|　顧客エンゲージメントを高める！CV数を最大化するメルマガの作り方</h3>

<p>株式会社ラクスライトクラウド</p>

<p>山本 恭平</p>

<p>BtoBマーケティングにおいて、「数」だけでなく「質」が重視される今、</p>

<p>低コストかつ効率的なメルマガ施策を活用できていないのは、大きな機会損失と言えます。</p>

<p>顧客エンゲージメントを高め、成果へとつなげるためには、適切なメール戦略の設計と、読まれるメルマガの作成スキルが欠かせません。</p>

<p>本セミナーでは、メールマーケティングの本質に触れながら、</p>

<p>弊社でコンバージョン数を250％向上させた配信設計・件名・本文の具体的なテクニックをご紹介します。</p>

<p>メルマガのパフォーマンスをさらに高めたい方は、ぜひご参加ください。</p>

<h3>13:55-14:00　|　休憩：5分</h3>

<h3>14:00-14:25　|　【Web広告】CPA運用はもう古い？最新トレンド運用法を徹底解説！Web広告×売上連携によるROI最大化</h3>

<p>株式会社Exkey</p>

<p>内田 健人 </p>

<p>このBtoB×Web広告セミナーでは、「CPA重視運用」から「最終KPI重視運用」へのシフトチェンジをテーマに、オンラインとオフラインのデータを統合することで事業成果を最大化する戦術を紹介します。</p>

<p>従来のCPAに依存した広告運用から脱却し、より長期的な視点での広告効果測定と運用戦略について学ぶことができます。ビジネス成果に直結する広告運用の最前線を理解するための内容です。</p>

<h3>14:25-14:50　|　BtoBマーケティングにおける動画広告の活用と成果最大化のポイント</h3>

<p>株式会社Kaizen Platform</p>

<p>矢崎 泰三</p>

<p>BtoBマーケティングにおいて、リード獲得は事業成長の鍵を握る重要な要素です。しかし、従来の施策ではターゲットにリーチできず、新たな手法を模索している企業も多いのではないでしょうか。​</p>

<p>本セッションでは、動画広告がBtoBマーケティングにおいてどのような効果を発揮するのか、効果的な動画クリエイティブの制作ポイントと、限られたリソースでも実現可能なPDCAの回し方などを解説します。​</p>

<p>制作したコンテンツを最大限に活用し、継続的な成果を上げるためのノウハウをお伝えします。​</p>

<h3>14:50-15:15　|　インサイドセールスで実現する、「ゼロから質の高いリード獲得への道標」大公開</h3>

<p>ビズブースト株式会社</p>

<p>綾野 圭一</p>

<p>リードの数は増えているのに、商談につながらない…。そんな課題を感じていませんか？</p>

<p>広告、SEO、ウェビナーなど、BtoBマーケティングの手法は多様化する一方で、「リードの質」に悩む企業が増えています。</p>

<p>今回はインサイドセールスを活用し購買活動につながる見込客情報の濃さを追求した『マーケティングリード獲得施策』をご紹介します。</p>

<h3>15:15-15:20　|　エンディング</h3>

<h1>登壇者 (登壇順)</h1>

<p><img src=""https://majisemi.com/service/wp-content/uploads/2024/04/20240514speaker_1.png"" alt=""speaker01.png""></p>

<p>マジセミ株式会社</p>

<p>代表取締役　寺田 雄一</p>

<p>ウェビナー（Webセミナー）の集客・運営サービス「マジセミ」を起業、代表取締役社長。ITやものづくり関連のウェビナーを年間1,200回運営。野村総合研究所（NRI）出身。NRIでは社内ベンチャーとして、当時国内トップシェアであるオープンソース・サポートサービス「OpenStandia」を起業。その後、マジセミやクラウドID管理サービス「Keyspider」など次々と新規事業を創出する、50代起業家。</p>

<p><img src=""https://majisemi.com/service/wp-content/uploads/2025/05/%E7%99%BB%E5%A3%87%E8%80%85%E5%86%99%E7%9C%9F_No2_%E3%82%A2%E3%82%B8%E3%82%BF%E3%82%B9_%E5%B1%B1%E4%B8%8B%E8%88%AA%E5%B8%8C%E6%A7%98.png"" alt=""speaker02.png""></p>

<p>株式会社アジタス</p>

<p>コンサルティング</p>

<p>事業部長　山下 航希</p>

<p>コンテンツマーケティングを中心に、営業成果に繋がるリード獲得と営業体制のDXコンサルティングを推進。エンタープライズ企業のマーケティング体制整備に実績あり。</p>

<p><img src=""https://majisemi.com/service/wp-content/uploads/2025/05/%E7%99%BB%E5%A3%87%E8%80%85%E5%86%99%E7%9C%9F_No3_%E3%82%AA%E3%83%B3%E3%83%AA%E3%83%BC%E3%82%B9%E3%83%88%E3%83%BC%E3%83%AA%E3%83%BC_%E5%B9%B3%E9%87%8E%E6%A7%98.png"" alt=""speaker03.png""></p>

<p>株式会社オンリーストーリー</p>

<p>代表取締役</p>

<p>平野 哲也</p>

<p>1990年神奈川生まれ。​</p>

<p>父も叔父も近所も経営者という環境で生まれ育つ。​</p>

<p>2013年早稲田大学政治経済学部卒業。 ​</p>

<p>2014年2月株式会社オンリーストーリー設立。 ​</p>

<p>国内最大規模、審査通過済み7,000人の決裁者マッチングプラットフォーム運営。</p>

<p>累計約26億円の資金調達実施。</p>

<p><img src=""https://majisemi.com/service/wp-content/uploads/2025/05/%E7%99%BB%E5%A3%87%E8%80%85%E5%86%99%E7%9C%9F_No4_%E3%83%99%E3%83%BC%E3%82%B7%E3%83%83%E3%82%AF_%E8%8F%8A%E6%B1%A0%E8%B2%B4%E8%A1%8C%E6%A7%98.png"" alt=""speaker04.png""></p>

<p>株式会社ベーシック</p>

<p>SLG事業部　ferret マーケティング部 </p>

<p>リーダー　菊池 貴行</p>

<p>金融機関、メディア運営会社を経て2018年より株式会社ベーシックへ入社。</p>

<p>ferret Oneカスタマーサクセス部にて、オンボーディングチーム立ち上げメンバーとして活躍し、顧客の「BtoBマーケティング」の立ち上げ支援を行い、担当社数は累計120社以上。</p>

<p>製造業・ITサービス・コンサルティングサービスなど、有形から無形の幅広い業界の企業に対して、各社の事業理解から組織状態など踏まえた顧客に寄り添った戦略設計や施策の設計などマーケティング支援を行う。</p>

<p>現在はマーケティング部にてセミナーの企画から講師を担当し、これまでに支援してきた豊富な経験をもとにした、実務に使えるセミナー内容に定評がある。</p>

<p><img src=""https://majisemi.com/service/wp-content/uploads/2025/05/%E7%99%BB%E5%A3%87%E8%80%85%E5%86%99%E7%9C%9F_NO5_PLAINER_%E9%98%BF%E4%B9%85%E6%B4%A5-%E5%8D%93%E5%93%89%E6%A7%98.png"" alt=""speaker05.png""></p>

<p>PLAINER株式会社</p>

<p>事業開発　阿久津 卓哉</p>

<p>新卒で株式会社東日本銀行に入行し、企業開拓専担者として法人新規開拓や融資提案営業に従事。 </p>

<p>その後株式会社favyにてデジタルマーケティングやコンサルティング、新規事業開発に携わる。</p>

<p>株式会社Rocketsでは、セールスエンゲージメントSaaS「LEADPAD」をローンチして、グロースを経験。</p>

<p>執行役員COOとしてビジネスサイドを統括。2025年4月にPLAINERにジョイン。ウェビナーやイベントの登壇も多数。</p>

<p><img src=""https://majisemi.com/service/wp-content/uploads/2025/05/%E7%99%BB%E5%A3%87%E8%80%85%E5%86%99%E7%9C%9F_No6_immedio_%E6%B5%9C%E7%94%B0%E6%A7%98.png"" alt=""speaker06.png""></p>

<p>株式会社immedio</p>

<p>代表取締役　浜田 英揮</p>

<p>新卒入社した三井物産では主にIT分野での新規事業を担当。Harvard Business School留学後、M&amp;A推進室にて幅広い事業分野の投資案件の実行に当たる。2016年にbitFlyerに参画し、US拠点でCFO/現地拠点長を務める。2019年からはSansanに参画し、Bill Oneのプロダクトマーケティング及びインサイドセールス部門のマネジメントを担当。2022年にimmedioを創業。ICC京都2023 SaaS Catapult2位入賞、東洋経済「すごいベンチャー100 2023」選出。</p>

<p><img src=""https://majisemi.com/service/wp-content/uploads/2025/05/%E7%99%BB%E5%A3%87%E8%80%85%E5%86%99%E7%9C%9F_No8_AdAI_eto%E6%A7%98_profile.png"" alt=""speaker07.png""></p>

<p>株式会社AdAI</p>

<p>代表取締役CEO　江藤 久昌 </p>

<p>GMOインターネット株式会社に入社後、主にデジタル広告の営業と運用に従事。その後株式会社マスタープログレスを創業メンバーとして起業しCOOに就任。中小企業をターゲットとした広告代理事業を展開し取引実績1000社以上。その後、株式会社AdAIを設立しCEOに就任。ウェビナー事業とAI事業を中心に展開。2023年1月にウェビナー事業を開始し、これまでのウェビナー運営実績は200本以上。</p>

<p><img src=""https://majisemi.com/service/wp-content/uploads/2025/05/%E7%99%BB%E5%A3%87%E8%80%85%E5%86%99%E7%9C%9F_No9_%E3%83%A9%E3%82%AF%E3%82%B9%E3%83%A9%E3%82%A4%E3%83%88%E3%82%AF%E3%83%A9%E3%82%A6%E3%83%89_%E5%B1%B1%E6%9C%AC%E6%A7%98.png"" alt=""speaker08.png""></p>

<p>株式会社ラクスライトクラウド</p>

<p>イベントマーケティング</p>

<p>リーダー　山本 恭平</p>

<p>株式会社ラクスライトクラウドへ入社し、メール配信システム「ブラストメール」のイベントマーケティングを担当。メールマーケティングの効果を追求し累計300通以上のメルマガを配信、メルマガ経由で5,000人以上のセミナー参加者を集めることに成功。この経験をもとに得たノウハウを広めるため、毎月6本以上のセミナーに登壇している。</p>

<p><img src=""https://majisemi.com/service/wp-content/uploads/2025/05/%E7%99%BB%E5%A3%87%E8%80%85%E5%86%99%E7%9C%9F_No10_Exkey_%E5%86%85%E7%94%B0%E6%A7%98.png"" alt=""speaker09.png""></p>

<p>株式会社Exkey</p>

<p>取締役副社長　内田 健人 </p>

<p>大学卒業後、総合人材会社にて人材コンサルタントとして3年クライアントの採用課題解決に従事。</p>

<p>拠点長としての経験より組織・拠点としての事業成果改善に貢献。</p>

<p>その後株式会社ExKeyを共同創業。</p>

<p>中小から大手企業に対しデジタルマーケティング支援による売上改善を行う。</p>

<p>“デジタル・AIで顧客の事業成果を最大化する”をミッションに、表面的な施策の実行にとどまらず、戦略から改善まで事業成果ベースでの結果を最大化する支援にコミット。</p>

<p><img src=""https://majisemi.com/service/wp-content/uploads/2025/05/%E7%99%BB%E5%A3%87%E8%80%85%E5%86%99%E7%9C%9F_No11_Kaizen-Platform_%E7%9F%A2%E5%B4%8E%E6%A7%98.png"" alt=""speaker10.png""></p>

<p>株式会社Kaizen Platform</p>

<p>プロフェッショナルソリューション部</p>

<p>部長　矢崎 泰三</p>

<p>ネット広告業界にて、媒体/代理店等の立ち位置から、商品企画/制作/運用/基盤構築など幅広く活動してきた。</p>

<p>Kaizenでは、カスタマーサクセスとして、多くの企業のページや動画Creativeの改善提案〜実行までを顧客/代理店と伴走する傍ら、クリエイターサイドの責任者として、人材の発掘や育成のサポートにも従事してきた。</p>

<p>2021年からKAIZEN Schoolの校長を拝命。</p>

<p>現在は、集客事業の責任者を経て、商品部の部長として、提供価値の最大化に取り組んでいる。</p>

<p><img src=""https://majisemi.com/service/wp-content/uploads/2025/02/%E9%9B%86%E5%AE%A2%E3%83%9A%E3%83%BC%E3%82%B8%E7%94%A8%E7%99%BB%E5%A3%87%E8%80%85%E5%86%99%E7%9C%9F_no6_%E3%83%A6%E3%83%BC%E3%82%BD%E3%83%8A%E3%83%BC_%E4%B8%AD%E5%B7%9D%E6%A7%98.png"" alt=""speaker11.png""></p>

<p>ビズブースト株式会社</p>

<p>インサイドセールスグループ</p>

<p>グループリーダー　綾野 圭一</p>

<p>​約20年にわたり、メーカーやスタートアップ企業でBtoB・BtoC問わず多様な営業に従事。</p>

<p>2018年にビズブーストに参画後は、IT企業向けにコンテンツ制作、LP制作、デジタル広告、インサイドセールスなど幅広いデジタルマーケティング全般の支援に加えて、インサイドセールス代行や自走（インハウス）支援に従事。</p>

<p>　</p>

<h1>主催</h1>

<p>マジセミ株式会社（<a href=""https://majisemi.com/service/privacy/"" rel=""nofollow"">プライバシーポリシー</a>）</p>

<h1>協力</h1>

<p>株式会社オープンソース活用研究所（<a href=""https://osslabo.com/privacy"" rel=""nofollow"">プライバシーポリシー</a>）</p>

<p>マジセミ株式会社（<a href=""https://majisemi.com/service/privacy/"" rel=""nofollow"">プライバシーポリシー</a>）</p>

<p>※共催、協賛、協力、講演企業は将来的に追加、削除される可能性があります。</p>

<h1>当日会場アクセスに関するお問合せ</h1>

<p><a href=""mailto:zoom@osslabo.com"" rel=""nofollow"">zoom@osslabo.com</a></p>

<h1>セミナー事務局</h1>

<p>マジセミ株式会社（<a href=""https://majisemi.com/service/privacy"" rel=""nofollow"">プライバシーポリシー</a>）<br>
<img src=""https://majisemi.com/e/checker.gif"" width=""1px""></p>

<p>※以下の方について、当社判断によりご参加をご遠慮いただく場合がございます。予めご了承ください。</p>

<p>・講演企業の競合となる商品・サービスを提供している企業、同業の企業、及びそのグループ企業・関連企業の方<br>
・個人や個人事業主の方<br>
・海外から参加される方<br>
・日本に活動拠点が無い企業の方<br>
・その他、弊社及び講演企業が不適切と判断した企業・個人の方</p>

<p>※申込が多数の場合、弊社抽選にてご参加をご遠慮いただく場合がございますので、予めご了承ください。</p>

<p>当社では、本フォームから取得する個人情報を下記の通り取扱います。<br>
下記をご一読いただき、ご同意の上で送信してください。</p>

<h3>１．個人情報の利用目的</h3>

<p>本フォームからのお申込みにあたりご提供頂く個人情報は、以下の目的で利用いたします。<br>
・主催、共催、協賛、協力するセミナーや展示会、イベントにおける参加者管理業務のため<br>
・当社が主催、共催、協賛、協力する資料閲覧サービスや動画視聴サービスにおける資料閲覧・動画視聴サービスのご提供、並びに申込者管理のため<br>
・メルマガ配信のため</p>

<h3>２．個人情報保護管理者の氏名又は職名、所属及び連絡先</h3>

<p>管理部 個人情報保護管理担当者<br>
TEL: 03-6721-8548　e-mail: <a href=""mailto:info@osslabo.com"" rel=""nofollow"">info@osslabo.com</a></p>

<h3>３．個人情報の第三者提供について</h3>

<p>当社は、本フォームから取得する個人情報をオープンソース活用研究所、及び、本セミナーの主催・共催・協賛・協力・講演の各企業へ提供します。<br>
(1)第三者に提供する目的：各社のサービス、製品、セミナー、イベントなどのご案内のため、各社のメルマガ登録のため<br>
(2)提供する個人情報の項目：氏名、所属会社名、メールアドレス、電話番号、部署・役職、年代、アンケートへの回答内容<br>
(3)提供の手段又は方法：暗号化したWebを経由して送信<br>
(4)当該情報の提供を受ける者又は提供を受ける者の事業者の種類、及び属性：主催・共催・協賛・協力・講演企業<br>
(5)個人情報の取扱いに関する契約がある場合はその旨：当社サービス利用約款による</p>

<h3>４．個人情報の委託について</h3>

<p>ご提供頂く個人情報は、利用目的の範囲内でその取扱いの一部又は全部を外部事業者に委託する場合がございます。その場合は、委託した個人情報の安全管理が図られるように、委託をする各社が定めた基準を満たす委託先を選定し、委託先に対して必要かつ適切な監督を行います。</p>

<h3>５．開示等のご請求に関しまして</h3>

<p>当社は、本お申込みフォームから取得する個人情報に関し、保有個人データ又は第三者提供記録に関するご本人又はその代理人からの利用目的の通知、開示、内容の訂正、追加又は削除、利用の停止、消去及び第三者への提供の停止等、並びに第三者提供記録の開示のご請求(以下、「開示等のご請求」といいます)に応じます。<br>
開示等のご請求に関しましては、下記「個人情報の取扱いに関するお問合せ先 」までお申し出ください。<br>
なお、提供先である株式会社オープンソース活用研究所及び主催・共催・協賛・協力・講演企業のご請求窓口等は、各社のプライバシーポリシーを御覧ください。</p>

<h3>６．個人情報のご提供の任意性について</h3>

<p>当社に個人情報をご提供頂くことは、ご本人様の任意です。ただし、必須項目に設定する情報をご提供頂けない場合、及びご入力頂いた内容が正確でない場合には、本セミナーにお申込みができない場合がございますのでご了承ください。</p>

<h3>７．本人が容易に知覚できない方法による個人情報の取得について</h3>

<p>当社が運営するウェブサイトでは、ユーザビリティ確保のためにCookie情報を取得しておりますが、当該情報を特定の個人を識別して利用することはございません。</p>

<h3>８．個人情報の取扱いに関するお問合せ先</h3>

<p>当社の個人情報の取扱いに関するお問合せ、苦情及び相談につきましては、以下にお申し出ください。<br>
管理部 個人情報保護管理担当者<br>
TEL: 03-6721-8548　e-mail: <a href=""mailto:info@osslabo.com"" rel=""nofollow"">info@osslabo.com</a></p>",,,Doorkeeper Events API,Doorkeeper Events API,,184788.0,2025-06-24T01:00:00.000Z,2025-06-24T06:20:00.000Z,,2025-05-21T03:44:09.424Z,2025-05-21T03:44:09.430Z,11927.0,https://doorkeeper.jp/rails/active_storage/representations/proxy/eyJfcmFpbHMiOnsibWVzc2FnZSI6IkJBaHBBeHdDQnc9PSIsImV4cCI6bnVsbCwicHVyIjoiYmxvYl9pZCJ9fQ==--7abffd92a264264f2ed1151521e83f55f3c8c440/eyJfcmFpbHMiOnsibWVzc2FnZSI6IkJBaDdCem9MWm05eWJXRjBTU0lJYW5CbkJqb0dSVlE2RkhKbGMybDZaVjkwYjE5c2FXMXBkRnNIYVFMb0F6QT0iLCJleHAiOm51bGwsInB1ciI6InZhcmlhdGlvbiJ9fQ==--8ce6569ce3b1f779d3cfcdbb6038d926ad4475c7/banner.jpg,https://majisemi-sales.doorkeeper.jp/events/184788,0.0,0.0,0.0,,,https://api.doorkeeper.jp/events,
74,https://centered.doorkeeper.jp/events/184532,SEO対策基本の教科書,2025-05-27T04:00:00.000Z,"<p><img src=""https://centered.doorkeeper.jp/files/b8863f96b5c5b83bb33e30249c6cfc05f587ab6c/250512.jpg"" alt=""250512.jpg""></p>

<h3>セミナー概要（当ウェビナーで得られること）</h3>

<p>「Webサイトの集客が伸び悩んでいる…」<br>
「SEO対策、何から手をつければいいのか分からない…」</p>

<p>そんなお悩みをお持ちではありませんか？</p>

<p>SEOはWebマーケティングの土台となる施策ですが、<br>
全体像や優先順位を正しく理解しないまま始めると、思うような成果につながりません。</p>

<p>今回のセミナーではSEOの基本的な考え方から、<br>
実務に活かせる内部対策・コンテンツ施策の進め方まで、初心者の方でも理解しやすく体系的に解説します。</p>

<p>当ウェビナーでは、<br>
・SEO対策の全体像と取り組むべき理由の理解<br>
・現状把握のための自社分析・競合分析の進め方<br>
・成果につながるキーワード選定と設計のポイント<br>
・内部対策・コンテンツ制作による検索順位向上の手法<br>
・UI/UX改善や継続的なPDCAによる効果最大化の考え方<br>
など、SEO対策の基本から実践的な進め方までを、初心者にもわかりやすく解説します。</p>

<h3>こんな方におすすめ</h3>

<p>・SEO対策を始めたい方<br>
・SEO対策を始めているが部分的な知識しかない方<br>
・自社サイトの集客を増やしたい方<br>
・検索エンジンで上位表示させたい方<br>
・自社サイトでのお問い合わせや購入を増やしたい方</p>

<h3>セミナー内容</h3>

<p>■SEO対策とは？<br>
■自社分析 / 競合分析による現状の把握<br>
■キーワード選定<br>
■SEO対策の方法について<br>
■具体的SEO対策の手法：内部対策<br>
■具体的SEO対策の手法：コンテンツ制作<br>
■UI/UXの重要性<br>
■継続的PDCAの重要性<br>
■センタードのSEOコンサルティングについて</p>

<h3>センタードについて</h3>

<p>弊社は貴社ネットビジネスの改善を目指すWEBマーケティングカンパニーとして、<br>
「SEO対策」や「WEB広告」での集客から「WEBサイト制作」までをご提供しています。<br>
WEBに関するお悩みがあれば、ワンストップでご対応させていただきます。<br>
WEBマーケティングでお困りのことがございましたら、お気軽にご相談くださいませ。</p>",,,Doorkeeper Events API,Doorkeeper Events API,,184532.0,2025-05-27T04:00:00.000Z,2025-05-27T05:00:00.000Z,,2025-05-21T03:33:30.538Z,2025-05-21T03:33:30.542Z,12651.0,https://doorkeeper.jp/rails/active_storage/representations/proxy/eyJfcmFpbHMiOnsibWVzc2FnZSI6IkJBaHBBekw4Qmc9PSIsImV4cCI6bnVsbCwicHVyIjoiYmxvYl9pZCJ9fQ==--a2d5a89c0daee949a4006ab07546cefab6901173/eyJfcmFpbHMiOnsibWVzc2FnZSI6IkJBaDdCem9MWm05eWJXRjBTU0lJYW5CbkJqb0dSVlE2RkhKbGMybDZaVjkwYjE5c2FXMXBkRnNIYVFMb0F6QT0iLCJleHAiOm51bGwsInB1ciI6InZhcmlhdGlvbiJ9fQ==--8ce6569ce3b1f779d3cfcdbb6038d926ad4475c7/250512.jpg,https://centered.doorkeeper.jp/events/184532,0.0,0.0,,,,https://api.doorkeeper.jp/events,
75,https://majisemi-idaas.doorkeeper.jp/events/184783,（クエスト・ソフトウェア） 【ユーザ企業向け】大規模Active Directory環境の移行、成功のカギはこれだ ～業務を止めずに進める実践ノウハウ～,2025-06-12T01:00:00.000Z,"<h2>当お申込ページは クエスト・ソフトウェア 経由の方向けの お申込みページです。</h2>

<p>一般の方は<a href=""https://majisemi.com/e/rep/quest-20250612"" rel=""nofollow"">こちらから</a>お申し込みください。</p>

<h1>本セミナーはWebセミナーです</h1>

<p>ツールはZoomを使います。URLは直前にメールにてご連絡いたします。</p>

<p>なお、「osslabo.com」「majisemi.com」からのメールが迷惑メールとならないよう、メールの設定をご確認ください。</p>

<p>IT企業様を対象とした「Active Directory移行セミナー」は、7月8日（火）15:00～16:00に開催を予定しております。</p>

<p>該当される方は、ぜひそちらのセミナーへのご参加をご検討ください。</p>

<h1>Active Directory移行でお悩みの方へ</h1>

<p>本セミナーでは、下記の課題に対して「ゼロダウンタイム」で移行を実現する方法をご紹介します。</p>

<p>・組織変更やM&amp;Aで、複数のADを統合・整理したい</p>

<p>・古くなったサーバーや機器をリプレイスするタイミングがきている</p>

<p>・Microsoft 365の導入やクラウド移行を進めたい</p>

<p>・セキュリティ強化やポリシーの見直しが必要</p>

<p>・利用者やデータが増え、ADの管理が煩雑になってきた</p>

<h1>サーバEOLや企業統廃合、セキュリティ強化がAD再編の契機に</h1>

<p>企業のITインフラを支えるActive Directory（AD）は、近年その再編や統合が求められる局面が増えています。サーバの老朽化やサポート終了（EOL）、グループ会社の合併・分割といった組織再編、さらにはゼロトラスト実現に向けたセキュリティ強化などが、AD見直しのきっかけとなっています。こうした背景を受けて多くの企業がAD再編に乗り出していますが、その検討には手間やリスクも伴うため、慎重な判断が求められています。</p>

<h1>AD移行は業務停止や複雑な手順が伴い、現場の負担が大きい</h1>

<p>ADの統合や移行は、業務システムやユーザー認証と密接に連携しているがゆえに、移行中の業務影響やダウンタイムの発生が懸念されます。特に大規模環境では、現行構成の可視化や依存関係の洗い出し、スクリプト作成や手動作業の煩雑さなど、IT部門にかかる負担は計り知れません。結果として、プロジェクトが先送りされるケースも少なくありません。</p>

<h1>業務影響を最小限に抑えた効率的なAD統合・移行手法を紹介</h1>

<p>本セミナーでは、業務停止のリスクを抑えながら、大規模なAD環境の統合・移行を効率的に進める手法をご紹介します。具体的にはMicrosoft推奨の「Quest Migrator Pro for Active Directory」を活用をケースに解説します。ツールによる自動化と綿密な移行計画により、移行の全体像を可視化し、段階的かつ安全にプロジェクトを遂行する方法を事例を交えて学ぶことが可能です。</p>

<h1>プログラム</h1>

<h2>09:45～10:00　受付</h2>

<h2>10:00～10:05　オープニング（マジセミ）</h2>

<h2>10:05～10:35　【クエスト・ソフトウェア講演】大規模Active Directory環境の移行、成功のカギはこれだ　～業務を止めずに進める実践ノウハウ～</h2>

<h2>10:35～10:55   【東芝デジタルエンジニアリング講演】現場に寄り添うIT移行支援 ― AD統合・クラウド移行のリアルと成功の勘所</h2>

<h2>10:55～11:00　質疑応答</h2>

<h1>主催・共催</h1>

<p>クエスト・ソフトウェア株式会社（<a href=""https://www.quest.com/jp-ja/legal/privacy.aspx"" rel=""nofollow"">プライバシーポリシー</a>）</p>

<p>東芝デジタルエンジニアリング株式会社（<a href=""https://www.toshiba-tden.co.jp/privacy/index_j.htm"" rel=""nofollow"">プライバシーポリシー</a>）</p>

<h1>協力</h1>

<p>株式会社オープンソース活用研究所（<a href=""https://osslabo.com/privacy"" rel=""nofollow"">プライバシーポリシー</a>）</p>

<p>マジセミ株式会社（<a href=""https://majisemi.com/service/privacy/"" rel=""nofollow"">プライバシーポリシー</a>）</p>

<p>※共催、協賛、協力、講演企業は将来的に追加、削除される可能性があります。</p>

<h1>当日会場アクセスに関するお問合せ</h1>

<p><a href=""mailto:zoom@osslabo.com"" rel=""nofollow"">zoom@osslabo.com</a></p>

<h1>セミナー事務局</h1>

<p>マジセミ株式会社（<a href=""https://majisemi.com/service/privacy"" rel=""nofollow"">プライバシーポリシー</a>）<br>
<img src=""https://majisemi.com/e/checker.gif"" width=""1px""></p>

<p>※以下の方について、当社判断によりご参加をご遠慮いただく場合がございます。予めご了承ください。</p>

<p>・講演企業の競合となる商品・サービスを提供している企業、同業の企業、及びそのグループ企業・関連企業の方<br>
・個人や個人事業主の方<br>
・海外から参加される方<br>
・日本に活動拠点が無い企業の方<br>
・その他、弊社及び講演企業が不適切と判断した企業・個人の方</p>

<p>※申込が多数の場合、弊社抽選にてご参加をご遠慮いただく場合がございますので、予めご了承ください。</p>

<p>当社では、本フォームから取得する個人情報を下記の通り取扱います。<br>
下記をご一読いただき、ご同意の上で送信してください。</p>

<h3>１．個人情報の利用目的</h3>

<p>本フォームからのお申込みにあたりご提供頂く個人情報は、以下の目的で利用いたします。<br>
・主催、共催、協賛、協力するセミナーや展示会、イベントにおける参加者管理業務のため<br>
・当社が主催、共催、協賛、協力する資料閲覧サービスや動画視聴サービスにおける資料閲覧・動画視聴サービスのご提供、並びに申込者管理のため<br>
・メルマガ配信のため</p>

<h3>２．個人情報保護管理者の氏名又は職名、所属及び連絡先</h3>

<p>管理部 個人情報保護管理担当者<br>
TEL: 03-6721-8548　e-mail: <a href=""mailto:info@osslabo.com"" rel=""nofollow"">info@osslabo.com</a></p>

<h3>３．個人情報の第三者提供について</h3>

<p>当社は、本フォームから取得する個人情報をオープンソース活用研究所、及び、本セミナーの主催・共催・協賛・協力・講演の各企業へ提供します。<br>
(1)第三者に提供する目的：各社のサービス、製品、セミナー、イベントなどのご案内のため、各社のメルマガ登録のため<br>
(2)提供する個人情報の項目：氏名、所属会社名、メールアドレス、電話番号、部署・役職、年代、アンケートへの回答内容<br>
(3)提供の手段又は方法：暗号化したWebを経由して送信<br>
(4)当該情報の提供を受ける者又は提供を受ける者の事業者の種類、及び属性：主催・共催・協賛・協力・講演企業<br>
(5)個人情報の取扱いに関する契約がある場合はその旨：当社サービス利用約款による</p>

<h3>４．個人情報の委託について</h3>

<p>ご提供頂く個人情報は、利用目的の範囲内でその取扱いの一部又は全部を外部事業者に委託する場合がございます。その場合は、委託した個人情報の安全管理が図られるように、委託をする各社が定めた基準を満たす委託先を選定し、委託先に対して必要かつ適切な監督を行います。</p>

<h3>５．開示等のご請求に関しまして</h3>

<p>当社は、本お申込みフォームから取得する個人情報に関し、保有個人データ又は第三者提供記録に関するご本人又はその代理人からの利用目的の通知、開示、内容の訂正、追加又は削除、利用の停止、消去及び第三者への提供の停止等、並びに第三者提供記録の開示のご請求(以下、「開示等のご請求」といいます)に応じます。<br>
開示等のご請求に関しましては、下記「個人情報の取扱いに関するお問合せ先 」までお申し出ください。<br>
なお、提供先である株式会社オープンソース活用研究所及び主催・共催・協賛・協力・講演企業のご請求窓口等は、各社のプライバシーポリシーを御覧ください。</p>

<h3>６．個人情報のご提供の任意性について</h3>

<p>当社に個人情報をご提供頂くことは、ご本人様の任意です。ただし、必須項目に設定する情報をご提供頂けない場合、及びご入力頂いた内容が正確でない場合には、本セミナーにお申込みができない場合がございますのでご了承ください。</p>

<h3>７．本人が容易に知覚できない方法による個人情報の取得について</h3>

<p>当社が運営するウェブサイトでは、ユーザビリティ確保のためにCookie情報を取得しておりますが、当該情報を特定の個人を識別して利用することはございません。</p>

<h3>８．個人情報の取扱いに関するお問合せ先</h3>

<p>当社の個人情報の取扱いに関するお問合せ、苦情及び相談につきましては、以下にお申し出ください。<br>
管理部 個人情報保護管理担当者<br>
TEL: 03-6721-8548　e-mail: <a href=""mailto:info@osslabo.com"" rel=""nofollow"">info@osslabo.com</a></p>",,,Doorkeeper Events API,Doorkeeper Events API,,184783.0,2025-06-12T01:00:00.000Z,2025-06-12T02:00:00.000Z,,2025-05-21T03:16:15.413Z,2025-05-21T03:16:15.418Z,11925.0,https://doorkeeper.jp/rails/active_storage/representations/proxy/eyJfcmFpbHMiOnsibWVzc2FnZSI6IkJBaHBBeFlDQnc9PSIsImV4cCI6bnVsbCwicHVyIjoiYmxvYl9pZCJ9fQ==--ffc6250dd586e216a177a8cb4eae7e435b8f58b0/eyJfcmFpbHMiOnsibWVzc2FnZSI6IkJBaDdCem9MWm05eWJXRjBTU0lJYW5CbkJqb0dSVlE2RkhKbGMybDZaVjkwYjE5c2FXMXBkRnNIYVFMb0F6QT0iLCJleHAiOm51bGwsInB1ciI6InZhcmlhdGlvbiJ9fQ==--8ce6569ce3b1f779d3cfcdbb6038d926ad4475c7/20250612_quest_bannerD.jpg,https://majisemi-idaas.doorkeeper.jp/events/184783,0.0,0.0,30.0,,,https://api.doorkeeper.jp/events,
76,https://majisemi-idaas.doorkeeper.jp/events/184784,（東芝デジタルエンジニアリング） 【ユーザ企業向け】大規模Active Directory環境の移行、成功のカギはこれだ ～業務を止めずに進める実践ノウハウ～,2025-06-12T01:00:00.000Z,"<h2>当お申込ページは 東芝デジタルエンジニアリング 経由の方向けの お申込みページです。</h2>

<p>一般の方は<a href=""https://majisemi.com/e/rep/quest-20250612"" rel=""nofollow"">こちらから</a>お申し込みください。</p>

<h1>本セミナーはWebセミナーです</h1>

<p>ツールはZoomを使います。URLは直前にメールにてご連絡いたします。</p>

<p>なお、「osslabo.com」「majisemi.com」からのメールが迷惑メールとならないよう、メールの設定をご確認ください。</p>

<p>IT企業様を対象とした「Active Directory移行セミナー」は、7月8日（火）15:00～16:00に開催を予定しております。</p>

<p>該当される方は、ぜひそちらのセミナーへのご参加をご検討ください。</p>

<h1>Active Directory移行でお悩みの方へ</h1>

<p>本セミナーでは、下記の課題に対して「ゼロダウンタイム」で移行を実現する方法をご紹介します。</p>

<p>・組織変更やM&amp;Aで、複数のADを統合・整理したい</p>

<p>・古くなったサーバーや機器をリプレイスするタイミングがきている</p>

<p>・Microsoft 365の導入やクラウド移行を進めたい</p>

<p>・セキュリティ強化やポリシーの見直しが必要</p>

<p>・利用者やデータが増え、ADの管理が煩雑になってきた</p>

<h1>サーバEOLや企業統廃合、セキュリティ強化がAD再編の契機に</h1>

<p>企業のITインフラを支えるActive Directory（AD）は、近年その再編や統合が求められる局面が増えています。サーバの老朽化やサポート終了（EOL）、グループ会社の合併・分割といった組織再編、さらにはゼロトラスト実現に向けたセキュリティ強化などが、AD見直しのきっかけとなっています。こうした背景を受けて多くの企業がAD再編に乗り出していますが、その検討には手間やリスクも伴うため、慎重な判断が求められています。</p>

<h1>AD移行は業務停止や複雑な手順が伴い、現場の負担が大きい</h1>

<p>ADの統合や移行は、業務システムやユーザー認証と密接に連携しているがゆえに、移行中の業務影響やダウンタイムの発生が懸念されます。特に大規模環境では、現行構成の可視化や依存関係の洗い出し、スクリプト作成や手動作業の煩雑さなど、IT部門にかかる負担は計り知れません。結果として、プロジェクトが先送りされるケースも少なくありません。</p>

<h1>業務影響を最小限に抑えた効率的なAD統合・移行手法を紹介</h1>

<p>本セミナーでは、業務停止のリスクを抑えながら、大規模なAD環境の統合・移行を効率的に進める手法をご紹介します。具体的にはMicrosoft推奨の「Quest Migrator Pro for Active Directory」を活用をケースに解説します。ツールによる自動化と綿密な移行計画により、移行の全体像を可視化し、段階的かつ安全にプロジェクトを遂行する方法を事例を交えて学ぶことが可能です。</p>

<h1>プログラム</h1>

<h2>09:45～10:00　受付</h2>

<h2>10:00～10:05　オープニング（マジセミ）</h2>

<h2>10:05～10:35　【クエスト・ソフトウェア講演】大規模Active Directory環境の移行、成功のカギはこれだ　～業務を止めずに進める実践ノウハウ～</h2>

<h2>10:35～10:55   【東芝デジタルエンジニアリング講演】現場に寄り添うIT移行支援 ― AD統合・クラウド移行のリアルと成功の勘所</h2>

<h2>10:55～11:00　質疑応答</h2>

<h1>主催・共催</h1>

<p>クエスト・ソフトウェア株式会社（<a href=""https://www.quest.com/jp-ja/legal/privacy.aspx"" rel=""nofollow"">プライバシーポリシー</a>）</p>

<p>東芝デジタルエンジニアリング株式会社（<a href=""https://www.toshiba-tden.co.jp/privacy/index_j.htm"" rel=""nofollow"">プライバシーポリシー</a>）</p>

<h1>協力</h1>

<p>株式会社オープンソース活用研究所（<a href=""https://osslabo.com/privacy"" rel=""nofollow"">プライバシーポリシー</a>）</p>

<p>マジセミ株式会社（<a href=""https://majisemi.com/service/privacy/"" rel=""nofollow"">プライバシーポリシー</a>）</p>

<p>※共催、協賛、協力、講演企業は将来的に追加、削除される可能性があります。</p>

<h1>当日会場アクセスに関するお問合せ</h1>

<p><a href=""mailto:zoom@osslabo.com"" rel=""nofollow"">zoom@osslabo.com</a></p>

<h1>セミナー事務局</h1>

<p>マジセミ株式会社（<a href=""https://majisemi.com/service/privacy"" rel=""nofollow"">プライバシーポリシー</a>）<br>
<img src=""https://majisemi.com/e/checker.gif"" width=""1px""></p>

<p>※以下の方について、当社判断によりご参加をご遠慮いただく場合がございます。予めご了承ください。</p>

<p>・講演企業の競合となる商品・サービスを提供している企業、同業の企業、及びそのグループ企業・関連企業の方<br>
・個人や個人事業主の方<br>
・海外から参加される方<br>
・日本に活動拠点が無い企業の方<br>
・その他、弊社及び講演企業が不適切と判断した企業・個人の方</p>

<p>※申込が多数の場合、弊社抽選にてご参加をご遠慮いただく場合がございますので、予めご了承ください。</p>

<p>当社では、本フォームから取得する個人情報を下記の通り取扱います。<br>
下記をご一読いただき、ご同意の上で送信してください。</p>

<h3>１．個人情報の利用目的</h3>

<p>本フォームからのお申込みにあたりご提供頂く個人情報は、以下の目的で利用いたします。<br>
・主催、共催、協賛、協力するセミナーや展示会、イベントにおける参加者管理業務のため<br>
・当社が主催、共催、協賛、協力する資料閲覧サービスや動画視聴サービスにおける資料閲覧・動画視聴サービスのご提供、並びに申込者管理のため<br>
・メルマガ配信のため</p>

<h3>２．個人情報保護管理者の氏名又は職名、所属及び連絡先</h3>

<p>管理部 個人情報保護管理担当者<br>
TEL: 03-6721-8548　e-mail: <a href=""mailto:info@osslabo.com"" rel=""nofollow"">info@osslabo.com</a></p>

<h3>３．個人情報の第三者提供について</h3>

<p>当社は、本フォームから取得する個人情報をオープンソース活用研究所、及び、本セミナーの主催・共催・協賛・協力・講演の各企業へ提供します。<br>
(1)第三者に提供する目的：各社のサービス、製品、セミナー、イベントなどのご案内のため、各社のメルマガ登録のため<br>
(2)提供する個人情報の項目：氏名、所属会社名、メールアドレス、電話番号、部署・役職、年代、アンケートへの回答内容<br>
(3)提供の手段又は方法：暗号化したWebを経由して送信<br>
(4)当該情報の提供を受ける者又は提供を受ける者の事業者の種類、及び属性：主催・共催・協賛・協力・講演企業<br>
(5)個人情報の取扱いに関する契約がある場合はその旨：当社サービス利用約款による</p>

<h3>４．個人情報の委託について</h3>

<p>ご提供頂く個人情報は、利用目的の範囲内でその取扱いの一部又は全部を外部事業者に委託する場合がございます。その場合は、委託した個人情報の安全管理が図られるように、委託をする各社が定めた基準を満たす委託先を選定し、委託先に対して必要かつ適切な監督を行います。</p>

<h3>５．開示等のご請求に関しまして</h3>

<p>当社は、本お申込みフォームから取得する個人情報に関し、保有個人データ又は第三者提供記録に関するご本人又はその代理人からの利用目的の通知、開示、内容の訂正、追加又は削除、利用の停止、消去及び第三者への提供の停止等、並びに第三者提供記録の開示のご請求(以下、「開示等のご請求」といいます)に応じます。<br>
開示等のご請求に関しましては、下記「個人情報の取扱いに関するお問合せ先 」までお申し出ください。<br>
なお、提供先である株式会社オープンソース活用研究所及び主催・共催・協賛・協力・講演企業のご請求窓口等は、各社のプライバシーポリシーを御覧ください。</p>

<h3>６．個人情報のご提供の任意性について</h3>

<p>当社に個人情報をご提供頂くことは、ご本人様の任意です。ただし、必須項目に設定する情報をご提供頂けない場合、及びご入力頂いた内容が正確でない場合には、本セミナーにお申込みができない場合がございますのでご了承ください。</p>

<h3>７．本人が容易に知覚できない方法による個人情報の取得について</h3>

<p>当社が運営するウェブサイトでは、ユーザビリティ確保のためにCookie情報を取得しておりますが、当該情報を特定の個人を識別して利用することはございません。</p>

<h3>８．個人情報の取扱いに関するお問合せ先</h3>

<p>当社の個人情報の取扱いに関するお問合せ、苦情及び相談につきましては、以下にお申し出ください。<br>
管理部 個人情報保護管理担当者<br>
TEL: 03-6721-8548　e-mail: <a href=""mailto:info@osslabo.com"" rel=""nofollow"">info@osslabo.com</a></p>",,,Doorkeeper Events API,Doorkeeper Events API,,184784.0,2025-06-12T01:00:00.000Z,2025-06-12T02:00:00.000Z,,2025-05-21T03:16:10.138Z,2025-05-21T03:16:10.154Z,11925.0,https://doorkeeper.jp/rails/active_storage/representations/proxy/eyJfcmFpbHMiOnsibWVzc2FnZSI6IkJBaHBBeGNDQnc9PSIsImV4cCI6bnVsbCwicHVyIjoiYmxvYl9pZCJ9fQ==--32e9a7e7cc56e0f0c201dcbb5a908e23cc5eef46/eyJfcmFpbHMiOnsibWVzc2FnZSI6IkJBaDdCem9MWm05eWJXRjBTU0lJYW5CbkJqb0dSVlE2RkhKbGMybDZaVjkwYjE5c2FXMXBkRnNIYVFMb0F6QT0iLCJleHAiOm51bGwsInB1ciI6InZhcmlhdGlvbiJ9fQ==--8ce6569ce3b1f779d3cfcdbb6038d926ad4475c7/20250612_quest_bannerD.jpg,https://majisemi-idaas.doorkeeper.jp/events/184784,0.0,0.0,30.0,,,https://api.doorkeeper.jp/events,
77,https://majisemi-idaas.doorkeeper.jp/events/184782, 【ユーザ企業向け】大規模Active Directory環境の移行、成功のカギはこれだ ～業務を止めずに進める実践ノウハウ～,2025-06-12T01:00:00.000Z,"<h1>本セミナーはWebセミナーです</h1>

<p>ツールはZoomを使います。URLは直前にメールにてご連絡いたします。</p>

<p>なお、「osslabo.com」「majisemi.com」からのメールが迷惑メールとならないよう、メールの設定をご確認ください。</p>

<p>IT企業様を対象とした「Active Directory移行セミナー」は、7月8日（火）15:00～16:00に開催を予定しております。</p>

<p>該当される方は、ぜひそちらのセミナーへのご参加をご検討ください。</p>

<h1>Active Directory移行でお悩みの方へ</h1>

<p>本セミナーでは、下記の課題に対して「ゼロダウンタイム」で移行を実現する方法をご紹介します。</p>

<p>・組織変更やM&amp;Aで、複数のADを統合・整理したい</p>

<p>・古くなったサーバーや機器をリプレイスするタイミングがきている</p>

<p>・Microsoft 365の導入やクラウド移行を進めたい</p>

<p>・セキュリティ強化やポリシーの見直しが必要</p>

<p>・利用者やデータが増え、ADの管理が煩雑になってきた</p>

<h1>サーバEOLや企業統廃合、セキュリティ強化がAD再編の契機に</h1>

<p>企業のITインフラを支えるActive Directory（AD）は、近年その再編や統合が求められる局面が増えています。サーバの老朽化やサポート終了（EOL）、グループ会社の合併・分割といった組織再編、さらにはゼロトラスト実現に向けたセキュリティ強化などが、AD見直しのきっかけとなっています。こうした背景を受けて多くの企業がAD再編に乗り出していますが、その検討には手間やリスクも伴うため、慎重な判断が求められています。</p>

<h1>AD移行は業務停止や複雑な手順が伴い、現場の負担が大きい</h1>

<p>ADの統合や移行は、業務システムやユーザー認証と密接に連携しているがゆえに、移行中の業務影響やダウンタイムの発生が懸念されます。特に大規模環境では、現行構成の可視化や依存関係の洗い出し、スクリプト作成や手動作業の煩雑さなど、IT部門にかかる負担は計り知れません。結果として、プロジェクトが先送りされるケースも少なくありません。</p>

<h1>業務影響を最小限に抑えた効率的なAD統合・移行手法を紹介</h1>

<p>本セミナーでは、業務停止のリスクを抑えながら、大規模なAD環境の統合・移行を効率的に進める手法をご紹介します。具体的にはMicrosoft推奨の「Quest Migrator Pro for Active Directory」を活用をケースに解説します。ツールによる自動化と綿密な移行計画により、移行の全体像を可視化し、段階的かつ安全にプロジェクトを遂行する方法を事例を交えて学ぶことが可能です。</p>

<h1>プログラム</h1>

<h2>09:45～10:00　受付</h2>

<h2>10:00～10:05　オープニング（マジセミ）</h2>

<h2>10:05～10:35　【クエスト・ソフトウェア講演】大規模Active Directory環境の移行、成功のカギはこれだ　～業務を止めずに進める実践ノウハウ～</h2>

<h2>10:35～10:55   【東芝デジタルエンジニアリング講演】現場に寄り添うIT移行支援 ― AD統合・クラウド移行のリアルと成功の勘所</h2>

<h2>10:55～11:00　質疑応答</h2>

<h1>主催・共催</h1>

<p>クエスト・ソフトウェア株式会社（<a href=""https://www.quest.com/jp-ja/legal/privacy.aspx"" rel=""nofollow"">プライバシーポリシー</a>）</p>

<p>東芝デジタルエンジニアリング株式会社（<a href=""https://www.toshiba-tden.co.jp/privacy/index_j.htm"" rel=""nofollow"">プライバシーポリシー</a>）</p>

<h1>協力</h1>

<p>株式会社オープンソース活用研究所（<a href=""https://osslabo.com/privacy"" rel=""nofollow"">プライバシーポリシー</a>）</p>

<p>マジセミ株式会社（<a href=""https://majisemi.com/service/privacy/"" rel=""nofollow"">プライバシーポリシー</a>）</p>

<p>※共催、協賛、協力、講演企業は将来的に追加、削除される可能性があります。</p>

<h1>当日会場アクセスに関するお問合せ</h1>

<p><a href=""mailto:zoom@osslabo.com"" rel=""nofollow"">zoom@osslabo.com</a></p>

<h1>セミナー事務局</h1>

<p>マジセミ株式会社（<a href=""https://majisemi.com/service/privacy"" rel=""nofollow"">プライバシーポリシー</a>）<br>
<img src=""https://majisemi.com/e/checker.gif"" width=""1px""></p>

<p>※以下の方について、当社判断によりご参加をご遠慮いただく場合がございます。予めご了承ください。</p>

<p>・講演企業の競合となる商品・サービスを提供している企業、同業の企業、及びそのグループ企業・関連企業の方<br>
・個人や個人事業主の方<br>
・海外から参加される方<br>
・日本に活動拠点が無い企業の方<br>
・その他、弊社及び講演企業が不適切と判断した企業・個人の方</p>

<p>※申込が多数の場合、弊社抽選にてご参加をご遠慮いただく場合がございますので、予めご了承ください。</p>

<p>当社では、本フォームから取得する個人情報を下記の通り取扱います。<br>
下記をご一読いただき、ご同意の上で送信してください。</p>

<h3>１．個人情報の利用目的</h3>

<p>本フォームからのお申込みにあたりご提供頂く個人情報は、以下の目的で利用いたします。<br>
・主催、共催、協賛、協力するセミナーや展示会、イベントにおける参加者管理業務のため<br>
・当社が主催、共催、協賛、協力する資料閲覧サービスや動画視聴サービスにおける資料閲覧・動画視聴サービスのご提供、並びに申込者管理のため<br>
・メルマガ配信のため</p>

<h3>２．個人情報保護管理者の氏名又は職名、所属及び連絡先</h3>

<p>管理部 個人情報保護管理担当者<br>
TEL: 03-6721-8548　e-mail: <a href=""mailto:info@osslabo.com"" rel=""nofollow"">info@osslabo.com</a></p>

<h3>３．個人情報の第三者提供について</h3>

<p>当社は、本フォームから取得する個人情報をオープンソース活用研究所、及び、本セミナーの主催・共催・協賛・協力・講演の各企業へ提供します。<br>
(1)第三者に提供する目的：各社のサービス、製品、セミナー、イベントなどのご案内のため、各社のメルマガ登録のため<br>
(2)提供する個人情報の項目：氏名、所属会社名、メールアドレス、電話番号、部署・役職、年代、アンケートへの回答内容<br>
(3)提供の手段又は方法：暗号化したWebを経由して送信<br>
(4)当該情報の提供を受ける者又は提供を受ける者の事業者の種類、及び属性：主催・共催・協賛・協力・講演企業<br>
(5)個人情報の取扱いに関する契約がある場合はその旨：当社サービス利用約款による</p>

<h3>４．個人情報の委託について</h3>

<p>ご提供頂く個人情報は、利用目的の範囲内でその取扱いの一部又は全部を外部事業者に委託する場合がございます。その場合は、委託した個人情報の安全管理が図られるように、委託をする各社が定めた基準を満たす委託先を選定し、委託先に対して必要かつ適切な監督を行います。</p>

<h3>５．開示等のご請求に関しまして</h3>

<p>当社は、本お申込みフォームから取得する個人情報に関し、保有個人データ又は第三者提供記録に関するご本人又はその代理人からの利用目的の通知、開示、内容の訂正、追加又は削除、利用の停止、消去及び第三者への提供の停止等、並びに第三者提供記録の開示のご請求(以下、「開示等のご請求」といいます)に応じます。<br>
開示等のご請求に関しましては、下記「個人情報の取扱いに関するお問合せ先 」までお申し出ください。<br>
なお、提供先である株式会社オープンソース活用研究所及び主催・共催・協賛・協力・講演企業のご請求窓口等は、各社のプライバシーポリシーを御覧ください。</p>

<h3>６．個人情報のご提供の任意性について</h3>

<p>当社に個人情報をご提供頂くことは、ご本人様の任意です。ただし、必須項目に設定する情報をご提供頂けない場合、及びご入力頂いた内容が正確でない場合には、本セミナーにお申込みができない場合がございますのでご了承ください。</p>

<h3>７．本人が容易に知覚できない方法による個人情報の取得について</h3>

<p>当社が運営するウェブサイトでは、ユーザビリティ確保のためにCookie情報を取得しておりますが、当該情報を特定の個人を識別して利用することはございません。</p>

<h3>８．個人情報の取扱いに関するお問合せ先</h3>

<p>当社の個人情報の取扱いに関するお問合せ、苦情及び相談につきましては、以下にお申し出ください。<br>
管理部 個人情報保護管理担当者<br>
TEL: 03-6721-8548　e-mail: <a href=""mailto:info@osslabo.com"" rel=""nofollow"">info@osslabo.com</a></p>",,,Doorkeeper Events API,Doorkeeper Events API,,184782.0,2025-06-12T01:00:00.000Z,2025-06-12T02:00:00.000Z,,2025-05-21T03:13:49.892Z,2025-05-21T03:13:49.896Z,11925.0,https://doorkeeper.jp/rails/active_storage/representations/proxy/eyJfcmFpbHMiOnsibWVzc2FnZSI6IkJBaHBBeFVDQnc9PSIsImV4cCI6bnVsbCwicHVyIjoiYmxvYl9pZCJ9fQ==--91fea822984af96458be3607554d658c449d883d/eyJfcmFpbHMiOnsibWVzc2FnZSI6IkJBaDdCem9MWm05eWJXRjBTU0lJYW5CbkJqb0dSVlE2RkhKbGMybDZaVjkwYjE5c2FXMXBkRnNIYVFMb0F6QT0iLCJleHAiOm51bGwsInB1ciI6InZhcmlhdGlvbiJ9fQ==--8ce6569ce3b1f779d3cfcdbb6038d926ad4475c7/20250612_quest_bannerD.jpg,https://majisemi-idaas.doorkeeper.jp/events/184782,0.0,0.0,0.0,,,https://api.doorkeeper.jp/events,
78,https://majisemi-manufacturing.doorkeeper.jp/events/184781, 【激動の中堅中小製造業】企業が生き残るための“変化対応力”とは ～脱属人化から、コスト精度向上まで、次世代生産管理システムmcframeで変化に強い経営基盤を築く～,2025-06-11T06:00:00.000Z,"<h1>本セミナーはWebセミナーです</h1>

<p>ツールはZoomを使います。URLは直前にメールにてご連絡いたします。</p>

<p>なお、「osslabo.com」「majisemi.com」からのメールが迷惑メールとならないよう、メールの設定をご確認ください。</p>

<h1>激動の時代に問われる、中堅中小製造業の“変化力”</h1>

<p>関税リスク、原材料高騰、サプライチェーンの分断など、現在の製造業を取り巻く事業環境は、急速に変化し、不確実性と複雑さを増しています。</p>

<p>このように外部環境が激変する中で、特に組立加工を主とする製造業では、従来の人依存の体制から脱却し、業務プロセスの標準化を進め、変化への柔軟な対応力を高めることが、今後の持続的な成長に向けて極めて重要となっています。</p>

<h1>ノウハウを見える化し、“全体最適”な仕組みへ</h1>

<p>それでは、「現場のベテランにしか分からない」「工程や原価の管理がExcelに依存している」──こうした属人化や部分最適の課題に対し、どのように全体最適へと転換し、変化に強い経営基盤を築いていくべきなのでしょうか。</p>

<p>多くの製造現場では従来から、成果物（完成品や実績）の管理が中心とされてきました。</p>

<p>しかしながら、このような成果物重視の管理手法では、なぜそのような結果に至ったのかというプロセスや意思決定の履歴が十分に残らず、再現性や改善の視点が得られにくいという課題があります。</p>

<p>例えば、作業効率を上げるために工程の変更を検討したとしても、どのような理由や判断基準でその工程が選ばれたのか、またどのような現場の状況や関係者の判断があったのかが可視化されていなければ、改善の効果を検証したり、同様の成果を他拠点で再現したりすることが難しくなります。</p>

<p>このため、属人的なノウハウを“組織の資産”として蓄積・活用できる環境づくりが求められます。</p>

<h1>次世代生産管理システムmcframeで変化に強い経営基盤を築く</h1>

<p>本セミナーでは、組立加工業をはじめとする中堅中小製造業の皆さま向けに、次世代生産管理システム「mcframe 7」を通じて、変化に対応できる経営基盤を構築する方法について詳しく解説します。</p>

<p>「mcframe」は、製造業に特化し、日本のものづくりの強みを最大限に引き出すために開発された生産管理システムです。見込生産や受注生産など、多様な計画モデルに対応し、供給計画シミュレーションを通じて、需給バランスの最適化と柔軟な生産計画立案を可能にします。また、正式リリース間近のSaaS型生産管理システム「mcframe X」や、設計・開発部門の効率化を支援する「mcframe PLM」、経営ダッシュボードとして意思決定を支える「mcframe COCKPIT」など、製造業の“変化対応力”を支えるmcframeシリーズの全体像と導入効果についてもご紹介します。</p>

<h1>こんな人におすすめ</h1>

<p>・属人化から脱却し、業務の見える化と標準化を進めたい製造現場の責任者</p>

<p>・コスト構造を正しく把握し、原価の精度向上を図りたい経営企画・原価管理部門の方</p>

<p>・急な計画変更や需給変動にも柔軟に対応できる生産体制を構築したい工場長・生産管理担当者</p>

<p>・将来の変化にも強い、持続可能な経営基盤を築きたい経営層・DX推進リーダー</p>

<h1>プログラム</h1>

<h2>14:45～15:00　受付</h2>

<h2>15:00～15:05　オープニング（マジセミ）</h2>

<h2>15:05～15:45　【激動の中堅中小製造業】企業が生き残るための“変化対応力”とは</h2>

<h2>15:45～16:00　質疑応答</h2>

<h1>主催</h1>

<p>三菱電機デジタルイノベーション株式会社（<a href=""https://www.mitsubishielectric.co.jp/medigital/privacy/index.html"" rel=""nofollow"">プライバシーポリシー</a>）</p>

<h1>協力</h1>

<p>ビジネスエンジニアリング株式会社（<a href=""https://www.b-en-g.co.jp/jp/p-policy.html"" rel=""nofollow"">プライバシーポリシー</a>）</p>

<p>株式会社オープンソース活用研究所（<a href=""https://osslabo.com/privacy"" rel=""nofollow"">プライバシーポリシー</a>）</p>

<p>マジセミ株式会社（<a href=""https://majisemi.com/service/privacy/"" rel=""nofollow"">プライバシーポリシー</a>）</p>

<p>※共催、協賛、協力、講演企業は将来的に追加、削除される可能性があります。</p>

<h1>当日会場アクセスに関するお問合せ</h1>

<p><a href=""mailto:zoom@osslabo.com"" rel=""nofollow"">zoom@osslabo.com</a></p>

<h1>セミナー事務局</h1>

<p>マジセミ株式会社（<a href=""https://majisemi.com/service/privacy"" rel=""nofollow"">プライバシーポリシー</a>）<br>
<img src=""https://majisemi.com/e/checker.gif"" width=""1px""></p>

<p>※以下の方について、当社判断によりご参加をご遠慮いただく場合がございます。予めご了承ください。</p>

<p>・講演企業の競合となる商品・サービスを提供している企業、同業の企業、及びそのグループ企業・関連企業の方<br>
・個人や個人事業主の方<br>
・海外から参加される方<br>
・日本に活動拠点が無い企業の方<br>
・その他、弊社及び講演企業が不適切と判断した企業・個人の方</p>

<p>※申込が多数の場合、弊社抽選にてご参加をご遠慮いただく場合がございますので、予めご了承ください。</p>

<p>当社では、本フォームから取得する個人情報を下記の通り取扱います。<br>
下記をご一読いただき、ご同意の上で送信してください。</p>

<h3>１．個人情報の利用目的</h3>

<p>本フォームからのお申込みにあたりご提供頂く個人情報は、以下の目的で利用いたします。<br>
・主催、共催、協賛、協力するセミナーや展示会、イベントにおける参加者管理業務のため<br>
・当社が主催、共催、協賛、協力する資料閲覧サービスや動画視聴サービスにおける資料閲覧・動画視聴サービスのご提供、並びに申込者管理のため<br>
・メルマガ配信のため</p>

<h3>２．個人情報保護管理者の氏名又は職名、所属及び連絡先</h3>

<p>管理部 個人情報保護管理担当者<br>
TEL: 03-6721-8548　e-mail: <a href=""mailto:info@osslabo.com"" rel=""nofollow"">info@osslabo.com</a></p>

<h3>３．個人情報の第三者提供について</h3>

<p>当社は、本フォームから取得する個人情報をオープンソース活用研究所、及び、本セミナーの主催・共催・協賛・協力・講演の各企業へ提供します。<br>
(1)第三者に提供する目的：各社のサービス、製品、セミナー、イベントなどのご案内のため、各社のメルマガ登録のため<br>
(2)提供する個人情報の項目：氏名、所属会社名、メールアドレス、電話番号、部署・役職、年代、アンケートへの回答内容<br>
(3)提供の手段又は方法：暗号化したWebを経由して送信<br>
(4)当該情報の提供を受ける者又は提供を受ける者の事業者の種類、及び属性：主催・共催・協賛・協力・講演企業<br>
(5)個人情報の取扱いに関する契約がある場合はその旨：当社サービス利用約款による</p>

<h3>４．個人情報の委託について</h3>

<p>ご提供頂く個人情報は、利用目的の範囲内でその取扱いの一部又は全部を外部事業者に委託する場合がございます。その場合は、委託した個人情報の安全管理が図られるように、委託をする各社が定めた基準を満たす委託先を選定し、委託先に対して必要かつ適切な監督を行います。</p>

<h3>５．開示等のご請求に関しまして</h3>

<p>当社は、本お申込みフォームから取得する個人情報に関し、保有個人データ又は第三者提供記録に関するご本人又はその代理人からの利用目的の通知、開示、内容の訂正、追加又は削除、利用の停止、消去及び第三者への提供の停止等、並びに第三者提供記録の開示のご請求(以下、「開示等のご請求」といいます)に応じます。<br>
開示等のご請求に関しましては、下記「個人情報の取扱いに関するお問合せ先 」までお申し出ください。<br>
なお、提供先である株式会社オープンソース活用研究所及び主催・共催・協賛・協力・講演企業のご請求窓口等は、各社のプライバシーポリシーを御覧ください。</p>

<h3>６．個人情報のご提供の任意性について</h3>

<p>当社に個人情報をご提供頂くことは、ご本人様の任意です。ただし、必須項目に設定する情報をご提供頂けない場合、及びご入力頂いた内容が正確でない場合には、本セミナーにお申込みができない場合がございますのでご了承ください。</p>

<h3>７．本人が容易に知覚できない方法による個人情報の取得について</h3>

<p>当社が運営するウェブサイトでは、ユーザビリティ確保のためにCookie情報を取得しておりますが、当該情報を特定の個人を識別して利用することはございません。</p>

<h3>８．個人情報の取扱いに関するお問合せ先</h3>

<p>当社の個人情報の取扱いに関するお問合せ、苦情及び相談につきましては、以下にお申し出ください。<br>
管理部 個人情報保護管理担当者<br>
TEL: 03-6721-8548　e-mail: <a href=""mailto:info@osslabo.com"" rel=""nofollow"">info@osslabo.com</a></p>",,,Doorkeeper Events API,Doorkeeper Events API,,184781.0,2025-06-11T06:00:00.000Z,2025-06-11T07:00:00.000Z,,2025-05-21T02:32:36.802Z,2025-05-21T02:32:36.807Z,11924.0,https://doorkeeper.jp/rails/active_storage/representations/proxy/eyJfcmFpbHMiOnsibWVzc2FnZSI6IkJBaHBBd2dDQnc9PSIsImV4cCI6bnVsbCwicHVyIjoiYmxvYl9pZCJ9fQ==--fdcfa2bd86368ed2cbe65c6a1c9386cdaa68f7d6/eyJfcmFpbHMiOnsibWVzc2FnZSI6IkJBaDdCem9MWm05eWJXRjBTU0lJYW5CbkJqb0dSVlE2RkhKbGMybDZaVjkwYjE5c2FXMXBkRnNIYVFMb0F6QT0iLCJleHAiOm51bGwsInB1ciI6InZhcmlhdGlvbiJ9fQ==--8ce6569ce3b1f779d3cfcdbb6038d926ad4475c7/20250611_mitsubishielectric_bannerD.jpg,https://majisemi-manufacturing.doorkeeper.jp/events/184781,0.0,0.0,0.0,,,https://api.doorkeeper.jp/events,
79,https://dxlab.doorkeeper.jp/events/184324,【県内企業対象】ふくいＤＸスクール 事業説明会【参加無料】,2025-06-04T04:30:00.000Z,"<h2 style=""border-bottom: none; font-size: 1.4em; background-color:#006AB6; color:#fff; padding: 10px 20px; border-radius: 5px;"">ふくいＤＸスクールとは</h2>

<p>「ふくいＤＸスクール」は、企業内のデジタル人材を養成するための実践的なオンライン研修です。</p>

<p>経営者から従業員まで、それぞれの課題に応じて、オンデマンド（動画）学習とライブ講義（実践ゼミ）を
組み合わせたカリキュラムで実践力を養成します。</p>

<p>また、事前スキル診断で最適なカリキュラムを提案。1社に1人、ラーニングパートナーを配置することで学習継続を伴走支援します。</p>

<h2 style=""border-bottom: none; font-size: 1.4em; background-color:#006AB6; color:#fff; padding: 10px 20px; border-radius: 5px;"">事業説明会を開催します</h2>

<p>「ふくいＤＸスクール」では、研修の内容や学習方法についての事業説明会を以下のとおり開催します。オンラインでの開催ですので、お気軽にご参加ください。</p>

<ul style=""margin-left:-1.0em;"">
<li>日　時：6月4日（水）13:30-14:30</li>
<li>形　式：オンライン形式</li>
<li>申込方法：<a href=""https://dxlab.doorkeeper.jp/events/184324"">このページから</a>事前にお申込みください</li></ul>

<p>※アーカイブを作成しますので、後日にも視聴可能です</p>

<div style=""padding:1em 1em 1em 1em; background-color:#f0f8ff;"">
<h2 style=""border-bottom: none;  margin-top:0.5em; font-size: 1.4em; background-color:#006AB6; color:#fff; padding: 10px 20px; border-radius: 5px;"">ふくいＤＸスクールの特徴</h2>
ふくいＤＸスクールの特徴は以下のとおりです。<br>
スクールの詳細およびお申込みは、公式ホームページをご覧ください。<br>
<a>－ふくいＤＸスクール 公式サイト</a>

<h3 style=""font-weight:bold; margin-top: 1em; border-bottom: none; font-size: 1.25em; background-color:rgba(0, 106, 182, .2); color:#006AB6; padding: 0.6em 0.4em 0.2em; border-bottom: 2px solid #0af; border-top-right-radius: 3px; border-top-left-radius: 3px;"">１．学習を継続できるサポート体制。学習の不安を解消</h3>

<p>「仕事に追われて学習時間がとれない」「次に何を学習すれば分からない」「途中で挫折してしまう」など、オンラインでの学習に感じる不安を解消します。</p>
<ul style=""margin-left:-1.0em;""><li>1社に1人、ラーニングパートナーを配置。学習を伴走支援</li>
<li>事前のDX基礎診断で自身のスキルを確認し面談を通じて学習計画を作成</li>
<li>隔週で定例勉強会を実施し、学びを定着・習慣化</li></ul>

<h3 style=""font-weight:bold; margin-top: 1em; border-bottom: none; font-size: 1.25em; background-color:rgba(0, 106, 182, .2); color:#006AB6; padding: 0.6em 0.4em 0.2em; border-bottom: 2px solid #0af; border-top-right-radius: 3px; border-top-left-radius: 3px;"">２．オンデマンド（動画）とライブ講義を組み合わせた学習形式</h3>

<h4 style=""color:#006AB6; "">世界最大級のオンライン動画学習プラットフォームを利用</h4>
<ul style=""margin-left:-1.0em;""><li>30,000以上の「Udemy Business」の講座から、あなたに最適なオンデマンド講座をご提案します</li>
<li>Udemy Businessは学び放題なので、30,000以上ある講座のなかから、自主学習で好きな分野を自由に学習可能です</li></ul>
<h4 style=""color:#006AB6; "">実務に直結！課題解決型実践ゼミ</h4>
<ul style=""margin-left:-1.0em;""><li>オンラインで参加できる90分×全6回のライブ講義（後日アーカイブ視聴可能）</li>
<li>課題にあわせてコースを以下の3種類から選択できます<br>
<span style=""font-weight:bold;"">【業務効率化コース】</span><br>
　業務効率化や生産性向上の方法を学び、自社における業務効率化の実践を目指すコース。業務課題の発見方法やＩＴを活用した解決策の考え方を学習します。（業務効率化に関する考え方・業務効率化ツールの知識・社内業務効率化の実現）<br>
<span style=""font-weight:bold;"">【集客・販路拡大コース】</span><br>
　SNSやWEBを活用した集客・売上向上の手法を学習するコース。デジタルツールを活用し、初心者向けWEBサイト分析・改善が可能。生成AIを活用した、集客・販路拡大を学習します。（HPサイトの改善と分析・SEO対策・SNS活用と分析）
<br>
<span style=""font-weight:bold;"">【経営戦略コース】</span><br>
　DXに必要な考え方や技術を理解し、DXを活用した中長期的な経営戦略立案を目指すコース。事例や理論を通して、基礎知識、リーダーシップや組織設計を学習します。（業界分析および自社分析能力・組織課題の整理力・中長期的なDX戦略策定能力）<br>
</li></ul>

<h2 style=""border-bottom: none;  margin-top:2em; font-size: 1.4em; background-color:#006AB6; color:#fff; padding: 10px 20px; border-radius: 5px;"">開催概要</h2>
期　間：2025年8月1日～ 2026年2月13日<br>
方　式：オンデマンド（動画）学習とライブ講義<br>
参加費：25,000円（税込み）<br>
</div>

<h4 style=""font-weight:bold; margin-top: 2em; border-bottom: none; font-size: 1.3em; background-color:rgba(255, 165, 0, .2); color:#006AB6; padding: 0.6em 0.4em 0.2em; border-bottom: 2px solid #0af; border-top-right-radius: 3px; border-top-left-radius: 3px; "">　キャンセルについて</h4>

<ul style=""margin-left:-1.0em;""><li>キャンセルされる場合は、システム上からお手続きをお願いします。主催者へのご連絡は不要です。</li>
<li>キャンセルする場合はお早めのお手続きをお願いします。</li>
<li>直前のキャンセルはできるだけお止めください。定員に限りがありますので、なるべく多くの方が参加できるようご協力をお願いします。</li></ul>

<h4 style=""font-weight:bold; margin-top: 2em; border-bottom: none; font-size: 1.3em; background-color:rgba(255, 165, 0, .2); color:#006AB6; padding: 0.6em 0.4em 0.2em; border-bottom: 2px solid #0af; border-top-right-radius: 3px; border-top-left-radius: 3px; "">　本講座の申込受付システムについて</h4>

<ul style=""margin-left:-1.0em;""><li>本講座の申込受付は、Doorkeeper株式会社のシステムを利用しています。</li>
<li>お申込みが完了すると「info@doorkeeper.jp」から受付完了メールが送信されます。
<ul><li style=""margin-left:-2.0em;"">届かない場合は迷惑メールに分類されている場合がありますのでご確認ください。</li>
<li style=""margin-left:-2.0em;"">スマートフォンのメールの場合は事前に設定を確認し「info@doorkeeper.jp」からのメールを受信できるようにしておいてください。</li></ul></li>
<li>事前の連絡メールや、講座終了後の連絡メール（フォローアップメール）なども同アドレスから送信されます。</li></ul>

<h4 style=""font-weight:bold; margin-top: 2em; border-bottom: none; font-size: 1.3em; background-color:rgba(255, 165, 0, .2); color:#006AB6; padding: 0.6em 0.4em 0.2em; border-bottom: 2px solid #0af; border-top-right-radius: 3px; border-top-left-radius: 3px; "">　その他</h4>

<ul style=""margin-left:-1.0em;""><li>当日までの間に、主催者から本講座についてメールをお送りする場合があります。当日の予定の変更など重要なお知らせをする場合がありますので、必ずご確認のうえご一読ください。</li>
<li>参加者の皆さまへのご連絡は、電子メールで行います。</li>
<li>登録内容などに変更があった場合は、システム上でご自身で変更をお願いします。主催者では対応しておりませんのでご了承ください。</li>
<li>終了時間が若干延長となる場合があります。</li>
<li>本講座の内容は都合により変更される場合があります。</li></ul>",,,Doorkeeper Events API,Doorkeeper Events API,,184324.0,2025-06-04T04:30:00.000Z,2025-06-04T05:30:00.000Z,,2025-05-21T01:34:59.100Z,2025-05-21T01:39:11.117Z,11831.0,,https://dxlab.doorkeeper.jp/events/184324,0.0,0.0,30.0,,,https://api.doorkeeper.jp/events,
80,https://bluetas.doorkeeper.jp/events/184770,10/20（月）ナポレオンヒル読書会＆勉強会【大阪梅田】,2025-10-20T10:15:00.000Z,"<p>毎回ナポレオン・ヒルの１７の原理原則の中からテーマを一つ設定し、そのテー マについて、参加者同士の意見交換や、実践による成果の発表などを行います。 <br>
堅苦しい会議や一方的なセミナー形式と違い、開かれた場でのディスカッション を中心に行いますので、楽しみながら気軽に学んでいただきつつ、人脈形成にもお役に立てていただけます。</p>

<p>≪こんな方にオススメ≫<br>
・この機会にナポレオン・ヒルを読んでみたい。<br>
・途中まで読んだものの内容が濃すぎて挫折した。<br>
・以前読んだがあらためて読み返してみようと思う。<br>
・他の人の解釈や考え方について触れたい。<br>
・内容について専門のトレーナーの解説が聞きたい。<br>
・自己啓発関連の本を最近読み始めたい。<br>
・モティベーションを高めてそれを維持したい。<br>
・意欲的な参加者と交流を深めたい。</p>

<p>■日程<br>
2025年10月20日（月）<br>
開場19：00　開始19：15</p>

<p>■参加方法<br>
<strong>会場参加</strong><br>
※参加費は会場払いとなります。</p>

<p>■場所　<br>
コワーキングスペースBlue+(ブルータス）<br>
大阪府大阪市北区芝田2-9-17 マエダビル4F<br>
<a rel=""nofollow"">06-6131-7932</a></p>

<p>■参加費<br>
1,100円（税込）<br>
※キャッシュレス決済のみとなります。（現金不可）</p>

<p>▶読書会終了後、同じ会場で懇親会があります。（参加費無料）<br>
▶食べ物・飲み物は、ご自身の分のみご準備いただければOK<br>
▶お酒とおつまみを毎回持って来る人もいますので、お気軽にご参加ください。（冷凍冷蔵庫完備）<br>
▶必要に応じて、近所のコンビニ等に食べ物・飲み物を買いに行く時間も作ります。<br>
（常連さんの中には、懇親会だけ参加する方もいます。）</p>

<p>■定員<br>
6名</p>

<p>■持ち物<br>
あれば「思考は現実化する」ナポレオン・ヒル (著)<br>
書籍をお持ちでなければ手ぶらでのご参加も可能です。<br>
※コピーをお渡しします</p>

<p>■ファシリテーター：青貝　賢（あおがい さとし）<br>
<a href=""http://dokusyokai.tsp-corp.jp/?_ga=2.93866333.1703494712.1541984885-2095457376.1510717372"" rel=""nofollow"">ファシリテーター青貝　賢について</a></p>

<p>ナポレオン・ヒル財団認定 上級指導員<br>
株式会社ティーエスピー　代表取締役社長<br>
TSPアカデミー　学長<br>
職長・安全衛生責任者教育講師<br>
逸品のAOGAIYA(ｱｵｶﾞｲﾔ）エグゼクティブバイヤー<br>
プログラマー養成促進委員会　会長</p>

<p>20歳で「思考は現実化する(ナポレオン・ヒル著)」に出会い感銘を受けて以来、何度も繰り返し集中的に読むようになる。<br>
27歳で起業後も「ナポレオン・ヒル・プログラム｣での脳力開発や速聴に没頭し、現在も継続中。<br>
経営者として日々勉強を続けながら、講師としても尽力している。</p>

<p>【参考】ナポレオン・ヒル読書会 案内サイト<br>
<a href=""http://dokusyokai.tsp-corp.jp"" rel=""nofollow"">http://dokusyokai.tsp-corp.jp</a></p>

<p><strong><span style=""color: #e40202;"">※※感染症予防対策について※※</span></strong></p>

<p>コワーキングスペースBlue+では、皆様に安心してご利用いただく為に、<br>
感染症予防として下記の対策を実施しております。</p>

<p>・出入口に消毒スプレーを設置<br>
・弱酸性次亜塩素酸入りの加湿器で部屋全体を空間除菌<br>
・スタッフの定期的な手洗い・うがい・手指消毒<br>
・ドアノブ、共用備品などの定期的な消毒<br>
・ご利用後の机の消毒</p>

<p>注)Blue+が使用する弱酸性次亜塩素酸は、強力な除菌力でウイルスを分解しつつ、<br>
かつ人体にも安全な製品です。どうぞご安心ください。<br>
同製品は病院や学校、介護施設や飲食店でも広く導入されております。</p>",大阪府大阪市北区芝田2-9-17　マエダビル4F,,Doorkeeper Events API,Doorkeeper Events API,,184770.0,2025-10-20T10:15:00.000Z,2025-10-20T12:00:00.000Z,コワーキングスペースBlue+(ブルータス),2025-05-20T23:51:58.106Z,2025-05-20T23:51:58.110Z,9231.0,https://doorkeeper.jp/rails/active_storage/representations/proxy/eyJfcmFpbHMiOnsibWVzc2FnZSI6IkJBaHBBMGxiQXc9PSIsImV4cCI6bnVsbCwicHVyIjoiYmxvYl9pZCJ9fQ==--951413d45fe26f063a8a738ed7ce4a77a0d84583/eyJfcmFpbHMiOnsibWVzc2FnZSI6IkJBaDdCem9MWm05eWJXRjBTU0lJYW5CbkJqb0dSVlE2RkhKbGMybDZaVjkwYjE5c2FXMXBkRnNIYVFMb0F6QT0iLCJleHAiOm51bGwsInB1ciI6InZhcmlhdGlvbiJ9fQ==--8ce6569ce3b1f779d3cfcdbb6038d926ad4475c7/%E3%83%8A%E3%83%9D%E3%83%AC%E3%82%AA%E3%83%B3%E3%83%92%E3%83%ABDK%E3%83%90%E3%83%8A.jpg,https://bluetas.doorkeeper.jp/events/184770,0.0,0.0,6.0,34.70775,135.4963783,https://api.doorkeeper.jp/events,コワーキングスペースBlue+(ブルータス)
81,https://tocfe-yokohama.doorkeeper.jp/events/184780,TOCfE横浜塾 2025ライブセッション６,2025-06-17T10:00:00.000Z,"<h1>TOCfE横浜塾</h1>

<p>2025年のTOCfE横浜塾は、すべての回を毎月第三火曜日に味蕾亭で開催いたします。<br>
６月の横浜塾は１７日です。一緒にワークをしながら、""考えるプロセス""を楽しみましょう！</p>

<p>横浜塾では、参加者から募った話題について一緒に考え、考える過程を楽しみながら学びます。あらかじめ筋道や解答が準備されていない問題に仲間と挑むプロセスを、“ライブセッション”で学びます。決められた正解はありません。問題の定義がしっかりできていないこともあります。解決策が出ないかもしれませんが、考えるプロセスを学ぶことに注力します。</p>

<p>ぜひ、どのように考えたらいいかわからないことや、みんなで一緒に考えたら良さそうなことなどを用意して参加してください。別に課題なんてないという方も、一緒に考える仲間として、もちろん参加してください。</p>

<h1>想定参加者</h1>

<ul>
<li>考えることを楽しみたい方</li>
<li>もやもやした課題にどうアプローチするかのヒントを欲しい方</li>
<li>TOCfEの３つのツールを使うことに慣れたいと考えている方</li>
</ul>

<h1>タイムテーブル</h1>

<ul>
<li>18:45 開場</li>
<li>19:00 本編開始</li>
<li>20:50 クロージング</li>
<li>21:00 懇親会(任意参加)</li>
<li>21:50 撤収</li>
</ul>

<h1>会場について</h1>

<ul>
<li>地図上で見ると新高島駅が近いように見えますが、迷う方が多いため、横浜駅から来ることをオススメします。</li>
</ul>

<h1>お約束</h1>

<p>仕事上の話や、個人的なことなども議論の過程で出てくると思います。会場で聞いた内容は、会場の外で話したりしないようにしましょう。</p>

<h1>懇親会 ( 21:00〜)</h1>

<ul>
<li>本編参加者には、20時頃までに参加希望を最終確認いたします。</li>
<li>懇親会のみ参加の方も参加登録お願いいたします。</li>
<li>懇親会費は参加者で飲食料金を均等割します</li>
<li>懇親会では、TOCfEに限らず色々と語り合いましょう</li>
</ul>

<h1>【2025年の予定】(原則、毎月第三火曜日)</h1>

<p>1/21：味蕾亭開催ライブセッション１<br>
2/18：味蕾亭開催ライブセッション２<br>
3/18：味蕾亭開催ライブセッション３<br>
4/15：味蕾亭開催ライブセッション４<br>
5/20：味蕾亭開催ライブセッション５<br>
6/17：味蕾亭開催ライブセッション６　←ココ<br>
7/15：味蕾亭開催ライブセッション７<br>
8/19：味蕾亭開催ライブセッション８<br>
9/16：味蕾亭開催ライブセッション９<br>
10/18：味蕾亭開催ライブセッション１０<br>
11/16：味蕾亭開催ライブセッション１１<br>
12/20：忘年会(予定)</p>

<h1>参考 ( NPO法人教育のためのTOC)</h1>

<ul>
<li><a href=""http://tocforeducation.org/about/"" rel=""nofollow"">http://tocforeducation.org/about/</a></li>
</ul>",〒220-0011 神奈川県横浜市西区高島２丁目３−１９,,Doorkeeper Events API,Doorkeeper Events API,,184780.0,2025-06-17T10:00:00.000Z,2025-06-17T13:00:00.000Z,レストラン 味蕾亭,2025-05-20T22:26:54.462Z,2025-05-21T01:48:00.952Z,1246.0,,https://tocfe-yokohama.doorkeeper.jp/events/184780,2.0,0.0,25.0,35.4608752,139.6230066,https://api.doorkeeper.jp/events,レストラン 味蕾亭
82,https://koberb.doorkeeper.jp/events/184771,【中央区文化センター1109】KOBE.rb Meetup #160,2025-07-01T10:00:00.000Z,"<p><strong>いつもと会場が違うのでご注意ください！</strong></p>

<h2>概要</h2>

<p>神戸やその周辺のRubyistが集まる会です。もちろん他地域からの交流も大歓迎です。Rubyの話、Railsの話、React、フロントエンドの話、機械学習、勉強の仕方とか、最近の流行話とか、色々雑多にやっています。</p>

<p>Ruby, Railsなどで困ってる事を相談しあったりしたい人。他のRubyistと情報交換したい人。Ruby初級者で勉強したい人などなど。Rubyコミュニティに貢献したい人。Rubyをきっかけにして繋がってる場なので、最近Ruby使ってないなーって方でも大丈夫です。ぜひこの場を活用してください。</p>

<h2>何をするんですか？</h2>

<p>いわゆるもくもく会（自習形式の勉強会）スタイルです。困ったことや話したいことがあれば周りの人と相談するみたいな雰囲気でやってます。<br>
読書や勉強をしたり、技術的に困ってることの相談をしたり、プレゼンの練習でモニターに映したり、積み残した仕事をしたり、学習方法や最近の技術動向やビジネス関係の話をしたり……。<br>
みんなと会話するのもよし、作業をメインにしてたまに会話に入るもよし、ご自由にお過ごしください。</p>

<h2>Ruby初心者でも参加できますか？</h2>

<p>はい。初心者の方もよく来られます。<br>
その中でわからない事などあれば周囲の人に聞いたりすることはできますので、交流したいと思う気持ちがあれば大丈夫です !<br>
よくお問い合わせいただきますが、たとえば以下のような方も参加しています。</p>

<ul>
<li>ひとりで勉強してるけど、たまに人に聞いたりしたい人</li>
<li>最近の技術動向やこんな時どうしてるの？みたいな話がしたい人</li>
<li>他の人がどうやってプラグラミングを学習していったのか興味がある人</li>
<li>Rubyのコミュニティによくいるケド、最近Ruby以外の言語触っている人</li>
</ul>

<p>回によって集まる人や話題が違うので、よくわからない話の時もあると思います。その時はどんどん質問してください。</p>",神戸市中央区東町115番地,,Doorkeeper Events API,Doorkeeper Events API,,184771.0,2025-07-01T10:00:00.000Z,2025-07-01T11:30:00.000Z,中央区文化センター会議室1109,2025-05-20T11:27:55.801Z,2025-05-21T00:22:43.241Z,1743.0,https://doorkeeper.jp/rails/active_storage/representations/proxy/eyJfcmFpbHMiOnsibWVzc2FnZSI6IkJBaHBBL0dlQWc9PSIsImV4cCI6bnVsbCwicHVyIjoiYmxvYl9pZCJ9fQ==--234e0fba41ec59e97ffd036b827a3505834f182b/eyJfcmFpbHMiOnsibWVzc2FnZSI6IkJBaDdCem9MWm05eWJXRjBTU0lJYW5CbkJqb0dSVlE2RkhKbGMybDZaVjkwYjE5c2FXMXBkRnNIYVFMb0F6QT0iLCJleHAiOm51bGwsInB1ciI6InZhcmlhdGlvbiJ9fQ==--8ce6569ce3b1f779d3cfcdbb6038d926ad4475c7/1743_normal_1406162867_jpeg.jpg,https://koberb.doorkeeper.jp/events/184771,4.0,0.0,20.0,34.6897209,135.1950388,https://api.doorkeeper.jp/events,中央区文化センター会議室1109
83,https://beyond.doorkeeper.jp/events/184761,関西初上陸！まだ遅くない！Web3初心者のゲーム会社が今こそ乗るべき波とは？！～豪華特典付き～,2025-05-28T09:00:00.000Z,"<h1><strong><span style=""color: #008080;"">■ </span>イベント概要 </strong></h1>

<p><strong>＜驚異的な成長を続けるLINE NEXTの新プラットフォーム＞</strong><br>
LINE NEXTが2025年1月にリリースした<strong><span style=""color: #d2691e;"">「LINE Dapp Portal」</span></strong>は、わずか4ヶ月で業界を驚かせる急成長を遂げています！このセミナーでは、LINE NEXT日本事業統括本部長・栗原様直々に、その詳細を関西初公開します。</p>

<p>2025年1月、LINE NEXTはブロックチェーンゲームプラットフォーム<strong><span style=""color: #d2691e;"">「LINE Dapp Portal」</span></strong>をリリースし、わずか4ヶ月で驚異的な成長を遂げました。その成功の背景には、既存のWeb2ゲーム開発ノウハウを活かせるという大きな特長があります。</p>

<p>しかしながら、多くのゲーム開発者様にとって、Web3への移行は依然として高いハードルに感じられているのが現状です。特に、関西地域の開発会社様からは「興味はあるが、どこから始めれば良いかわからない。あまり情報がなくてわからない。」という声を多く頂戴していました。</p>

<p>本セミナーは、このような状況を踏まえ、LINE NEXTの日本事業統括本部長である栗原様が直接、<strong>プラットフォームの詳細や成功事例を解説する</strong>関西初の特別企画であり、<strong>「大阪・梅田」</strong>にて開催いたします。Web2の開発経験をお持ちでない方でも無理なく参入できる環境と、充実したサポート体制をご紹介することで、関西地域のゲーム開発者様のWeb3参入を強力にバックアップいたします。</p>

<p>業界の新たな潮流を見据え、次の成長ステージへ進む絶好の機会として、ぜひこのセミナーをご活用ください。<br>
セミナー開催後には懇親会も設けておりますので、皆様お誘い合わせの上、ぜひご参加ください！</p>

<p><strong>＜セミナーで得られる3つのキーワード＞</strong><br>
【エコシステム】 LINE NEXTの強力なインフラと豊富なユーザー基盤&gt;<br>
【実績データ】 最新KPIと成功事例から学ぶ収益化のヒント&gt;<br>
【参入事例】　 Web2のノウハウだけで始められるトークノミクスの実践ノウハウ&gt;</p>

<p><strong>＜参加者限定！豪華特典＞<br>
<span style=""color: #ED1A3D;"">さらに！各協力企業からPF参入を後押しする豪華プレゼントもご用意しております！</span></strong></p>

<p><strong>※定員を超えるお申し込みをいただいた場合は、誠に恐縮ではございますが、抽選によりご参加者を決定させていただきます。</strong></p>

<h1><strong><span style=""color:#008080"">■ </span>Dapp Portalについて</strong></h1>

<p><a href=""https://www.dappportal.io/"" rel=""nofollow"">Dapp Portal</a>とは、LINE NEXTが提供する、コミュニケーションアプリ「LINE」を基盤とした分散型アプリケーション（Dapp）のプラットフォームです。</p>

<p>LINEアプリ内から、ゲーム、ソーシャル、コンテンツなど様々なMini Dappを簡単に探して利用できます。Dappをプレイすることで、リワードとして仮想通貨KAIAやゲーム内トークン、NFTなどが獲得できる仕組みも用意されています。</p>

<h1><strong><span style=""color: #008080;"">■</span>こういった内容に当てはまる方々にオススメです！</strong></h1>

<p>★ ゲーム開発に携わっている<br>
★ Web3に興味はあるが、第一歩が踏み出せない<br>
★ スマホゲーム/コンソールゲームの開発経験しかない<br>
★ 次世代のゲームトレンドをいち早くキャッチしたい</p>

<h1><strong><span style=""color: #008080;"">■ </span>タイムテーブル</strong></h1>

<table>
<thead>
<tr>
<th>時間</th>
<th>セッション内容</th>
<th>登壇企業</th>
</tr>
</thead>
<tbody>
<tr>
<td>17:30</td>
<td>開場</td>
<td></td>
</tr>
<tr><td>18:00 ～ 18:05</td>
<td>開始の挨拶</td>
<td></td>
</tr>
<tr>
<td>18:05 ～ 18:45</td>
<td>次世代ブロックチェーンゲームPFの可能性</td>
<td>LINE NEXT様<br></td>
</tr>
<tr><td>18:45 ～ 19:00</td>
<td>大量トラフィックに備えたゲーム実績とコストメリット</td>
<td>Tencent Cloud様<br></td>
</tr>
<tr><td>19:00 ～ 19:10</td>
<td>グローバルなPFでの24時間365日でのサーバー保守の重要性</td>
<td>ビヨンド<br></td>
</tr>
<tr><td>19:10 ～ 19:20</td>
<td>PF参入を応援する豪華特典の紹介！</td>
<td>Null Up様</td>
</tr>
<tr><td>19:20 ～ 20:20</td>
<td>懇親会　※お飲み物と軽食をご用意しております</td>
<td></td>
</tr>
<tr><td>20:20 ～ 20:30</td>
<td>締めの挨拶</td>
<td></td>
</tr></tbody></table>

<p>※ スケジュール・プログラムは変更される場合があります。</p>

<h1><strong><span style=""color: #008080;"">■ </span>会場案内</strong></h1>

<p>【会場名】<br>
　AP大阪茶屋町<br>
　<a href=""https://maps.app.goo.gl/S8bcqWg6BgVGhXLQ9"" rel=""nofollow"">https://maps.app.goo.gl/S8bcqWg6BgVGhXLQ9</a></p>

<p>【住所】<br>
　〒530-0013<br>
　大阪府大阪市北区茶屋町1-27<br>
　ABC-MART梅田ビル 8F D・Eルーム</p>

<p>【受付】<br>
　受付にてお名刺を2枚ご準備ください。</p>

<h1><strong><span style=""color: #008080;"">■ </span>イベント様子の撮影のご協力</strong></h1>

<p>イベントの様子を撮影・録画し、ブログやSNSなどで公開することがあります。<br>
あらかじめ来場者様の姿も公開されることがあることをご了承ください。</p>

<h1><strong><span style=""color: #008080;"">■</span>注意事項</strong></h1>

<p>◆ 下記のような項目へ該当する場合、次回以降の勉強会・コミュニティへの参加をお断りさせていただきます。<br>
あらかじめご了承ください。</p>

<p>・他人への迷惑行為（セクシュアルハラスメント・パワーハラスメント・ストーカー・荒らし行為 など）<br>
・ネットワークビジネス、宗教活動、政治活動、その対象を問わず販売、勧誘、斡旋と見なされる行為<br>
・勉強会の趣旨、目的と逸脱した行為</p>

<h1><strong><span style=""color: #008080;"">■ </span>登壇企業</strong></h1>

<p><img src=""https://www.dropbox.com/scl/fi/ske3ec8q2vpql9f08r4er/LINE-NEXT-wordmark_black.png?rlkey=9netxbcwy1th2yln1d1kls414&amp;st=9wamnwmb&amp;dl=1"" alt=""LINE NEXT wordmark_black.png""></p>

<h3>◆ <a href=""https://www.linenextcorp.com"" rel=""nofollow"">LINE NEXT株式会社</a> <br><br></h3>

<p><img src=""https://www.dropbox.com/scl/fi/orbsqbdjx1167zhda02zn/Tcloud_logo_Eng.png?rlkey=7tigifbleq33gq5gwu94fj797&amp;st=jpqejjdz&amp;dl=1"" alt=""Tcloud_logo_Eng.png""></p>

<h3>◆ <a href=""https://www.tencentcloud.com/jp"" rel=""nofollow"">テンセントクラウド（Tencent Cloud）</a> <br><br></h3>

<p><img src=""https://www.dropbox.com/scl/fi/iymub2l28tzyn746172c1/nullup2.png?rlkey=arpukmj4sr0l3uk54k18atow6&amp;st=qzwjain5&amp;dl=1"" alt=""nullup2.png""></p>

<h3>◆<a href=""https://www.null-up.com/"" rel=""nofollow""> Null Up </a> <br><br></h3>

<h1><strong><span style=""color: #008080;"">■ </span>主催者情報</strong></h1>

<p><img src=""https://www.dropbox.com/s/to9cxtyf2v86ga1/beyond_logo.png?raw=1"" alt=""ビヨンド_logo.png""></p>

<h3>◆ <a href=""https://beyondjapan.com"" rel=""nofollow"">株式会社ビヨンド</a> <br></h3>

<table>
<tbody>
</tbody>
<tfoot>
<tr>
<th>会社情報</th>
<td>ビヨンドは 日本・カナダで、クラウド / サーバー構築・運用、サーバーサイド開発など、クラウド技術を駆使するエンジニア集団です。<br><br>

・コーポレートサイト：<a href=""https://beyondjapan.com"" rel=""nofollow"">https://beyondjapan.com</a>​​​<br>
・Youtube（びよまるチャンネル）：<a href=""https://www.youtube.com/@beyomaruch"" rel=""nofollow"">https://www.youtube.com/@beyomaruch</a><br>
・X：<a href=""https://x.com/beyondjapaninfo"" rel=""nofollow"">https://x.com/beyondjapaninfo</a><br>

・クラウド予約システム EDISONE（エジソン）：<a href=""https://edisone.jp"" rel=""nofollow"">https://edisone.jp</a><br>
・Webサイト監視サービス Appmill（アプミル）：<a href=""https://appmill.work"" rel=""nofollow"">https://appmill.work</a><br>
・WordPressクラウド WebSpeed（ウェブスピード）：<a href=""https://webspeed.ne.jp"" rel=""nofollow"">https://webspeed.ne.jp</a><br>
</td>
</tr>
</tfoot>
</table>",大阪府大阪市北区茶屋町1-27 　ABC-MART梅田ビル 8F D・Eルーム,,Doorkeeper Events API,Doorkeeper Events API,,184761.0,2025-05-28T09:00:00.000Z,2025-05-28T11:30:00.000Z,AP大阪茶屋町,2025-05-20T08:28:11.155Z,2025-05-21T01:22:38.906Z,6534.0,https://doorkeeper.jp/rails/active_storage/representations/proxy/eyJfcmFpbHMiOnsibWVzc2FnZSI6IkJBaHBBLzRCQnc9PSIsImV4cCI6bnVsbCwicHVyIjoiYmxvYl9pZCJ9fQ==--877b1f81e38d35b0a5fef3845aa5469341f68ea8/eyJfcmFpbHMiOnsibWVzc2FnZSI6IkJBaDdCem9MWm05eWJXRjBTU0lJY0c1bkJqb0dSVlE2RkhKbGMybDZaVjkwYjE5c2FXMXBkRnNIYVFMb0F6QT0iLCJleHAiOm51bGwsInB1ciI6InZhcmlhdGlvbiJ9fQ==--91839951a073aea8822f6907dc8d81559a890706/528%E3%82%A4%E3%83%99%E3%83%B3%E3%83%88%E3%83%90%E3%83%8A%E3%83%BC.png,https://beyond.doorkeeper.jp/events/184761,0.0,0.0,20.0,34.70475,135.4997105,https://api.doorkeeper.jp/events,AP大阪茶屋町
84,https://majisemi-business.doorkeeper.jp/events/184638, 【人事労務・総務を一人で回す中小企業 必見！】煩雑な日常業務を劇的に解決するDX術 〜 低コストで簡単導入！ Zoho Peopleを使った業務効率化を徹底解説 〜,2025-06-16T03:00:00.000Z,"<h1>本セミナーはWebセミナーです</h1>

<h2>6月16日（月）12：00 - 13：00 （45分セミナー|15分質疑応答）</h2>

<h2>無料 オンライン（Zoom）開催</h2>

<p>参加方法（URL）は主催企業より直接メールにてご連絡いたします。</p>

<h1>セミナー概要</h1>

<p>中小企業では、人事労務・総務業務を1人で担うケースも多く、日々の定型業務が煩雑化しがちです。こうした管理部門の日常業務の効率化を図るためには、簡単に導入でき、低コストで運用できる仕組みが必要不可欠です。</p>

<p>本ウェビナーでは、1人で人事や総務、労務業務を担当している中小企業の方々に向けて、今までうまくIT化を進められなかった業務の負担を劇的に軽減するためのDX（デジタル・トランスフォーメーション）術を紹介します。実際の導入事例を交えながら、どのように業務効率化を実現できるかを学んでいただけます。</p>

<h1>主な内容</h1>

<h2>中小企業の生産性向上に向けた管理部門DX</h2>

<p>株式会社船井総合研究所 ヒューマンキャピタル支援部 タレントマネジメントグループ マネージャー 宮地建守 氏</p>

<h2>中小企業におけるDX事例（現在創立10年目。導入当時創立3年目・従業員数十名規模の人事労務管理DX）</h2>

<p>ゾーホージャパン 新規ビジネス推進グループ 前川大介</p>

<h2>管理部門の煩雑な日常業務を手軽に効率化するDX術</h2>

<p>ゾーホージャパン 新規ビジネス推進グループ 前川大介</p>

<h2>質疑応答</h2>

<h1>本ウェビナーをおすすめする方</h1>

<p>以下の課題を抱えている方におすすめの内容です。</p>

<p>● 1人で人事労務や総務業務を担当している中小企業の経営者や管理部門の担当者</p>

<p>● 日常の煩雑な管理定型業務を効率化できるツールを探している担当者</p>

<p>● 中小企業でも導入しやすいコストや機能で、DXを検討している担当者</p>

<h1>登壇者紹介</h1>

<p>株式会社船井総合研究所</p>

<p>ヒューマンキャピタル支援部</p>

<p>タレントマネジメントグループ マネージャー</p>

<p><strong>宮地建守 氏</strong></p>

<p>＜プロフィール＞</p>

<p>業界・規模問わず、評価制度コンサルティングや社員育成の導入・運用に関するコンサルティング</p>

<p>やなど組織作り・組織開発をメインで行っております。特に制度構築以降の人事評価面談の同席や</p>

<p>面談者へのフィードバックなどを得意としており、設計した制度をきちんと運用できるようなコン</p>

<p>サルティングを行っております。社内では全社プロジェクトで組織SANBŌ（従業員サーベイ）推進</p>

<p>や、全社横断型コミュニケーションチャット（Zoho Connect）の導入推進責任者も行っておりまし</p>

<p>た。</p>

<p><img src=""https://majisemi.com/service/wp-content/uploads/2025/05/%E5%AE%AE%E5%9C%B0%E5%BB%BA%E5%AE%88.png"" alt=""speaker1""></p>

<hr>

<p>ゾーホージャパン株式会社</p>

<p>マーケティング事業部 Zohoマーケティング部 新規事業推進グループ リーダー</p>

<p>Zoho People 担当</p>

<p><strong>前川大介</strong></p>

<p>＜プロフィール＞</p>

<p>Zoho Peopleのマーケティング責任者。</p>

<p>前職では、SaaSの立ち上げや商社における新規事業、コンサルティング会社におけるクライアントワークなどの責任者として従事してきた。</p>

<p>2024年にゾーホージャパンへ入社し、HRMS（人事労務管理システム）であるZoho Peopleを担当している。</p>

<p><img src=""https://majisemi.com/service/wp-content/uploads/2025/05/%E5%89%8D%E5%B7%9D%E5%A4%A7%E4%BB%8B.png"" alt=""speaker2""></p>

<h1>主催・共催</h1>

<p>ゾーホージャパン株式会社（<a href=""https://www.zoho.co.jp/privacy/"" rel=""nofollow"">プライバシーポリシー</a>）</p>

<p>株式会社船井総合研究所（<a href=""https://www.funaisoken.co.jp/info/pp"" rel=""nofollow"">プライバシーポリシー</a>）</p>

<h1>協力</h1>

<p>株式会社オープンソース活用研究所（<a href=""https://osslabo.com/privacy"" rel=""nofollow"">プライバシーポリシー</a>）</p>

<p>マジセミ株式会社（<a href=""https://majisemi.com/service/privacy/"" rel=""nofollow"">プライバシーポリシー</a>）</p>

<p>※共催、協賛、協力、講演企業は将来的に追加、削除される可能性があります。</p>

<h1>当日会場アクセスに関するお問合せ</h1>

<p><a href=""mailto:hiromichi.inoshita@zohocorp.com"" rel=""nofollow"">hiromichi.inoshita@zohocorp.com</a>（080-9129-2830）</p>

<h1>セミナー事務局</h1>

<p>マジセミ株式会社（<a href=""https://majisemi.com/service/privacy"" rel=""nofollow"">プライバシーポリシー</a>）<br>
<img src=""https://majisemi.com/e/checker.gif"" width=""1px""></p>

<p>※以下の方について、当社判断によりご参加をご遠慮いただく場合がございます。予めご了承ください。</p>

<p>・講演企業の競合となる商品・サービスを提供している企業、同業の企業、及びそのグループ企業・関連企業の方<br>
・個人や個人事業主の方<br>
・海外から参加される方<br>
・日本に活動拠点が無い企業の方<br>
・その他、弊社及び講演企業が不適切と判断した企業・個人の方</p>

<p>※申込が多数の場合、弊社抽選にてご参加をご遠慮いただく場合がございますので、予めご了承ください。</p>

<p>当社では、本フォームから取得する個人情報を下記の通り取扱います。<br>
下記をご一読いただき、ご同意の上で送信してください。</p>

<h3>１．個人情報の利用目的</h3>

<p>本フォームからのお申込みにあたりご提供頂く個人情報は、以下の目的で利用いたします。<br>
・主催、共催、協賛、協力するセミナーや展示会、イベントにおける参加者管理業務のため<br>
・当社が主催、共催、協賛、協力する資料閲覧サービスや動画視聴サービスにおける資料閲覧・動画視聴サービスのご提供、並びに申込者管理のため<br>
・メルマガ配信のため</p>

<h3>２．個人情報保護管理者の氏名又は職名、所属及び連絡先</h3>

<p>管理部 個人情報保護管理担当者<br>
TEL: 03-6721-8548　e-mail: <a href=""mailto:info@osslabo.com"" rel=""nofollow"">info@osslabo.com</a></p>

<h3>３．個人情報の第三者提供について</h3>

<p>当社は、本フォームから取得する個人情報をオープンソース活用研究所、及び、本セミナーの主催・共催・協賛・協力・講演の各企業へ提供します。<br>
(1)第三者に提供する目的：各社のサービス、製品、セミナー、イベントなどのご案内のため、各社のメルマガ登録のため<br>
(2)提供する個人情報の項目：氏名、所属会社名、メールアドレス、電話番号、部署・役職、年代、アンケートへの回答内容<br>
(3)提供の手段又は方法：暗号化したWebを経由して送信<br>
(4)当該情報の提供を受ける者又は提供を受ける者の事業者の種類、及び属性：主催・共催・協賛・協力・講演企業<br>
(5)個人情報の取扱いに関する契約がある場合はその旨：当社サービス利用約款による</p>

<h3>４．個人情報の委託について</h3>

<p>ご提供頂く個人情報は、利用目的の範囲内でその取扱いの一部又は全部を外部事業者に委託する場合がございます。その場合は、委託した個人情報の安全管理が図られるように、委託をする各社が定めた基準を満たす委託先を選定し、委託先に対して必要かつ適切な監督を行います。</p>

<h3>５．開示等のご請求に関しまして</h3>

<p>当社は、本お申込みフォームから取得する個人情報に関し、保有個人データ又は第三者提供記録に関するご本人又はその代理人からの利用目的の通知、開示、内容の訂正、追加又は削除、利用の停止、消去及び第三者への提供の停止等、並びに第三者提供記録の開示のご請求(以下、「開示等のご請求」といいます)に応じます。<br>
開示等のご請求に関しましては、下記「個人情報の取扱いに関するお問合せ先 」までお申し出ください。<br>
なお、提供先である株式会社オープンソース活用研究所及び主催・共催・協賛・協力・講演企業のご請求窓口等は、各社のプライバシーポリシーを御覧ください。</p>

<h3>６．個人情報のご提供の任意性について</h3>

<p>当社に個人情報をご提供頂くことは、ご本人様の任意です。ただし、必須項目に設定する情報をご提供頂けない場合、及びご入力頂いた内容が正確でない場合には、本セミナーにお申込みができない場合がございますのでご了承ください。</p>

<h3>７．本人が容易に知覚できない方法による個人情報の取得について</h3>

<p>当社が運営するウェブサイトでは、ユーザビリティ確保のためにCookie情報を取得しておりますが、当該情報を特定の個人を識別して利用することはございません。</p>

<h3>８．個人情報の取扱いに関するお問合せ先</h3>

<p>当社の個人情報の取扱いに関するお問合せ、苦情及び相談につきましては、以下にお申し出ください。<br>
管理部 個人情報保護管理担当者<br>
TEL: 03-6721-8548　e-mail: <a href=""mailto:info@osslabo.com"" rel=""nofollow"">info@osslabo.com</a></p>",オンライン,,Doorkeeper Events API,Doorkeeper Events API,,184638.0,2025-06-16T03:00:00.000Z,2025-06-16T04:00:00.000Z,Webセミナー（URLは主催企業からメールでお知らせします）,2025-05-20T05:49:23.936Z,2025-05-21T01:21:06.880Z,10967.0,https://doorkeeper.jp/rails/active_storage/representations/proxy/eyJfcmFpbHMiOnsibWVzc2FnZSI6IkJBaHBBeWorQmc9PSIsImV4cCI6bnVsbCwicHVyIjoiYmxvYl9pZCJ9fQ==--1879e6caa3cc333d7f22509ba2720fe7dc30e78d/eyJfcmFpbHMiOnsibWVzc2FnZSI6IkJBaDdCem9MWm05eWJXRjBTU0lJYW5CbkJqb0dSVlE2RkhKbGMybDZaVjkwYjE5c2FXMXBkRnNIYVFMb0F6QT0iLCJleHAiOm51bGwsInB1ciI6InZhcmlhdGlvbiJ9fQ==--8ce6569ce3b1f779d3cfcdbb6038d926ad4475c7/20250616_zoho_bannerD.jpg,https://majisemi-business.doorkeeper.jp/events/184638,0.0,0.0,0.0,,,https://api.doorkeeper.jp/events,Webセミナー（URLは主催企業からメールでお知らせします）
85,https://mpsamurai.doorkeeper.jp/events/184760,ゼロから始める！AI × プログラミング体験 #4,2025-05-30T10:00:00.000Z,"<p><img src=""https://mpsamurai.doorkeeper.jp/files/3246bbfaba65e53f413e19c6aadb6e6da43974d2/facebook%E3%81%AE%E3%82%B3%E3%83%94%E3%83%BC%E3%81%AE%E3%82%B3%E3%83%94%E3%83%BC.jpg"" alt=""バナー4.jpg""></p>

<h1>📢ゼロから始める！AI × プログラミング体験 #4</h1>

<p>第四弾は福岡にて開催！<br>
AIって何？プログラミングの仕事に興味あるけど、何から始めればいいの？そんな「はじめの一歩」を応援する体験イベントです。<br>
AIを使って、自分の「3年後の未来」を予測するWebアプリを一緒に作ってみませんか？<br>
ふらっと遊びにくるような気持ちでどうぞ(^^)<br>
<br>「なんとなく面白そう」「仕事に役立つスキルを気軽に体験したい」「転職やキャリアの選択肢を考え始めたい」<br>
ひとつでも当てはまったら、ぜひ気軽に参加してみてください！</p>

<h1>🎉こんなことが体験できます！</h1>

<p>・ コードは書かなくてもAIが代わりにアプリを作ってくれる<br>
・「AIって面白い！」と感じるきっかけに<br>
・AIの問題点の発見<br>
・自分の未来像を“見える化”するアプリを完成<br>
・将来の仕事にもつながるスキルにふれる</p>

<h1>✅こんな方にぴったり！</h1>

<p>・AIやプログラミングに興味があるけど、まったくの初心者<br>
・難しそうでなかなか踏み出せなかった方<br>
・将来的に、仕事に役立つ力をつけたい方</p>

<h1>📝イベント概要</h1>

<p>日程：2025年5月30日（金）19:00～20:30<br>
会場：VILLENT JOY博多<br>
参加費：無料<br>
持ち物：PC（Windows 10 以上、Mac OSX 14 以上 ／ Wi-Fi環境が必要です）、Googleアカウントを作って来てください。</p>

<h1>🕒タイムテーブル</h1>

<table><thead>
<tr>
<th>時間</th>
<th>内容</th>
</tr>
</thead><tbody>
<tr>
<td>19:00〜19:10</td>
<td>オープニング・ご挨拶</td>
</tr>
<tr>
<td>19:10〜19:20</td>
<td>AI に Web アプリケーションを作らせてみよう！</td>
</tr>
<tr>
<td>19:20〜19:30</td>
<td>AI に Web アプリケーションを改良させてみよう！</td>
</tr>
<tr>
<td>19:30〜19:40</td>
<td>AI の作ったコードをみてみよう！</td>
</tr>
<tr>
<td>19:40〜19:50</td>
<td>AI の作ったコードを改良してみよう！</td>
</tr>
<tr>
<td>19:50〜20:00</td>
<td>AI 時代における価値あるエンジニアとは (Human-AI Collaboration)</td>
</tr>
<tr>
<td>20:00〜20:10</td>
<td>講座紹介</td>
</tr>
<tr>
<td>20:10〜20:30</td>
<td>質疑応答・クロージング・アンケート</td>
</tr>
</tbody></table>

<p>※ 当日予告なく時間配分・内容が変更になる可能性がございます。</p>

<h1>🎓登壇者</h1>

<h3>金子 純也</h3>

<p>Morning Project Samurai株式会社 代表取締役</p>

<p>2014年、大学院博士後期課程在籍中に「新たなチャレンジを応援する」任意団体Morning Project Samuraiを設立。2016年に博士後期課程を中退してフリーランスプログラマに。有名AI ベンチャーへの参画などを経験。2018年よりMorning Project Samuraiを株式会社化。AIを中心とした教育事業を展開。自社AIプロダクト開発の他、大手事業会社の AI PoC や AI システム開発も多数手がける。プログラミング初心者を大手総合研究所の PoC エンジニアに育てるなど、「新たな一歩」のための教育に注力。</p>

<p>Morning Project Samurai株式会社 公式HP：<a href=""https://mpsamurai.com/"" rel=""nofollow"">https://mpsamurai.com/</a></p>

<h1>🎁特典あり！</h1>

<p>イベント参加者限定で、本格講座のお得な情報のご案内もあります！</p>

<h1>🌟イベントの最後に</h1>

<p>さらに学んでみたい方へ、<br>
 「未経験から“仕事にできるスキル”を身につける本格講座」のご紹介も！</p>

<h1>🔥まずは気軽に、ワクワクを体験してみましょう！</h1>

<p>あなたの「未来を変える最初の一歩」を、ここで踏み出してみませんか？</p>

<p><br></p>

<h2>🚨注意事項</h2>

<ul>
<li>アプリ開発は初心者を対象としているため簡単なものになります。実際に未来を可視化できるわけではありません。</li>
<li>イベント中の録画・録音はご遠慮ください。</li>
<li>開始5分前にはご入室ください。</li>
<li>キャンセルの場合は、詳細ページより申込のキャンセルをお願い致します。 </li>
<li>無断キャンセル・欠席が続く場合、次回以降の参加をお断りさせていただく場合がございますのでご了承ください。</li>
<li>イベントに関する注意事項詳細もご覧ください。（ <a href=""https://x.gd/xdyDi"" rel=""nofollow"">https://x.gd/xdyDi</a> ）</li>
</ul>

<h2>📧連絡方法</h2>

<p>当日のトラブルや質問がある場合は、以下までご連絡ください。<br>
<a href=""mailto:event@mpsamurai.com"" rel=""nofollow"">event@mpsamurai.com</a></p>",福岡県福岡市博多区博多駅前２丁目１１−２２ ライオンズマンションＪＯＹ博多【７０２号室】,,Doorkeeper Events API,Doorkeeper Events API,,184760.0,2025-05-30T10:00:00.000Z,2025-05-30T11:30:00.000Z,VILLENT JOY博多,2025-05-20T05:37:30.305Z,2025-05-20T05:37:30.311Z,4425.0,,https://mpsamurai.doorkeeper.jp/events/184760,0.0,0.0,6.0,33.5918057,130.4159529,https://api.doorkeeper.jp/events,VILLENT JOY博多
86,https://majisemi-security.doorkeeper.jp/events/184759, サイバー攻撃に狙われるAPI、「OWASP API Top 10」を踏まえた最新の防御策とは？ ～脆弱性診断と「F5 XC WAAP」で実現する最適な「APIセキュリティ強化方法」を解説～,2025-06-10T02:00:00.000Z,"<h1>本セミナーはWebセミナーです</h1>

<p>ツールはZoomを使います。URLは直前にメールにてご連絡いたします。</p>

<p>なお、「osslabo.com」「majisemi.com」からのメールが迷惑メールとならないよう、メールの設定をご確認ください。</p>

<h1>クラウド利用の増加で懸念されるAPIリスク、従来型対策では難しい面も</h1>

<p>クラウド利用の拡大に伴い、サービス間連携やデータ取得で必須となるAPIはその中核として「API（Application Programming Interface）」の活用が急速に高まっています。APIは、デジタル・トランスフォーメーションを支える中核的な技術です。その一方、外部との接点となるため、サイバー攻撃の標的になりやすいというリスクを抱えています。</p>

<p>実際、APIを悪用した情報漏えいや不正アクセスの事例が増加しており、従来の境界型防御や一般的なセキュリティ対策では防ぎきれないケースも少なくありません。柔軟性と利便性を提供するAPIは、その特性ゆえに脆弱性が生じやすく、放置すれば重大なインシデントに発展する恐れがあります。</p>

<h1>APIセキュリティの強化で特に求められる「OWASP API Top 10」への対応</h1>

<p>APIの普及に伴い、セキュリティリスクへの対処が急務となる中、特に注目されているのが「OWASP API Top 10」への対応です。「OWASP API Top 10」はAPIセキュリティの代表的な脅威をまとめたリストであり、内容を正しく理解し、診断と対策を講じることは安全なAPI運用の前提となります。</p>

<p>しかし、APIは認証・認可設計がサービスごとに異なり、ブラックボックス化しやすいため、脆弱性の把握が難しいという課題があります。加えて、従来型WAFではAPI固有のリスクをカバーしきれず、多くの企業が効果的な防御策を持てていないのが現状です。</p>

<p>一度インシデントが発生すれば甚大な損害を招くことから「OWASP API Top 10」の内容を理解した上で、APIに関する継続的な脆弱性診断や適切なセキュリティ対策の実践が不可欠となっています。</p>

<h1>APIの脆弱性に関する実例を踏まえ、「F5 XC WAAP」を活用したAPIセキュリティ強化方法を解説</h1>

<p>クラウドの利用拡大でサイバー攻撃に狙われるリスクが高まっているAPI。そのセキュリティをどう強化していけばよいのでしょうか。</p>

<p>本セミナーは、「OWASP API Top 10」に対する具体的な防御策を解説します。また、多くの顧客が抱えるセキュリティ課題を解決したSCSKセキュリティのAPIに対する脆弱性診断の実績や実際に検出された脆弱性の事例を踏まえてご紹介します。さらに、APIセキュリティを強化する最適なソリューションとして「F5 XC WAAP（Web Application and API Protection）」を提案し、その活用方法を詳しく解説します。</p>

<p>「APIセキュリティを強化したい」「『OWASP API Top 10』に対する具体的な防御策が知りたい」「自社に最適なAPIセキュリティの実践方法を知りたい」とお考えの企業・組織のセキュリティ運用を担う方は、ぜひご参加ください。</p>

<h1>プログラム</h1>

<h2>10:45～11:00　受付</h2>

<h2>11:00～11:05　オープニング（マジセミ）</h2>

<h2>11:05～11:45　サイバー攻撃に狙われるAPI、「OWASP API Top 10」を踏まえた最新の防御策とは？～脆弱性診断と「F5 XC WAAP」で実現する最適な「APIセキュリティ強化方法」を解説～</h2>

<h2>11:45～11:55　質疑応答</h2>

<h2>11:55～12:00　F5ソリューションラインナップご紹介とイベント「AppWorld Tokyo 2025」告知</h2>

<h1>主催・共催</h1>

<p>F5ネットワークスジャパン合同会社（<a href=""https://www.f5.com/ja_jp/company/policies/privacy-compliance-and-practices"" rel=""nofollow"">プライバシーポリシー</a>）</p>

<p>SCSKセキュリティ株式会社（<a href=""https://scsksecurity.co.jp/privacy/"" rel=""nofollow"">プライバシーポリシー</a>）</p>

<h1>協力</h1>

<p>株式会社オープンソース活用研究所（<a href=""https://osslabo.com/privacy"" rel=""nofollow"">プライバシーポリシー</a>）</p>

<p>マジセミ株式会社（<a href=""https://majisemi.com/service/privacy/"" rel=""nofollow"">プライバシーポリシー</a>）</p>

<p>※共催、協賛、協力、講演企業は将来的に追加、削除される可能性があります。</p>

<h1>当日会場アクセスに関するお問合せ</h1>

<p><a href=""mailto:zoom@osslabo.com"" rel=""nofollow"">zoom@osslabo.com</a></p>

<h1>セミナー事務局</h1>

<p>マジセミ株式会社（<a href=""https://majisemi.com/service/privacy"" rel=""nofollow"">プライバシーポリシー</a>）<br>
<img src=""https://majisemi.com/e/checker.gif"" width=""1px""></p>

<p>※以下の方について、当社判断によりご参加をご遠慮いただく場合がございます。予めご了承ください。</p>

<p>・講演企業の競合となる商品・サービスを提供している企業、同業の企業、及びそのグループ企業・関連企業の方<br>
・個人や個人事業主の方<br>
・海外から参加される方<br>
・日本に活動拠点が無い企業の方<br>
・その他、弊社及び講演企業が不適切と判断した企業・個人の方</p>

<p>※申込が多数の場合、弊社抽選にてご参加をご遠慮いただく場合がございますので、予めご了承ください。</p>

<p>当社では、本フォームから取得する個人情報を下記の通り取扱います。<br>
下記をご一読いただき、ご同意の上で送信してください。</p>

<h3>１．個人情報の利用目的</h3>

<p>本フォームからのお申込みにあたりご提供頂く個人情報は、以下の目的で利用いたします。<br>
・主催、共催、協賛、協力するセミナーや展示会、イベントにおける参加者管理業務のため<br>
・当社が主催、共催、協賛、協力する資料閲覧サービスや動画視聴サービスにおける資料閲覧・動画視聴サービスのご提供、並びに申込者管理のため<br>
・メルマガ配信のため</p>

<h3>２．個人情報保護管理者の氏名又は職名、所属及び連絡先</h3>

<p>管理部 個人情報保護管理担当者<br>
TEL: 03-6721-8548　e-mail: <a href=""mailto:info@osslabo.com"" rel=""nofollow"">info@osslabo.com</a></p>

<h3>３．個人情報の第三者提供について</h3>

<p>当社は、本フォームから取得する個人情報をオープンソース活用研究所、及び、本セミナーの主催・共催・協賛・協力・講演の各企業へ提供します。<br>
(1)第三者に提供する目的：各社のサービス、製品、セミナー、イベントなどのご案内のため、各社のメルマガ登録のため<br>
(2)提供する個人情報の項目：氏名、所属会社名、メールアドレス、電話番号、部署・役職、年代、アンケートへの回答内容<br>
(3)提供の手段又は方法：暗号化したWebを経由して送信<br>
(4)当該情報の提供を受ける者又は提供を受ける者の事業者の種類、及び属性：主催・共催・協賛・協力・講演企業<br>
(5)個人情報の取扱いに関する契約がある場合はその旨：当社サービス利用約款による</p>

<h3>４．個人情報の委託について</h3>

<p>ご提供頂く個人情報は、利用目的の範囲内でその取扱いの一部又は全部を外部事業者に委託する場合がございます。その場合は、委託した個人情報の安全管理が図られるように、委託をする各社が定めた基準を満たす委託先を選定し、委託先に対して必要かつ適切な監督を行います。</p>

<h3>５．開示等のご請求に関しまして</h3>

<p>当社は、本お申込みフォームから取得する個人情報に関し、保有個人データ又は第三者提供記録に関するご本人又はその代理人からの利用目的の通知、開示、内容の訂正、追加又は削除、利用の停止、消去及び第三者への提供の停止等、並びに第三者提供記録の開示のご請求(以下、「開示等のご請求」といいます)に応じます。<br>
開示等のご請求に関しましては、下記「個人情報の取扱いに関するお問合せ先 」までお申し出ください。<br>
なお、提供先である株式会社オープンソース活用研究所及び主催・共催・協賛・協力・講演企業のご請求窓口等は、各社のプライバシーポリシーを御覧ください。</p>

<h3>６．個人情報のご提供の任意性について</h3>

<p>当社に個人情報をご提供頂くことは、ご本人様の任意です。ただし、必須項目に設定する情報をご提供頂けない場合、及びご入力頂いた内容が正確でない場合には、本セミナーにお申込みができない場合がございますのでご了承ください。</p>

<h3>７．本人が容易に知覚できない方法による個人情報の取得について</h3>

<p>当社が運営するウェブサイトでは、ユーザビリティ確保のためにCookie情報を取得しておりますが、当該情報を特定の個人を識別して利用することはございません。</p>

<h3>８．個人情報の取扱いに関するお問合せ先</h3>

<p>当社の個人情報の取扱いに関するお問合せ、苦情及び相談につきましては、以下にお申し出ください。<br>
管理部 個人情報保護管理担当者<br>
TEL: 03-6721-8548　e-mail: <a href=""mailto:info@osslabo.com"" rel=""nofollow"">info@osslabo.com</a></p>",,,Doorkeeper Events API,Doorkeeper Events API,,184759.0,2025-06-10T02:00:00.000Z,2025-06-10T03:00:00.000Z,,2025-05-20T05:22:35.429Z,2025-05-20T05:22:35.433Z,10965.0,https://doorkeeper.jp/rails/active_storage/representations/proxy/eyJfcmFpbHMiOnsibWVzc2FnZSI6IkJBaHBBelVCQnc9PSIsImV4cCI6bnVsbCwicHVyIjoiYmxvYl9pZCJ9fQ==--0f74ef733856e6f53dd2bc331e70caa2971033aa/eyJfcmFpbHMiOnsibWVzc2FnZSI6IkJBaDdCem9MWm05eWJXRjBTU0lJYW5CbkJqb0dSVlE2RkhKbGMybDZaVjkwYjE5c2FXMXBkRnNIYVFMb0F6QT0iLCJleHAiOm51bGwsInB1ciI6InZhcmlhdGlvbiJ9fQ==--8ce6569ce3b1f779d3cfcdbb6038d926ad4475c7/20250610_f5_bannerD.jpg,https://majisemi-security.doorkeeper.jp/events/184759,0.0,0.0,0.0,,,https://api.doorkeeper.jp/events,
87,https://majisemi-security.doorkeeper.jp/events/184757, 侵入が防げない時代に選ぶべき脆弱性診断サービスとは？  ～実績・サポート・診断基準で比較する、最適な脆弱性診断の選び方～,2025-06-18T05:00:00.000Z,"<h1>本セミナーはWebセミナーです</h1>

<p>ツールはZoomを使います。URLは直前にメールにてご連絡いたします。</p>

<p>なお、「osslabo.com」「majisemi.com」からのメールが迷惑メールとならないよう、メールの設定をご確認ください。</p>

<p>　</p>

<h1>攻撃は防ぎきれない時代、診断精度の選定が企業の命運を左右する</h1>

<p>IPAが発表する「情報セキュリティ10大脅威」では、標的型攻撃やゼロデイ攻撃、サプライチェーン攻撃など、防御の想定を超える手法が上位を占めています。攻撃者は一点突破で済むのに対し、防御側はあらゆる脆弱性を塞ぐ必要があり、構造的に攻撃者が有利な状況が続いています。この現実においては、すべての攻撃を防ぐのではなく、「どこから侵入される可能性があるか」を事前に知ることが現実的な対策です。そのため、脆弱性診断は単なるチェックではなく、実効性ある防御戦略の第一歩であり、その診断の精度や支援体制は企業の命運を左右する選択となります。</p>

<h1>診断の必要性は認識済みでも、では「どれを選べばよいのか？」がわからない</h1>

<p>多くの企業が脆弱性診断の導入を検討する中で直面するのが、「どのサービスが自社に適しているのか判断できない」という課題です。診断範囲や精度、報告内容の分かりやすさ、対応力などは各社で異なり、その違いが表面化しづらいため、判断基準が曖昧になりがちです。特に、過去に診断を受けた経験があっても、十分な解決に至っていない、あるいは比較の視点を持てていない企業も少なくありません。価格や知名度だけで選ぶと、本当に必要な対策につながらないケースも存在します。何を基準にサービスを選ぶかという基準については、ちゃんと考えなければなりません。</p>

<h1>違いがわかる目を養い、自社に最適な診断サービスを選ぶために必要なことは？</h1>

<p>本セミナーでは、診断サービスを選ぶ際に見落とされがちな「診断精度」「対応範囲」「報告品質」「支援体制」などの違いを比較しながら、自社にとって本当に必要な診断とは何かを見極める視点を提供します。あわせて、豊富な実績を積み、金融機関をはじめとする厳格な要求水準を持つ組織に選ばれてきたBBSecの脆弱性診断サービス「SQAT」についても、詳しく解説します。国内で数少ないPCI DSS関連認定（PFI・QSA）を有する診断機関としての信頼性もご紹介し、「どの診断が信頼できるのか」を具体的な違いから明確化します。判断に迷う今だからこそ、“違いが見える”この機会をぜひご活用ください。</p>

<h1>【お得なキャンペーンのご案内】</h1>

<p>詳細はウェビナーにて</p>

<p>　</p>

<h1>プログラム</h1>

<h2>13:45～14:00　受付</h2>

<h2>14:00～14:05　オープニング（マジセミ）</h2>

<h2>14:05～14:45　侵入が防げない時代に選ぶべき脆弱性診断サービスとは？  ～実績・サポート・診断基準で比較する、最適な脆弱性診断の選び方～</h2>

<h2>14:45～15:00　質疑応答</h2>

<p>　</p>

<h1>主催</h1>

<p>株式会社ブロードバンドセキュリティ（<a href=""https://cr.bbsec.co.jp/seminar_privacypolicy"" rel=""nofollow"">プライバシーポリシー</a>）</p>

<h1>協力</h1>

<p>株式会社オープンソース活用研究所（<a href=""https://osslabo.com/privacy"" rel=""nofollow"">プライバシーポリシー</a>）</p>

<p>マジセミ株式会社（<a href=""https://majisemi.com/service/privacy/"" rel=""nofollow"">プライバシーポリシー</a>）</p>

<p>※共催、協賛、協力、講演企業は将来的に追加、削除される可能性があります。</p>

<p>　</p>

<h1>当日会場アクセスに関するお問合せ</h1>

<p><a href=""mailto:zoom@osslabo.com"" rel=""nofollow"">zoom@osslabo.com</a></p>

<p>　</p>

<h1>セミナー事務局</h1>

<p>マジセミ株式会社（<a href=""https://majisemi.com/service/privacy"" rel=""nofollow"">プライバシーポリシー</a>）<br>
<img src=""https://majisemi.com/e/checker.gif"" width=""1px""></p>

<p>※以下の方について、当社判断によりご参加をご遠慮いただく場合がございます。予めご了承ください。</p>

<p>・講演企業の競合となる商品・サービスを提供している企業、同業の企業、及びそのグループ企業・関連企業の方<br>
・個人や個人事業主の方<br>
・海外から参加される方<br>
・日本に活動拠点が無い企業の方<br>
・その他、弊社及び講演企業が不適切と判断した企業・個人の方</p>

<p>※申込が多数の場合、弊社抽選にてご参加をご遠慮いただく場合がございますので、予めご了承ください。</p>

<p>当社では、本フォームから取得する個人情報を下記の通り取扱います。<br>
下記をご一読いただき、ご同意の上で送信してください。</p>

<h3>１．個人情報の利用目的</h3>

<p>本フォームからのお申込みにあたりご提供頂く個人情報は、以下の目的で利用いたします。<br>
・主催、共催、協賛、協力するセミナーや展示会、イベントにおける参加者管理業務のため<br>
・当社が主催、共催、協賛、協力する資料閲覧サービスや動画視聴サービスにおける資料閲覧・動画視聴サービスのご提供、並びに申込者管理のため<br>
・メルマガ配信のため</p>

<h3>２．個人情報保護管理者の氏名又は職名、所属及び連絡先</h3>

<p>管理部 個人情報保護管理担当者<br>
TEL: 03-6721-8548　e-mail: <a href=""mailto:info@osslabo.com"" rel=""nofollow"">info@osslabo.com</a></p>

<h3>３．個人情報の第三者提供について</h3>

<p>当社は、本フォームから取得する個人情報をオープンソース活用研究所、及び、本セミナーの主催・共催・協賛・協力・講演の各企業へ提供します。<br>
(1)第三者に提供する目的：各社のサービス、製品、セミナー、イベントなどのご案内のため、各社のメルマガ登録のため<br>
(2)提供する個人情報の項目：氏名、所属会社名、メールアドレス、電話番号、部署・役職、年代、アンケートへの回答内容<br>
(3)提供の手段又は方法：暗号化したWebを経由して送信<br>
(4)当該情報の提供を受ける者又は提供を受ける者の事業者の種類、及び属性：主催・共催・協賛・協力・講演企業<br>
(5)個人情報の取扱いに関する契約がある場合はその旨：当社サービス利用約款による</p>

<h3>４．個人情報の委託について</h3>

<p>ご提供頂く個人情報は、利用目的の範囲内でその取扱いの一部又は全部を外部事業者に委託する場合がございます。その場合は、委託した個人情報の安全管理が図られるように、委託をする各社が定めた基準を満たす委託先を選定し、委託先に対して必要かつ適切な監督を行います。</p>

<h3>５．開示等のご請求に関しまして</h3>

<p>当社は、本お申込みフォームから取得する個人情報に関し、保有個人データ又は第三者提供記録に関するご本人又はその代理人からの利用目的の通知、開示、内容の訂正、追加又は削除、利用の停止、消去及び第三者への提供の停止等、並びに第三者提供記録の開示のご請求(以下、「開示等のご請求」といいます)に応じます。<br>
開示等のご請求に関しましては、下記「個人情報の取扱いに関するお問合せ先 」までお申し出ください。<br>
なお、提供先である株式会社オープンソース活用研究所及び主催・共催・協賛・協力・講演企業のご請求窓口等は、各社のプライバシーポリシーを御覧ください。</p>

<h3>６．個人情報のご提供の任意性について</h3>

<p>当社に個人情報をご提供頂くことは、ご本人様の任意です。ただし、必須項目に設定する情報をご提供頂けない場合、及びご入力頂いた内容が正確でない場合には、本セミナーにお申込みができない場合がございますのでご了承ください。</p>

<h3>７．本人が容易に知覚できない方法による個人情報の取得について</h3>

<p>当社が運営するウェブサイトでは、ユーザビリティ確保のためにCookie情報を取得しておりますが、当該情報を特定の個人を識別して利用することはございません。</p>

<h3>８．個人情報の取扱いに関するお問合せ先</h3>

<p>当社の個人情報の取扱いに関するお問合せ、苦情及び相談につきましては、以下にお申し出ください。<br>
管理部 個人情報保護管理担当者<br>
TEL: 03-6721-8548　e-mail: <a href=""mailto:info@osslabo.com"" rel=""nofollow"">info@osslabo.com</a></p>",,,Doorkeeper Events API,Doorkeeper Events API,,184757.0,2025-06-18T05:00:00.000Z,2025-06-18T06:00:00.000Z,,2025-05-20T05:00:54.721Z,2025-05-20T05:00:54.724Z,10965.0,https://doorkeeper.jp/rails/active_storage/representations/proxy/eyJfcmFpbHMiOnsibWVzc2FnZSI6IkJBaHBBeThCQnc9PSIsImV4cCI6bnVsbCwicHVyIjoiYmxvYl9pZCJ9fQ==--d87e64b698c727cad43d2f2741ab7574a3782d11/eyJfcmFpbHMiOnsibWVzc2FnZSI6IkJBaDdCem9MWm05eWJXRjBTU0lJYW5CbkJqb0dSVlE2RkhKbGMybDZaVjkwYjE5c2FXMXBkRnNIYVFMb0F6QT0iLCJleHAiOm51bGwsInB1ciI6InZhcmlhdGlvbiJ9fQ==--8ce6569ce3b1f779d3cfcdbb6038d926ad4475c7/20250618_bbsec_bannerD.jpg,https://majisemi-security.doorkeeper.jp/events/184757,0.0,0.0,0.0,,,https://api.doorkeeper.jp/events,
